<?xml version="1.0" encoding="UTF-8"?>
<gpx xmlns="http://www.topografix.com/GPX/1/1" xmlns:ns2="http://www.garmin.com/xmlschemas/GpxExtensions/v3" xmlns:ns3="http://www.garmin.com/xmlschemas/TrackPointExtension/v1" xmlns:xsi="http://www.w3.org/2001/XMLSchema-instance" xsi:schemaLocation="http://www.topografix.com/GPX/1/1 http://www.topografix.com/GPX/11.xsd" version="1.1" creator="Garmin Connect">
  <metadata>
    <link href="connect.garmin.com">
      <text>Garmin Connect</text>
    </link>
    <time>2024-06-01T05:18:41Z</time>
  </metadata>
  <trk>
    <name>Sevenoaks Cycling</name>
    <type>cycling</type>
    <trkseg>
      <trkpt lat="51.27705976366997" lon="0.12444117106497288">
        <ele>88.5999984741211</ele>
        <time>2024-06-01T05:18:41Z</time>
        <extensions>
          <ns3:TrackPointExtension></ns3:TrackPointExtension>
        </extensions>
      </trkpt>
      <trkpt lat="51.27716537564993" lon="0.12770600616931915">
        <ele>92.0</ele>
        <time>2024-06-01T05:19:17Z</time>
        <extensions>
          <ns3:TrackPointExtension></ns3:TrackPointExtension>
        </extensions>
      </trkpt>
      <trkpt lat="51.279533095657825" lon="0.12676899321377277">
        <ele>86.5999984741211</ele>
        <time>2024-06-01T05:20:18Z</time>
        <extensions>
          <ns3:TrackPointExtension></ns3:TrackPointExtension>
        </extensions>
      </trkpt>
      <trkpt lat="51.282160403206944" lon="0.1283799111843109">
        <ele>89.4000015258789</ele>
        <time>2024-06-01T05:20:59Z</time>
        <extensions>
          <ns3:TrackPointExtension></ns3:TrackPointExtension>
        </extensions>
      </trkpt>
      <trkpt lat="51.28893616609275" lon="0.13116798363626003">
        <ele>94.19999694824219</ele>
        <time>2024-06-01T05:22:55Z</time>
        <extensions>
          <ns3:TrackPointExtension></ns3:TrackPointExtension>
        </extensions>
      </trkpt>
      <trkpt lat="51.29465379752219" lon="0.14332400634884834">
        <ele>86.0</ele>
        <time>2024-06-01T05:24:57Z</time>
        <extensions>
          <ns3:TrackPointExtension></ns3:TrackPointExtension>
        </extensions>
      </trkpt>
      <trkpt lat="51.296620862558484" lon="0.14407946728169918">
        <ele>87.0</ele>
        <time>2024-06-01T05:25:27Z</time>
        <extensions>
          <ns3:TrackPointExtension></ns3:TrackPointExtension>
        </extensions>
      </trkpt>
      <trkpt lat="51.300498666241765" lon="0.14385567046701908">
        <ele>101.80000305175781</ele>
        <time>2024-06-01T05:26:53Z</time>
        <extensions>
          <ns3:TrackPointExtension></ns3:TrackPointExtension>
        </extensions>
      </trkpt>
      <trkpt lat="51.301846727728844" lon="0.14876344241201878">
        <ele>104.5999984741211</ele>
        <time>2024-06-01T05:28:00Z</time>
        <extensions>
          <ns3:TrackPointExtension></ns3:TrackPointExtension>
        </extensions>
      </trkpt>
      <trkpt lat="51.30401931703091" lon="0.15272866934537888">
        <ele>106.4000015258789</ele>
        <time>2024-06-01T05:28:59Z</time>
        <extensions>
          <ns3:TrackPointExtension></ns3:TrackPointExtension>
        </extensions>
      </trkpt>
      <trkpt lat="51.304961862042546" lon="0.1553648617118597">
        <ele>102.0</ele>
        <time>2024-06-01T05:29:29Z</time>
        <extensions>
          <ns3:TrackPointExtension></ns3:TrackPointExtension>
        </extensions>
      </trkpt>
      <trkpt lat="51.30682423710823" lon="0.15769184567034245">
        <ele>101.0</ele>
        <time>2024-06-01T05:29:57Z</time>
        <extensions>
          <ns3:TrackPointExtension></ns3:TrackPointExtension>
        </extensions>
      </trkpt>
      <trkpt lat="51.30870924331248" lon="0.15852618031203747">
        <ele>110.5999984741211</ele>
        <time>2024-06-01T05:30:32Z</time>
        <extensions>
          <ns3:TrackPointExtension></ns3:TrackPointExtension>
        </extensions>
      </trkpt>
      <trkpt lat="51.30866280756891" lon="0.16045209020376205">
        <ele>102.5999984741211</ele>
        <time>2024-06-01T05:31:00Z</time>
        <extensions>
          <ns3:TrackPointExtension></ns3:TrackPointExtension>
        </extensions>
      </trkpt>
      <trkpt lat="51.31106003187597" lon="0.16125356778502464">
        <ele>97.0</ele>
        <time>2024-06-01T05:31:34Z</time>
        <extensions>
          <ns3:TrackPointExtension></ns3:TrackPointExtension>
        </extensions>
      </trkpt>
      <trkpt lat="51.31146864965558" lon="0.16347812488675117">
        <ele>88.80000305175781</ele>
        <time>2024-06-01T05:31:48Z</time>
        <extensions>
          <ns3:TrackPointExtension></ns3:TrackPointExtension>
        </extensions>
      </trkpt>
      <trkpt lat="51.31113789975643" lon="0.16829369589686394">
        <ele>77.4000015258789</ele>
        <time>2024-06-01T05:32:14Z</time>
        <extensions>
          <ns3:TrackPointExtension></ns3:TrackPointExtension>
        </extensions>
      </trkpt>
      <trkpt lat="51.31210441701114" lon="0.1702788658440113">
        <ele>74.5999984741211</ele>
        <time>2024-06-01T05:32:30Z</time>
        <extensions>
          <ns3:TrackPointExtension></ns3:TrackPointExtension>
        </extensions>
      </trkpt>
      <trkpt lat="51.31225914694369" lon="0.17199723981320858">
        <ele>72.4000015258789</ele>
        <time>2024-06-01T05:32:42Z</time>
        <extensions>
          <ns3:TrackPointExtension></ns3:TrackPointExtension>
        </extensions>
      </trkpt>
      <trkpt lat="51.311344262212515" lon="0.1796016376465559">
        <ele>64.0</ele>
        <time>2024-06-01T05:33:39Z</time>
        <extensions>
          <ns3:TrackPointExtension></ns3:TrackPointExtension>
        </extensions>
      </trkpt>
      <trkpt lat="51.31284981966019" lon="0.1854247134178877">
        <ele>63.79999923706055</ele>
        <time>2024-06-01T05:34:26Z</time>
        <extensions>
          <ns3:TrackPointExtension></ns3:TrackPointExtension>
        </extensions>
      </trkpt>
      <trkpt lat="51.31299499422312" lon="0.19327537156641483">
        <ele>71.0</ele>
        <time>2024-06-01T05:35:53Z</time>
        <extensions>
          <ns3:TrackPointExtension></ns3:TrackPointExtension>
        </extensions>
      </trkpt>
      <trkpt lat="51.313561191782355" lon="0.19714060239493847">
        <ele>86.0</ele>
        <time>2024-06-01T05:36:47Z</time>
        <extensions>
          <ns3:TrackPointExtension></ns3:TrackPointExtension>
        </extensions>
      </trkpt>
      <trkpt lat="51.314451517537236" lon="0.19750161096453667">
        <ele>90.4000015258789</ele>
        <time>2024-06-01T05:37:15Z</time>
        <extensions>
          <ns3:TrackPointExtension></ns3:TrackPointExtension>
        </extensions>
      </trkpt>
      <trkpt lat="51.32105804979801" lon="0.19077647477388382">
        <ele>106.80000305175781</ele>
        <time>2024-06-01T05:39:42Z</time>
        <extensions>
          <ns3:TrackPointExtension></ns3:TrackPointExtension>
        </extensions>
      </trkpt>
      <trkpt lat="51.3239270914346" lon="0.19038118422031403">
        <ele>97.0</ele>
        <time>2024-06-01T05:40:38Z</time>
        <extensions>
          <ns3:TrackPointExtension></ns3:TrackPointExtension>
        </extensions>
      </trkpt>
      <trkpt lat="51.32508781738579" lon="0.1896089594811201">
        <ele>99.80000305175781</ele>
        <time>2024-06-01T05:40:54Z</time>
        <extensions>
          <ns3:TrackPointExtension></ns3:TrackPointExtension>
        </extensions>
      </trkpt>
      <trkpt lat="51.325534991919994" lon="0.19393997266888618">
        <ele>125.5999984741211</ele>
        <time>2024-06-01T05:42:30Z</time>
        <extensions>
          <ns3:TrackPointExtension></ns3:TrackPointExtension>
        </extensions>
      </trkpt>
      <trkpt lat="51.32893276400864" lon="0.19417391158640385">
        <ele>156.60000610351562</ele>
        <time>2024-06-01T05:44:48Z</time>
        <extensions>
          <ns3:TrackPointExtension></ns3:TrackPointExtension>
        </extensions>
      </trkpt>
      <trkpt lat="51.32840738631785" lon="0.19813762977719307">
        <ele>181.0</ele>
        <time>2024-06-01T05:46:48Z</time>
        <extensions>
          <ns3:TrackPointExtension></ns3:TrackPointExtension>
        </extensions>
      </trkpt>
      <trkpt lat="51.32588166743517" lon="0.20575451664626598">
        <ele>197.60000610351562</ele>
        <time>2024-06-01T05:49:26Z</time>
        <extensions>
          <ns3:TrackPointExtension></ns3:TrackPointExtension>
        </extensions>
      </trkpt>
      <trkpt lat="51.323820473626256" lon="0.20826196298003197">
        <ele>201.1999969482422</ele>
        <time>2024-06-01T05:50:35Z</time>
        <extensions>
          <ns3:TrackPointExtension></ns3:TrackPointExtension>
        </extensions>
      </trkpt>
      <trkpt lat="51.32136675529182" lon="0.2077334001660347">
        <ele>203.8000030517578</ele>
        <time>2024-06-01T05:51:43Z</time>
        <extensions>
          <ns3:TrackPointExtension></ns3:TrackPointExtension>
        </extensions>
      </trkpt>
      <trkpt lat="51.3205786049366" lon="0.2091873250901699">
        <ele>200.60000610351562</ele>
        <time>2024-06-01T05:52:07Z</time>
        <extensions>
          <ns3:TrackPointExtension></ns3:TrackPointExtension>
        </extensions>
      </trkpt>
      <trkpt lat="51.32009748369455" lon="0.21164389327168465">
        <ele>199.8000030517578</ele>
        <time>2024-06-01T05:52:34Z</time>
        <extensions>
          <ns3:TrackPointExtension></ns3:TrackPointExtension>
        </extensions>
      </trkpt>
      <trkpt lat="51.31768106482923" lon="0.21384774707257748">
        <ele>207.39999389648438</ele>
        <time>2024-06-01T05:53:39Z</time>
        <extensions>
          <ns3:TrackPointExtension></ns3:TrackPointExtension>
        </extensions>
      </trkpt>
      <trkpt lat="51.31738794967532" lon="0.2164643257856369">
        <ele>213.1999969482422</ele>
        <time>2024-06-01T05:54:15Z</time>
        <extensions>
          <ns3:TrackPointExtension></ns3:TrackPointExtension>
        </extensions>
      </trkpt>
      <trkpt lat="51.31785876117647" lon="0.22071998566389084">
        <ele>202.0</ele>
        <time>2024-06-01T05:54:55Z</time>
        <extensions>
          <ns3:TrackPointExtension></ns3:TrackPointExtension>
        </extensions>
      </trkpt>
      <trkpt lat="51.318635093048215" lon="0.22310832515358925">
        <ele>211.0</ele>
        <time>2024-06-01T05:55:29Z</time>
        <extensions>
          <ns3:TrackPointExtension></ns3:TrackPointExtension>
        </extensions>
      </trkpt>
      <trkpt lat="51.320749847218394" lon="0.22654817439615726">
        <ele>210.8000030517578</ele>
        <time>2024-06-01T05:56:32Z</time>
        <extensions>
          <ns3:TrackPointExtension></ns3:TrackPointExtension>
        </extensions>
      </trkpt>
      <trkpt lat="51.32629942148924" lon="0.23057869635522366">
        <ele>206.0</ele>
        <time>2024-06-01T05:58:17Z</time>
        <extensions>
          <ns3:TrackPointExtension></ns3:TrackPointExtension>
        </extensions>
      </trkpt>
      <trkpt lat="51.32545259781182" lon="0.232649277895689">
        <ele>200.1999969482422</ele>
        <time>2024-06-01T05:58:56Z</time>
        <extensions>
          <ns3:TrackPointExtension></ns3:TrackPointExtension>
        </extensions>
      </trkpt>
      <trkpt lat="51.32582844235003" lon="0.23414033465087414">
        <ele>199.0</ele>
        <time>2024-06-01T05:59:20Z</time>
        <extensions>
          <ns3:TrackPointExtension></ns3:TrackPointExtension>
        </extensions>
      </trkpt>
      <trkpt lat="51.327006770297885" lon="0.236639566719532">
        <ele>193.39999389648438</ele>
        <time>2024-06-01T05:59:59Z</time>
        <extensions>
          <ns3:TrackPointExtension></ns3:TrackPointExtension>
        </extensions>
      </trkpt>
      <trkpt lat="51.3290901761502" lon="0.23935312405228615">
        <ele>168.39999389648438</ele>
        <time>2024-06-01T06:00:34Z</time>
        <extensions>
          <ns3:TrackPointExtension></ns3:TrackPointExtension>
        </extensions>
      </trkpt>
      <trkpt lat="51.329866675660014" lon="0.2420760691165924">
        <ele>150.8000030517578</ele>
        <time>2024-06-01T06:01:07Z</time>
        <extensions>
          <ns3:TrackPointExtension></ns3:TrackPointExtension>
        </extensions>
      </trkpt>
      <trkpt lat="51.32977623492479" lon="0.2434253878891468">
        <ele>136.1999969482422</ele>
        <time>2024-06-01T06:01:24Z</time>
        <extensions>
          <ns3:TrackPointExtension></ns3:TrackPointExtension>
        </extensions>
      </trkpt>
      <trkpt lat="51.329083973541856" lon="0.24481234140694141">
        <ele>127.4000015258789</ele>
        <time>2024-06-01T06:01:45Z</time>
        <extensions>
          <ns3:TrackPointExtension></ns3:TrackPointExtension>
        </extensions>
      </trkpt>
      <trkpt lat="51.33501383475959" lon="0.24966688826680183">
        <ele>115.80000305175781</ele>
        <time>2024-06-01T06:03:46Z</time>
        <extensions>
          <ns3:TrackPointExtension></ns3:TrackPointExtension>
        </extensions>
      </trkpt>
      <trkpt lat="51.33895995095372" lon="0.2517673932015896">
        <ele>106.19999694824219</ele>
        <time>2024-06-01T06:04:45Z</time>
        <extensions>
          <ns3:TrackPointExtension></ns3:TrackPointExtension>
        </extensions>
      </trkpt>
      <trkpt lat="51.341389026492834" lon="0.2519040182232857">
        <ele>101.80000305175781</ele>
        <time>2024-06-01T06:05:21Z</time>
        <extensions>
          <ns3:TrackPointExtension></ns3:TrackPointExtension>
        </extensions>
      </trkpt>
      <trkpt lat="51.3478821516037" lon="0.2444997802376747">
        <ele>84.5999984741211</ele>
        <time>2024-06-01T06:07:37Z</time>
        <extensions>
          <ns3:TrackPointExtension></ns3:TrackPointExtension>
        </extensions>
      </trkpt>
      <trkpt lat="51.35113835334778" lon="0.24360216222703457">
        <ele>83.4000015258789</ele>
        <time>2024-06-01T06:08:30Z</time>
        <extensions>
          <ns3:TrackPointExtension></ns3:TrackPointExtension>
        </extensions>
      </trkpt>
      <trkpt lat="51.35419665835798" lon="0.24164842441678047">
        <ele>76.4000015258789</ele>
        <time>2024-06-01T06:09:19Z</time>
        <extensions>
          <ns3:TrackPointExtension></ns3:TrackPointExtension>
        </extensions>
      </trkpt>
      <trkpt lat="51.35571043007076" lon="0.23970767855644226">
        <ele>73.0</ele>
        <time>2024-06-01T06:09:48Z</time>
        <extensions>
          <ns3:TrackPointExtension></ns3:TrackPointExtension>
        </extensions>
      </trkpt>
      <trkpt lat="51.35843697935343" lon="0.23781705647706985">
        <ele>68.4000015258789</ele>
        <time>2024-06-01T06:10:33Z</time>
        <extensions>
          <ns3:TrackPointExtension></ns3:TrackPointExtension>
        </extensions>
      </trkpt>
      <trkpt lat="51.36066857725382" lon="0.23476478643715382">
        <ele>62.79999923706055</ele>
        <time>2024-06-01T06:11:19Z</time>
        <extensions>
          <ns3:TrackPointExtension></ns3:TrackPointExtension>
        </extensions>
      </trkpt>
      <trkpt lat="51.36410566046834" lon="0.23163347505033016">
        <ele>59.0</ele>
        <time>2024-06-01T06:12:23Z</time>
        <extensions>
          <ns3:TrackPointExtension></ns3:TrackPointExtension>
        </extensions>
      </trkpt>
      <trkpt lat="51.36653917841613" lon="0.23096594028174877">
        <ele>55.0</ele>
        <time>2024-06-01T06:13:04Z</time>
        <extensions>
          <ns3:TrackPointExtension></ns3:TrackPointExtension>
        </extensions>
      </trkpt>
      <trkpt lat="51.368633564561605" lon="0.23247560486197472">
        <ele>51.79999923706055</ele>
        <time>2024-06-01T06:13:40Z</time>
        <extensions>
          <ns3:TrackPointExtension></ns3:TrackPointExtension>
        </extensions>
      </trkpt>
      <trkpt lat="51.37081897817552" lon="0.23272563703358173">
        <ele>49.0</ele>
        <time>2024-06-01T06:14:16Z</time>
        <extensions>
          <ns3:TrackPointExtension></ns3:TrackPointExtension>
        </extensions>
      </trkpt>
      <trkpt lat="51.37429520487785" lon="0.22887742146849632">
        <ele>46.599998474121094</ele>
        <time>2024-06-01T06:15:21Z</time>
        <extensions>
          <ns3:TrackPointExtension></ns3:TrackPointExtension>
        </extensions>
      </trkpt>
      <trkpt lat="51.378255570307374" lon="0.22556179203093052">
        <ele>48.20000076293945</ele>
        <time>2024-06-01T06:16:44Z</time>
        <extensions>
          <ns3:TrackPointExtension></ns3:TrackPointExtension>
        </extensions>
      </trkpt>
      <trkpt lat="51.38219079002738" lon="0.2181681990623474">
        <ele>43.599998474121094</ele>
        <time>2024-06-01T06:18:15Z</time>
        <extensions>
          <ns3:TrackPointExtension></ns3:TrackPointExtension>
        </extensions>
      </trkpt>
      <trkpt lat="51.3814265280962" lon="0.21722196601331234">
        <ele>53.599998474121094</ele>
        <time>2024-06-01T06:18:50Z</time>
        <extensions>
          <ns3:TrackPointExtension></ns3:TrackPointExtension>
        </extensions>
      </trkpt>
      <trkpt lat="51.37886116281152" lon="0.21644152700901031">
        <ele>52.20000076293945</ele>
        <time>2024-06-01T06:19:40Z</time>
        <extensions>
          <ns3:TrackPointExtension></ns3:TrackPointExtension>
        </extensions>
      </trkpt>
      <trkpt lat="51.3763805385679" lon="0.2148307766765356">
        <ele>52.400001525878906</ele>
        <time>2024-06-01T06:20:31Z</time>
        <extensions>
          <ns3:TrackPointExtension></ns3:TrackPointExtension>
        </extensions>
      </trkpt>
      <trkpt lat="51.369295567274094" lon="0.20729008130729198">
        <ele>42.79999923706055</ele>
        <time>2024-06-01T06:22:45Z</time>
        <extensions>
          <ns3:TrackPointExtension></ns3:TrackPointExtension>
        </extensions>
      </trkpt>
      <trkpt lat="51.36773175559938" lon="0.21126310341060162">
        <ele>40.0</ele>
        <time>2024-06-01T06:23:44Z</time>
        <extensions>
          <ns3:TrackPointExtension></ns3:TrackPointExtension>
        </extensions>
      </trkpt>
      <trkpt lat="51.36488358490169" lon="0.2059581968933344">
        <ele>55.400001525878906</ele>
        <time>2024-06-01T06:25:29Z</time>
        <extensions>
          <ns3:TrackPointExtension></ns3:TrackPointExtension>
        </extensions>
      </trkpt>
      <trkpt lat="51.3619888946414" lon="0.20331286825239658">
        <ele>54.20000076293945</ele>
        <time>2024-06-01T06:26:23Z</time>
        <extensions>
          <ns3:TrackPointExtension></ns3:TrackPointExtension>
        </extensions>
      </trkpt>
      <trkpt lat="51.3573903311044" lon="0.200900724157691">
        <ele>73.5999984741211</ele>
        <time>2024-06-01T06:28:03Z</time>
        <extensions>
          <ns3:TrackPointExtension></ns3:TrackPointExtension>
        </extensions>
      </trkpt>
      <trkpt lat="51.35310064069927" lon="0.19318652339279652">
        <ele>50.0</ele>
        <time>2024-06-01T06:29:17Z</time>
        <extensions>
          <ns3:TrackPointExtension></ns3:TrackPointExtension>
        </extensions>
      </trkpt>
      <trkpt lat="51.352380216121674" lon="0.1905753929167986">
        <ele>48.79999923706055</ele>
        <time>2024-06-01T06:29:43Z</time>
        <extensions>
          <ns3:TrackPointExtension></ns3:TrackPointExtension>
        </extensions>
      </trkpt>
      <trkpt lat="51.35062135756016" lon="0.18778237514197826">
        <ele>50.0</ele>
        <time>2024-06-01T06:30:22Z</time>
        <extensions>
          <ns3:TrackPointExtension></ns3:TrackPointExtension>
        </extensions>
      </trkpt>
      <trkpt lat="51.349252508953214" lon="0.18659725785255432">
        <ele>58.400001525878906</ele>
        <time>2024-06-01T06:30:57Z</time>
        <extensions>
          <ns3:TrackPointExtension></ns3:TrackPointExtension>
        </extensions>
      </trkpt>
      <trkpt lat="51.349361473694444" lon="0.18416239880025387">
        <ele>70.4000015258789</ele>
        <time>2024-06-01T06:32:00Z</time>
        <extensions>
          <ns3:TrackPointExtension></ns3:TrackPointExtension>
        </extensions>
      </trkpt>
      <trkpt lat="51.34577460587025" lon="0.18338053487241268">
        <ele>68.80000305175781</ele>
        <time>2024-06-01T06:33:11Z</time>
        <extensions>
          <ns3:TrackPointExtension></ns3:TrackPointExtension>
        </extensions>
      </trkpt>
      <trkpt lat="51.34435177780688" lon="0.18005493097007275">
        <ele>60.400001525878906</ele>
        <time>2024-06-01T06:33:55Z</time>
        <extensions>
          <ns3:TrackPointExtension></ns3:TrackPointExtension>
        </extensions>
      </trkpt>
      <trkpt lat="51.341888001188636" lon="0.17679093405604362">
        <ele>80.19999694824219</ele>
        <time>2024-06-01T06:35:15Z</time>
        <extensions>
          <ns3:TrackPointExtension></ns3:TrackPointExtension>
        </extensions>
      </trkpt>
      <trkpt lat="51.338871102780104" lon="0.17744195647537708">
        <ele>71.80000305175781</ele>
        <time>2024-06-01T06:39:09Z</time>
        <extensions>
          <ns3:TrackPointExtension></ns3:TrackPointExtension>
        </extensions>
      </trkpt>
      <trkpt lat="51.33814916945994" lon="0.17842632718384266">
        <ele>64.80000305175781</ele>
        <time>2024-06-01T06:39:21Z</time>
        <extensions>
          <ns3:TrackPointExtension></ns3:TrackPointExtension>
        </extensions>
      </trkpt>
      <trkpt lat="51.33268006145954" lon="0.17768469639122486">
        <ele>58.20000076293945</ele>
        <time>2024-06-01T06:40:49Z</time>
        <extensions>
          <ns3:TrackPointExtension></ns3:TrackPointExtension>
        </extensions>
      </trkpt>
      <trkpt lat="51.330526918172836" lon="0.17603572458028793">
        <ele>63.0</ele>
        <time>2024-06-01T06:41:28Z</time>
        <extensions>
          <ns3:TrackPointExtension></ns3:TrackPointExtension>
        </extensions>
      </trkpt>
      <trkpt lat="51.32599557749927" lon="0.1700658816844225">
        <ele>67.4000015258789</ele>
        <time>2024-06-01T06:43:10Z</time>
        <extensions>
          <ns3:TrackPointExtension></ns3:TrackPointExtension>
        </extensions>
      </trkpt>
      <trkpt lat="51.32417150773108" lon="0.16875864006578922">
        <ele>73.0</ele>
        <time>2024-06-01T06:43:52Z</time>
        <extensions>
          <ns3:TrackPointExtension></ns3:TrackPointExtension>
        </extensions>
      </trkpt>
      <trkpt lat="51.32284699939191" lon="0.16652251593768597">
        <ele>87.4000015258789</ele>
        <time>2024-06-01T06:44:54Z</time>
        <extensions>
          <ns3:TrackPointExtension></ns3:TrackPointExtension>
        </extensions>
      </trkpt>
      <trkpt lat="51.31864691153169" lon="0.16413568519055843">
        <ele>82.4000015258789</ele>
        <time>2024-06-01T06:46:12Z</time>
        <extensions>
          <ns3:TrackPointExtension></ns3:TrackPointExtension>
        </extensions>
      </trkpt>
      <trkpt lat="51.31682678125799" lon="0.1642868109047413">
        <ele>84.19999694824219</ele>
        <time>2024-06-01T06:46:45Z</time>
        <extensions>
          <ns3:TrackPointExtension></ns3:TrackPointExtension>
        </extensions>
      </trkpt>
      <trkpt lat="51.314576575532556" lon="0.16223961487412453">
        <ele>94.5999984741211</ele>
        <time>2024-06-01T06:47:47Z</time>
        <extensions>
          <ns3:TrackPointExtension></ns3:TrackPointExtension>
        </extensions>
      </trkpt>
      <trkpt lat="51.31132900714874" lon="0.16222067177295685">
        <ele>94.5999984741211</ele>
        <time>2024-06-01T06:48:47Z</time>
        <extensions>
          <ns3:TrackPointExtension></ns3:TrackPointExtension>
        </extensions>
      </trkpt>
      <trkpt lat="51.31074436940253" lon="0.1609472930431366">
        <ele>97.4000015258789</ele>
        <time>2024-06-01T06:49:18Z</time>
        <extensions>
          <ns3:TrackPointExtension></ns3:TrackPointExtension>
        </extensions>
      </trkpt>
      <trkpt lat="51.3086096663028" lon="0.16024027951061726">
        <ele>102.80000305175781</ele>
        <time>2024-06-01T06:50:09Z</time>
        <extensions>
          <ns3:TrackPointExtension></ns3:TrackPointExtension>
        </extensions>
      </trkpt>
      <trkpt lat="51.30888040177524" lon="0.1585486438125372">
        <ele>112.0</ele>
        <time>2024-06-01T06:50:37Z</time>
        <extensions>
          <ns3:TrackPointExtension></ns3:TrackPointExtension>
        </extensions>
      </trkpt>
      <trkpt lat="51.31023525260389" lon="0.15808981843292713">
        <ele>116.19999694824219</ele>
        <time>2024-06-01T06:51:15Z</time>
        <extensions>
          <ns3:TrackPointExtension></ns3:TrackPointExtension>
        </extensions>
      </trkpt>
      <trkpt lat="51.31343378685415" lon="0.1554786879569292">
        <ele>133.1999969482422</ele>
        <time>2024-06-01T06:52:51Z</time>
        <extensions>
          <ns3:TrackPointExtension></ns3:TrackPointExtension>
        </extensions>
      </trkpt>
      <trkpt lat="51.31497907452285" lon="0.15554574318230152">
        <ele>140.39999389648438</ele>
        <time>2024-06-01T06:53:32Z</time>
        <extensions>
          <ns3:TrackPointExtension></ns3:TrackPointExtension>
        </extensions>
      </trkpt>
      <trkpt lat="51.31810896098614" lon="0.1573268137872219">
        <ele>151.0</ele>
        <time>2024-06-01T06:54:54Z</time>
        <extensions>
          <ns3:TrackPointExtension></ns3:TrackPointExtension>
        </extensions>
      </trkpt>
      <trkpt lat="51.321873273700476" lon="0.1571633666753769">
        <ele>168.8000030517578</ele>
        <time>2024-06-01T06:56:35Z</time>
        <extensions>
          <ns3:TrackPointExtension></ns3:TrackPointExtension>
        </extensions>
      </trkpt>
      <trkpt lat="51.3320068269968" lon="0.14855892397463322">
        <ele>160.8000030517578</ele>
        <time>2024-06-01T06:59:54Z</time>
        <extensions>
          <ns3:TrackPointExtension></ns3:TrackPointExtension>
        </extensions>
      </trkpt>
      <trkpt lat="51.334811663255095" lon="0.14537036418914795">
        <ele>152.60000610351562</ele>
        <time>2024-06-01T07:00:37Z</time>
        <extensions>
          <ns3:TrackPointExtension></ns3:TrackPointExtension>
        </extensions>
      </trkpt>
      <trkpt lat="51.34065401740372" lon="0.1424122229218483">
        <ele>135.0</ele>
        <time>2024-06-01T07:01:50Z</time>
        <extensions>
          <ns3:TrackPointExtension></ns3:TrackPointExtension>
        </extensions>
      </trkpt>
      <trkpt lat="51.34411624632776" lon="0.13655679300427437">
        <ele>125.0</ele>
        <time>2024-06-01T07:02:56Z</time>
        <extensions>
          <ns3:TrackPointExtension></ns3:TrackPointExtension>
        </extensions>
      </trkpt>
      <trkpt lat="51.34486055932939" lon="0.13396544381976128">
        <ele>122.5999984741211</ele>
        <time>2024-06-01T07:03:20Z</time>
        <extensions>
          <ns3:TrackPointExtension></ns3:TrackPointExtension>
        </extensions>
      </trkpt>
      <trkpt lat="51.34579673409462" lon="0.1247609406709671">
        <ele>118.0</ele>
        <time>2024-06-01T07:04:45Z</time>
        <extensions>
          <ns3:TrackPointExtension></ns3:TrackPointExtension>
        </extensions>
      </trkpt>
      <trkpt lat="51.34429318830371" lon="0.11993221007287502">
        <ele>108.5999984741211</ele>
        <time>2024-06-01T07:05:27Z</time>
        <extensions>
          <ns3:TrackPointExtension></ns3:TrackPointExtension>
        </extensions>
      </trkpt>
      <trkpt lat="51.34448412805796" lon="0.1112790685147047">
        <ele>98.0</ele>
        <time>2024-06-01T07:06:33Z</time>
        <extensions>
          <ns3:TrackPointExtension></ns3:TrackPointExtension>
        </extensions>
      </trkpt>
      <trkpt lat="51.34148399345577" lon="0.11082946322858334">
        <ele>105.80000305175781</ele>
        <time>2024-06-01T07:07:26Z</time>
        <extensions>
          <ns3:TrackPointExtension></ns3:TrackPointExtension>
        </extensions>
      </trkpt>
      <trkpt lat="51.33609836921096" lon="0.11502276174724102">
        <ele>124.4000015258789</ele>
        <time>2024-06-01T07:09:27Z</time>
        <extensions>
          <ns3:TrackPointExtension></ns3:TrackPointExtension>
        </extensions>
      </trkpt>
      <trkpt lat="51.333629228174686" lon="0.11625096201896667">
        <ele>137.60000610351562</ele>
        <time>2024-06-01T07:10:40Z</time>
        <extensions>
          <ns3:TrackPointExtension></ns3:TrackPointExtension>
        </extensions>
      </trkpt>
      <trkpt lat="51.329770032316446" lon="0.11716769076883793">
        <ele>159.60000610351562</ele>
        <time>2024-06-01T07:13:09Z</time>
        <extensions>
          <ns3:TrackPointExtension></ns3:TrackPointExtension>
        </extensions>
      </trkpt>
      <trkpt lat="51.325419237837195" lon="0.12030838988721371">
        <ele>175.39999389648438</ele>
        <time>2024-06-01T07:15:22Z</time>
        <extensions>
          <ns3:TrackPointExtension></ns3:TrackPointExtension>
        </extensions>
      </trkpt>
      <trkpt lat="51.322436621412635" lon="0.12316745705902576">
        <ele>174.8000030517578</ele>
        <time>2024-06-01T07:16:24Z</time>
        <extensions>
          <ns3:TrackPointExtension></ns3:TrackPointExtension>
        </extensions>
      </trkpt>
      <trkpt lat="51.319700349122286" lon="0.12721030041575432">
        <ele>178.39999389648438</ele>
        <time>2024-06-01T07:17:26Z</time>
        <extensions>
          <ns3:TrackPointExtension></ns3:TrackPointExtension>
        </extensions>
      </trkpt>
      <trkpt lat="51.31913968361914" lon="0.1273174211382866">
        <ele>177.8000030517578</ele>
        <time>2024-06-01T07:17:38Z</time>
        <extensions>
          <ns3:TrackPointExtension></ns3:TrackPointExtension>
        </extensions>
      </trkpt>
      <trkpt lat="51.318227648735046" lon="0.12650328688323498">
        <ele>180.0</ele>
        <time>2024-06-01T07:18:02Z</time>
        <extensions>
          <ns3:TrackPointExtension></ns3:TrackPointExtension>
        </extensions>
      </trkpt>
      <trkpt lat="51.31651313044131" lon="0.12732479721307755">
        <ele>189.1999969482422</ele>
        <time>2024-06-01T07:18:45Z</time>
        <extensions>
          <ns3:TrackPointExtension></ns3:TrackPointExtension>
        </extensions>
      </trkpt>
      <trkpt lat="51.315552815794945" lon="0.13351508416235447">
        <ele>195.8000030517578</ele>
        <time>2024-06-01T07:20:30Z</time>
        <extensions>
          <ns3:TrackPointExtension></ns3:TrackPointExtension>
        </extensions>
      </trkpt>
      <trkpt lat="51.30934995599091" lon="0.13723966665565968">
        <ele>213.8000030517578</ele>
        <time>2024-06-01T07:23:16Z</time>
        <extensions>
          <ns3:TrackPointExtension></ns3:TrackPointExtension>
        </extensions>
      </trkpt>
      <trkpt lat="51.30623457022011" lon="0.1422635279595852">
        <ele>177.0</ele>
        <time>2024-06-01T07:24:19Z</time>
        <extensions>
          <ns3:TrackPointExtension></ns3:TrackPointExtension>
        </extensions>
      </trkpt>
      <trkpt lat="51.305916644632816" lon="0.1436455361545086">
        <ele>162.60000610351562</ele>
        <time>2024-06-01T07:24:30Z</time>
        <extensions>
          <ns3:TrackPointExtension></ns3:TrackPointExtension>
        </extensions>
      </trkpt>
      <trkpt lat="51.306768748909235" lon="0.1465479377657175">
        <ele>145.60000610351562</ele>
        <time>2024-06-01T07:24:48Z</time>
        <extensions>
          <ns3:TrackPointExtension></ns3:TrackPointExtension>
        </extensions>
      </trkpt>
      <trkpt lat="51.30673907697201" lon="0.1498221606016159">
        <ele>128.0</ele>
        <time>2024-06-01T07:25:06Z</time>
        <extensions>
          <ns3:TrackPointExtension></ns3:TrackPointExtension>
        </extensions>
      </trkpt>
      <trkpt lat="51.30118162371218" lon="0.1556729804724455">
        <ele>96.0</ele>
        <time>2024-06-01T07:26:18Z</time>
        <extensions>
          <ns3:TrackPointExtension></ns3:TrackPointExtension>
        </extensions>
      </trkpt>
      <trkpt lat="51.29985032603145" lon="0.16144408844411373">
        <ele>94.0</ele>
        <time>2024-06-01T07:27:03Z</time>
        <extensions>
          <ns3:TrackPointExtension></ns3:TrackPointExtension>
        </extensions>
      </trkpt>
      <trkpt lat="51.29861081019044" lon="0.16338818706572056">
        <ele>88.80000305175781</ele>
        <time>2024-06-01T07:27:24Z</time>
        <extensions>
          <ns3:TrackPointExtension></ns3:TrackPointExtension>
        </extensions>
      </trkpt>
      <trkpt lat="51.29323214292526" lon="0.16721779480576515">
        <ele>80.0</ele>
        <time>2024-06-01T07:28:42Z</time>
        <extensions>
          <ns3:TrackPointExtension></ns3:TrackPointExtension>
        </extensions>
      </trkpt>
      <trkpt lat="51.29038129001856" lon="0.16833233647048473">
        <ele>70.5999984741211</ele>
        <time>2024-06-01T07:29:18Z</time>
        <extensions>
          <ns3:TrackPointExtension></ns3:TrackPointExtension>
        </extensions>
      </trkpt>
      <trkpt lat="51.28865838982165" lon="0.16786454245448112">
        <ele>69.0</ele>
        <time>2024-06-01T07:29:40Z</time>
        <extensions>
          <ns3:TrackPointExtension></ns3:TrackPointExtension>
        </extensions>
      </trkpt>
      <trkpt lat="51.28703976050019" lon="0.16822404228150845">
        <ele>73.0</ele>
        <time>2024-06-01T07:30:02Z</time>
        <extensions>
          <ns3:TrackPointExtension></ns3:TrackPointExtension>
        </extensions>
      </trkpt>
      <trkpt lat="51.284481855109334" lon="0.17008029855787754">
        <ele>77.80000305175781</ele>
        <time>2024-06-01T07:30:44Z</time>
        <extensions>
          <ns3:TrackPointExtension></ns3:TrackPointExtension>
        </extensions>
      </trkpt>
      <trkpt lat="51.2836738396436" lon="0.17010862939059734">
        <ele>80.0</ele>
        <time>2024-06-01T07:30:57Z</time>
        <extensions>
          <ns3:TrackPointExtension></ns3:TrackPointExtension>
        </extensions>
      </trkpt>
      <trkpt lat="51.28029350191355" lon="0.163508215919137">
        <ele>100.0</ele>
        <time>2024-06-01T07:33:30Z</time>
        <extensions>
          <ns3:TrackPointExtension></ns3:TrackPointExtension>
        </extensions>
      </trkpt>
      <trkpt lat="51.277322452515364" lon="0.1607670821249485">
        <ele>110.80000305175781</ele>
        <time>2024-06-01T07:38:14Z</time>
        <extensions>
          <ns3:TrackPointExtension></ns3:TrackPointExtension>
        </extensions>
      </trkpt>
      <trkpt lat="51.27581647597253" lon="0.16010901890695095">
        <ele>121.4000015258789</ele>
        <time>2024-06-01T07:39:02Z</time>
        <extensions>
          <ns3:TrackPointExtension></ns3:TrackPointExtension>
        </extensions>
      </trkpt>
      <trkpt lat="51.27386776730418" lon="0.16244329512119293">
        <ele>122.19999694824219</ele>
        <time>2024-06-01T07:39:57Z</time>
        <extensions>
          <ns3:TrackPointExtension></ns3:TrackPointExtension>
        </extensions>
      </trkpt>
      <trkpt lat="51.26977446489036" lon="0.16301007941365242">
        <ele>143.0</ele>
        <time>2024-06-01T07:42:07Z</time>
        <extensions>
          <ns3:TrackPointExtension></ns3:TrackPointExtension>
        </extensions>
      </trkpt>
      <trkpt lat="51.266730492934585" lon="0.16295107081532478">
        <ele>146.0</ele>
        <time>2024-06-01T07:43:26Z</time>
        <extensions>
          <ns3:TrackPointExtension></ns3:TrackPointExtension>
        </extensions>
      </trkpt>
      <trkpt lat="51.26455438323319" lon="0.1614819746464491">
        <ele>153.0</ele>
        <time>2024-06-01T07:44:16Z</time>
        <extensions>
          <ns3:TrackPointExtension></ns3:TrackPointExtension>
        </extensions>
      </trkpt>
      <trkpt lat="51.2636611238122" lon="0.16039375215768814">
        <ele>154.1999969482422</ele>
        <time>2024-06-01T07:44:52Z</time>
        <extensions>
          <ns3:TrackPointExtension></ns3:TrackPointExtension>
        </extensions>
      </trkpt>
      <trkpt lat="51.26292468979955" lon="0.15776703134179115">
        <ele>162.1999969482422</ele>
        <time>2024-06-01T07:45:47Z</time>
        <extensions>
          <ns3:TrackPointExtension></ns3:TrackPointExtension>
        </extensions>
      </trkpt>
      <trkpt lat="51.25849736854434" lon="0.15226791612803936">
        <ele>186.1999969482422</ele>
        <time>2024-06-01T07:48:56Z</time>
        <extensions>
          <ns3:TrackPointExtension></ns3:TrackPointExtension>
        </extensions>
      </trkpt>
      <trkpt lat="51.256696516647935" lon="0.1509329304099083">
        <ele>196.60000610351562</ele>
        <time>2024-06-01T07:49:59Z</time>
        <extensions>
          <ns3:TrackPointExtension></ns3:TrackPointExtension>
        </extensions>
      </trkpt>
      <trkpt lat="51.2528767157346" lon="0.1446224469691515">
        <ele>210.39999389648438</ele>
        <time>2024-06-01T07:55:35Z</time>
        <extensions>
          <ns3:TrackPointExtension></ns3:TrackPointExtension>
        </extensions>
      </trkpt>
      <trkpt lat="51.24657612293959" lon="0.13895301148295403">
        <ele>212.39999389648438</ele>
        <time>2024-06-01T07:57:34Z</time>
        <extensions>
          <ns3:TrackPointExtension></ns3:TrackPointExtension>
        </extensions>
      </trkpt>
      <trkpt lat="51.24482145532966" lon="0.1324572041630745">
        <ele>197.8000030517578</ele>
        <time>2024-06-01T07:58:57Z</time>
        <extensions>
          <ns3:TrackPointExtension></ns3:TrackPointExtension>
        </extensions>
      </trkpt>
      <trkpt lat="51.245037373155355" lon="0.1316938642412424">
        <ele>192.39999389648438</ele>
        <time>2024-06-01T07:59:07Z</time>
        <extensions>
          <ns3:TrackPointExtension></ns3:TrackPointExtension>
        </extensions>
      </trkpt>
      <trkpt lat="51.246583331376314" lon="0.13020968064665794">
        <ele>204.60000610351562</ele>
        <time>2024-06-01T07:59:56Z</time>
        <extensions>
          <ns3:TrackPointExtension></ns3:TrackPointExtension>
        </extensions>
      </trkpt>
      <trkpt lat="51.246314691379666" lon="0.12738238088786602">
        <ele>206.0</ele>
        <time>2024-06-01T08:12:27Z</time>
        <extensions>
          <ns3:TrackPointExtension></ns3:TrackPointExtension>
        </extensions>
      </trkpt>
      <trkpt lat="51.25076447613537" lon="0.12430773116648197">
        <ele>176.0</ele>
        <time>2024-06-01T08:13:24Z</time>
        <extensions>
          <ns3:TrackPointExtension></ns3:TrackPointExtension>
        </extensions>
      </trkpt>
      <trkpt lat="51.25430624932051" lon="0.12296553701162338">
        <ele>184.39999389648438</ele>
        <time>2024-06-01T08:14:22Z</time>
        <extensions>
          <ns3:TrackPointExtension></ns3:TrackPointExtension>
        </extensions>
      </trkpt>
      <trkpt lat="51.26210971735418" lon="0.12198066338896751">
        <ele>177.39999389648438</ele>
        <time>2024-06-01T08:16:41Z</time>
        <extensions>
          <ns3:TrackPointExtension></ns3:TrackPointExtension>
        </extensions>
      </trkpt>
      <trkpt lat="51.26462336629629" lon="0.12279337272047997">
        <ele>163.60000610351562</ele>
        <time>2024-06-01T08:17:20Z</time>
        <extensions>
          <ns3:TrackPointExtension></ns3:TrackPointExtension>
        </extensions>
      </trkpt>
      <trkpt lat="51.27340232022107" lon="0.12081792578101158">
        <ele>121.0</ele>
        <time>2024-06-01T08:18:55Z</time>
        <extensions>
          <ns3:TrackPointExtension></ns3:TrackPointExtension>
        </extensions>
      </trkpt>
      <trkpt lat="51.27784355543554" lon="0.1189944427460432">
        <ele>85.80000305175781</ele>
        <time>2024-06-01T08:19:42Z</time>
        <extensions>
          <ns3:TrackPointExtension></ns3:TrackPointExtension>
        </extensions>
      </trkpt>
      <trkpt lat="51.27676069736481" lon="0.11080565862357616">
        <ele>87.4000015258789</ele>
        <time>2024-06-01T08:21:19Z</time>
        <extensions>
          <ns3:TrackPointExtension></ns3:TrackPointExtension>
        </extensions>
      </trkpt>
      <trkpt lat="51.28128600306809" lon="0.1112027931958437">
        <ele>103.0</ele>
        <time>2024-06-01T08:23:30Z</time>
        <extensions>
          <ns3:TrackPointExtension></ns3:TrackPointExtension>
        </extensions>
      </trkpt>
      <trkpt lat="51.28681537695229" lon="0.11017994955182076">
        <ele>118.0</ele>
        <time>2024-06-01T08:25:54Z</time>
        <extensions>
          <ns3:TrackPointExtension></ns3:TrackPointExtension>
        </extensions>
      </trkpt>
      <trkpt lat="51.29193135537207" lon="0.10428587906062603">
        <ele>138.1999969482422</ele>
        <time>2024-06-01T08:28:55Z</time>
        <extensions>
          <ns3:TrackPointExtension></ns3:TrackPointExtension>
        </extensions>
      </trkpt>
      <trkpt lat="51.28743848763406" lon="0.09491189382970333">
        <ele>135.0</ele>
        <time>2024-06-01T08:31:04Z</time>
        <extensions>
          <ns3:TrackPointExtension></ns3:TrackPointExtension>
        </extensions>
      </trkpt>
      <trkpt lat="51.28488334827125" lon="0.08484983816742897">
        <ele>128.39999389648438</ele>
        <time>2024-06-01T08:32:48Z</time>
        <extensions>
          <ns3:TrackPointExtension></ns3:TrackPointExtension>
        </extensions>
      </trkpt>
      <trkpt lat="51.28407499752939" lon="0.06919093430042267">
        <ele>141.1999969482422</ele>
        <time>2024-06-01T08:36:26Z</time>
        <extensions>
          <ns3:TrackPointExtension></ns3:TrackPointExtension>
        </extensions>
      </trkpt>
      <trkpt lat="51.282306583598256" lon="0.05993245169520378">
        <ele>160.60000610351562</ele>
        <time>2024-06-01T08:39:29Z</time>
        <extensions>
          <ns3:TrackPointExtension></ns3:TrackPointExtension>
        </extensions>
      </trkpt>
      <trkpt lat="51.28290060907602" lon="0.05088477395474911">
        <ele>171.1999969482422</ele>
        <time>2024-06-01T08:41:23Z</time>
        <extensions>
          <ns3:TrackPointExtension></ns3:TrackPointExtension>
        </extensions>
      </trkpt>
      <trkpt lat="51.283375108614564" lon="0.04923446103930473">
        <ele>174.60000610351562</ele>
        <time>2024-06-01T08:42:05Z</time>
        <extensions>
          <ns3:TrackPointExtension></ns3:TrackPointExtension>
        </extensions>
      </trkpt>
      <trkpt lat="51.28295224159956" lon="0.047330092638731">
        <ele>166.39999389648438</ele>
        <time>2024-06-01T08:42:37Z</time>
        <extensions>
          <ns3:TrackPointExtension></ns3:TrackPointExtension>
        </extensions>
      </trkpt>
      <trkpt lat="51.28375598229468" lon="0.046115973964333534">
        <ele>176.39999389648438</ele>
        <time>2024-06-01T08:43:16Z</time>
        <extensions>
          <ns3:TrackPointExtension></ns3:TrackPointExtension>
        </extensions>
      </trkpt>
      <trkpt lat="51.283608712255955" lon="0.039748409762978554">
        <ele>180.60000610351562</ele>
        <time>2024-06-01T08:45:13Z</time>
        <extensions>
          <ns3:TrackPointExtension></ns3:TrackPointExtension>
        </extensions>
      </trkpt>
      <trkpt lat="51.28498736768961" lon="0.03477324731647968">
        <ele>207.60000610351562</ele>
        <time>2024-06-01T08:47:36Z</time>
        <extensions>
          <ns3:TrackPointExtension></ns3:TrackPointExtension>
        </extensions>
      </trkpt>
      <trkpt lat="51.28541383892298" lon="0.02764779143035412">
        <ele>225.8000030517578</ele>
        <time>2024-06-01T08:54:40Z</time>
        <extensions>
          <ns3:TrackPointExtension></ns3:TrackPointExtension>
        </extensions>
      </trkpt>
      <trkpt lat="51.282881582155824" lon="0.008913818746805191">
        <ele>259.79998779296875</ele>
        <time>2024-06-01T09:00:06Z</time>
        <extensions>
          <ns3:TrackPointExtension></ns3:TrackPointExtension>
        </extensions>
      </trkpt>
      <trkpt lat="51.28155807964504" lon="0.004193801432847977">
        <ele>258.0</ele>
        <time>2024-06-01T09:00:59Z</time>
        <extensions>
          <ns3:TrackPointExtension></ns3:TrackPointExtension>
        </extensions>
      </trkpt>
      <trkpt lat="51.282113464549184" lon="0.012010596692562103">
        <ele>242.0</ele>
        <time>2024-06-01T09:01:59Z</time>
        <extensions>
          <ns3:TrackPointExtension></ns3:TrackPointExtension>
        </extensions>
      </trkpt>
      <trkpt lat="51.2816222012043" lon="0.015025148168206215">
        <ele>227.39999389648438</ele>
        <time>2024-06-01T09:02:17Z</time>
        <extensions>
          <ns3:TrackPointExtension></ns3:TrackPointExtension>
        </extensions>
      </trkpt>
      <trkpt lat="51.27843791618943" lon="0.018239859491586685">
        <ele>179.8000030517578</ele>
        <time>2024-06-01T09:02:51Z</time>
        <extensions>
          <ns3:TrackPointExtension></ns3:TrackPointExtension>
        </extensions>
      </trkpt>
      <trkpt lat="51.276103388518095" lon="0.018496932461857796">
        <ele>141.60000610351562</ele>
        <time>2024-06-01T09:03:15Z</time>
        <extensions>
          <ns3:TrackPointExtension></ns3:TrackPointExtension>
        </extensions>
      </trkpt>
      <trkpt lat="51.276959935203195" lon="0.02141936682164669">
        <ele>144.1999969482422</ele>
        <time>2024-06-01T09:04:21Z</time>
        <extensions>
          <ns3:TrackPointExtension></ns3:TrackPointExtension>
        </extensions>
      </trkpt>
      <trkpt lat="51.278453255072236" lon="0.023975176736712456">
        <ele>141.60000610351562</ele>
        <time>2024-06-01T09:11:48Z</time>
        <extensions>
          <ns3:TrackPointExtension></ns3:TrackPointExtension>
        </extensions>
      </trkpt>
      <trkpt lat="51.27925146371126" lon="0.028887055814266205">
        <ele>152.60000610351562</ele>
        <time>2024-06-01T09:13:07Z</time>
        <extensions>
          <ns3:TrackPointExtension></ns3:TrackPointExtension>
        </extensions>
      </trkpt>
      <trkpt lat="51.28048117272556" lon="0.03096585161983967">
        <ele>145.0</ele>
        <time>2024-06-01T09:13:39Z</time>
        <extensions>
          <ns3:TrackPointExtension></ns3:TrackPointExtension>
        </extensions>
      </trkpt>
      <trkpt lat="51.28137627616525" lon="0.036135558038949966">
        <ele>152.8000030517578</ele>
        <time>2024-06-01T09:14:36Z</time>
        <extensions>
          <ns3:TrackPointExtension></ns3:TrackPointExtension>
        </extensions>
      </trkpt>
      <trkpt lat="51.281104451045394" lon="0.03815500997006893">
        <ele>166.1999969482422</ele>
        <time>2024-06-01T09:15:44Z</time>
        <extensions>
          <ns3:TrackPointExtension></ns3:TrackPointExtension>
        </extensions>
      </trkpt>
      <trkpt lat="51.28301787190139" lon="0.0473491195589304">
        <ele>167.0</ele>
        <time>2024-06-01T09:17:46Z</time>
        <extensions>
          <ns3:TrackPointExtension></ns3:TrackPointExtension>
        </extensions>
      </trkpt>
      <trkpt lat="51.27936168573797" lon="0.04664755426347256">
        <ele>148.1999969482422</ele>
        <time>2024-06-01T09:18:26Z</time>
        <extensions>
          <ns3:TrackPointExtension></ns3:TrackPointExtension>
        </extensions>
      </trkpt>
      <trkpt lat="51.27674359828234" lon="0.049049556255340576">
        <ele>136.0</ele>
        <time>2024-06-01T09:18:54Z</time>
        <extensions>
          <ns3:TrackPointExtension></ns3:TrackPointExtension>
        </extensions>
      </trkpt>
      <trkpt lat="51.27497786656022" lon="0.05211716517806053">
        <ele>128.0</ele>
        <time>2024-06-01T09:19:18Z</time>
        <extensions>
          <ns3:TrackPointExtension></ns3:TrackPointExtension>
        </extensions>
      </trkpt>
      <trkpt lat="51.272566728293896" lon="0.05910406820476055">
        <ele>123.0</ele>
        <time>2024-06-01T09:20:13Z</time>
        <extensions>
          <ns3:TrackPointExtension></ns3:TrackPointExtension>
        </extensions>
      </trkpt>
      <trkpt lat="51.269820649176836" lon="0.062900735065341">
        <ele>114.5999984741211</ele>
        <time>2024-06-01T09:20:56Z</time>
        <extensions>
          <ns3:TrackPointExtension></ns3:TrackPointExtension>
        </extensions>
      </trkpt>
      <trkpt lat="51.268333699554205" lon="0.06872045807540417">
        <ele>108.0</ele>
        <time>2024-06-01T09:21:49Z</time>
        <extensions>
          <ns3:TrackPointExtension></ns3:TrackPointExtension>
        </extensions>
      </trkpt>
      <trkpt lat="51.26675899140537" lon="0.06928741000592709">
        <ele>115.80000305175781</ele>
        <time>2024-06-01T09:22:56Z</time>
        <extensions>
          <ns3:TrackPointExtension></ns3:TrackPointExtension>
        </extensions>
      </trkpt>
      <trkpt lat="51.267206417396665" lon="0.07084736600518227">
        <ele>120.4000015258789</ele>
        <time>2024-06-01T09:23:31Z</time>
        <extensions>
          <ns3:TrackPointExtension></ns3:TrackPointExtension>
        </extensions>
      </trkpt>
      <trkpt lat="51.26688991673291" lon="0.07372688502073288">
        <ele>112.4000015258789</ele>
        <time>2024-06-01T09:24:00Z</time>
        <extensions>
          <ns3:TrackPointExtension></ns3:TrackPointExtension>
        </extensions>
      </trkpt>
      <trkpt lat="51.267045149579644" lon="0.07601279765367508">
        <ele>106.80000305175781</ele>
        <time>2024-06-01T09:24:25Z</time>
        <extensions>
          <ns3:TrackPointExtension></ns3:TrackPointExtension>
        </extensions>
      </trkpt>
      <trkpt lat="51.26785224303603" lon="0.07742933928966522">
        <ele>111.0</ele>
        <time>2024-06-01T09:24:46Z</time>
        <extensions>
          <ns3:TrackPointExtension></ns3:TrackPointExtension>
        </extensions>
      </trkpt>
      <trkpt lat="51.26983556896448" lon="0.08478529751300812">
        <ele>102.0</ele>
        <time>2024-06-01T09:25:55Z</time>
        <extensions>
          <ns3:TrackPointExtension></ns3:TrackPointExtension>
        </extensions>
      </trkpt>
      <trkpt lat="51.27160683274269" lon="0.08798651397228241">
        <ele>103.0</ele>
        <time>2024-06-01T09:26:38Z</time>
        <extensions>
          <ns3:TrackPointExtension></ns3:TrackPointExtension>
        </extensions>
      </trkpt>
      <trkpt lat="51.27276814542711" lon="0.09170732460916042">
        <ele>98.80000305175781</ele>
        <time>2024-06-01T09:27:13Z</time>
        <extensions>
          <ns3:TrackPointExtension></ns3:TrackPointExtension>
        </extensions>
      </trkpt>
      <trkpt lat="51.27439591102302" lon="0.0951224472373724">
        <ele>98.5999984741211</ele>
        <time>2024-06-01T09:28:04Z</time>
        <extensions>
          <ns3:TrackPointExtension></ns3:TrackPointExtension>
        </extensions>
      </trkpt>
      <trkpt lat="51.2752016633749" lon="0.1026918925344944">
        <ele>95.0</ele>
        <time>2024-06-01T09:29:19Z</time>
        <extensions>
          <ns3:TrackPointExtension></ns3:TrackPointExtension>
        </extensions>
      </trkpt>
      <trkpt lat="51.27711315639317" lon="0.1142815500497818">
        <ele>90.80000305175781</ele>
        <time>2024-06-01T09:31:04Z</time>
        <extensions>
          <ns3:TrackPointExtension></ns3:TrackPointExtension>
        </extensions>
      </trkpt>
      <trkpt lat="51.2779404502362" lon="0.11739886365830898">
        <ele>87.19999694824219</ele>
        <time>2024-06-01T09:31:34Z</time>
        <extensions>
          <ns3:TrackPointExtension></ns3:TrackPointExtension>
        </extensions>
      </trkpt>
      <trkpt lat="51.278165839612484" lon="0.12647034600377083">
        <ele>86.4000015258789</ele>
        <time>2024-06-01T09:33:06Z</time>
        <extensions>
          <ns3:TrackPointExtension></ns3:TrackPointExtension>
        </extensions>
      </trkpt>
      <trkpt lat="51.27885458059609" lon="0.12984699569642544">
        <ele>86.0</ele>
        <time>2024-06-01T09:33:41Z</time>
        <extensions>
          <ns3:TrackPointExtension></ns3:TrackPointExtension>
        </extensions>
      </trkpt>
      <trkpt lat="51.27943477593362" lon="0.1366342417895794">
        <ele>80.0</ele>
        <time>2024-06-01T09:34:48Z</time>
        <extensions>
          <ns3:TrackPointExtension></ns3:TrackPointExtension>
        </extensions>
      </trkpt>
      <trkpt lat="51.281535029411316" lon="0.14354880899190903">
        <ele>79.80000305175781</ele>
        <time>2024-06-01T09:39:21Z</time>
        <extensions>
          <ns3:TrackPointExtension></ns3:TrackPointExtension>
        </extensions>
      </trkpt>
      <trkpt lat="51.28185664303601" lon="0.14578543603420258">
        <ele>78.19999694824219</ele>
        <time>2024-06-01T09:40:06Z</time>
        <extensions>
          <ns3:TrackPointExtension></ns3:TrackPointExtension>
        </extensions>
      </trkpt>
      <trkpt lat="51.28144224174321" lon="0.14930843375623226">
        <ele>82.4000015258789</ele>
        <time>2024-06-01T09:40:49Z</time>
        <extensions>
          <ns3:TrackPointExtension></ns3:TrackPointExtension>
        </extensions>
      </trkpt>
      <trkpt lat="51.279734428972006" lon="0.15417035669088364">
        <ele>91.80000305175781</ele>
        <time>2024-06-01T09:41:39Z</time>
        <extensions>
          <ns3:TrackPointExtension></ns3:TrackPointExtension>
        </extensions>
      </trkpt>
      <trkpt lat="51.27960903570056" lon="0.1606533396989107">
        <ele>97.19999694824219</ele>
        <time>2024-06-01T09:43:07Z</time>
        <extensions>
          <ns3:TrackPointExtension></ns3:TrackPointExtension>
        </extensions>
      </trkpt>
      <trkpt lat="51.28037413582206" lon="0.16339137218892574">
        <ele>99.5999984741211</ele>
        <time>2024-06-01T09:43:55Z</time>
        <extensions>
          <ns3:TrackPointExtension></ns3:TrackPointExtension>
        </extensions>
      </trkpt>
      <trkpt lat="51.28384935669601" lon="0.16998331993818283">
        <ele>79.19999694824219</ele>
        <time>2024-06-01T09:45:10Z</time>
        <extensions>
          <ns3:TrackPointExtension></ns3:TrackPointExtension>
        </extensions>
      </trkpt>
      <trkpt lat="51.28518040291965" lon="0.1705014891922474">
        <ele>80.0</ele>
        <time>2024-06-01T09:45:36Z</time>
        <extensions>
          <ns3:TrackPointExtension></ns3:TrackPointExtension>
        </extensions>
      </trkpt>
      <trkpt lat="51.28625479526818" lon="0.17389959655702114">
        <ele>74.5999984741211</ele>
        <time>2024-06-01T09:46:18Z</time>
        <extensions>
          <ns3:TrackPointExtension></ns3:TrackPointExtension>
        </extensions>
      </trkpt>
      <trkpt lat="51.286589819937944" lon="0.17854174599051476">
        <ele>72.19999694824219</ele>
        <time>2024-06-01T09:46:53Z</time>
        <extensions>
          <ns3:TrackPointExtension></ns3:TrackPointExtension>
        </extensions>
      </trkpt>
      <trkpt lat="51.28606301732361" lon="0.18129486590623856">
        <ele>80.0</ele>
        <time>2024-06-01T09:47:31Z</time>
        <extensions>
          <ns3:TrackPointExtension></ns3:TrackPointExtension>
        </extensions>
      </trkpt>
      <trkpt lat="51.28607206977904" lon="0.18343225121498108">
        <ele>83.5999984741211</ele>
        <time>2024-06-01T09:48:10Z</time>
        <extensions>
          <ns3:TrackPointExtension></ns3:TrackPointExtension>
        </extensions>
      </trkpt>
      <trkpt lat="51.28834733739495" lon="0.1933122519403696">
        <ele>79.0</ele>
        <time>2024-06-01T09:50:08Z</time>
        <extensions>
          <ns3:TrackPointExtension></ns3:TrackPointExtension>
        </extensions>
      </trkpt>
      <trkpt lat="51.289637982845306" lon="0.19269836135208607">
        <ele>72.0</ele>
        <time>2024-06-01T09:50:33Z</time>
        <extensions>
          <ns3:TrackPointExtension></ns3:TrackPointExtension>
        </extensions>
      </trkpt>
      <trkpt lat="51.29114856943488" lon="0.19058436155319214">
        <ele>67.80000305175781</ele>
        <time>2024-06-01T09:50:58Z</time>
        <extensions>
          <ns3:TrackPointExtension></ns3:TrackPointExtension>
        </extensions>
      </trkpt>
      <trkpt lat="51.2926619220525" lon="0.1896862406283617">
        <ele>70.5999984741211</ele>
        <time>2024-06-01T09:51:19Z</time>
        <extensions>
          <ns3:TrackPointExtension></ns3:TrackPointExtension>
        </extensions>
      </trkpt>
      <trkpt lat="51.29378819838166" lon="0.19066709093749523">
        <ele>69.0</ele>
        <time>2024-06-01T09:51:39Z</time>
        <extensions>
          <ns3:TrackPointExtension></ns3:TrackPointExtension>
        </extensions>
      </trkpt>
      <trkpt lat="51.29785995930433" lon="0.19218279048800468">
        <ele>61.0</ele>
        <time>2024-06-01T09:52:50Z</time>
        <extensions>
          <ns3:TrackPointExtension></ns3:TrackPointExtension>
        </extensions>
      </trkpt>
      <trkpt lat="51.31122875958681" lon="0.1896562334150076">
        <ele>63.599998474121094</ele>
        <time>2024-06-01T10:01:09Z</time>
        <extensions>
          <ns3:TrackPointExtension></ns3:TrackPointExtension>
        </extensions>
      </trkpt>
      <trkpt lat="51.312540108338" lon="0.19038118422031403">
        <ele>68.4000015258789</ele>
        <time>2024-06-01T10:01:38Z</time>
        <extensions>
          <ns3:TrackPointExtension></ns3:TrackPointExtension>
        </extensions>
      </trkpt>
      <trkpt lat="51.31295417435467" lon="0.18941751681268215">
        <ele>67.80000305175781</ele>
        <time>2024-06-01T10:01:54Z</time>
        <extensions>
          <ns3:TrackPointExtension></ns3:TrackPointExtension>
        </extensions>
      </trkpt>
      <trkpt lat="51.31281268782914" lon="0.18542823381721973">
        <ele>63.599998474121094</ele>
        <time>2024-06-01T10:02:34Z</time>
        <extensions>
          <ns3:TrackPointExtension></ns3:TrackPointExtension>
        </extensions>
      </trkpt>
      <trkpt lat="51.31133336573839" lon="0.1796044036746025">
        <ele>64.19999694824219</ele>
        <time>2024-06-01T10:03:39Z</time>
        <extensions>
          <ns3:TrackPointExtension></ns3:TrackPointExtension>
        </extensions>
      </trkpt>
      <trkpt lat="51.312263421714306" lon="0.17141318880021572">
        <ele>73.5999984741211</ele>
        <time>2024-06-01T10:05:41Z</time>
        <extensions>
          <ns3:TrackPointExtension></ns3:TrackPointExtension>
        </extensions>
      </trkpt>
      <trkpt lat="51.31202990189195" lon="0.16993344761431217">
        <ele>75.0</ele>
        <time>2024-06-01T10:06:00Z</time>
        <extensions>
          <ns3:TrackPointExtension></ns3:TrackPointExtension>
        </extensions>
      </trkpt>
      <trkpt lat="51.31113396026194" lon="0.16815497539937496">
        <ele>76.80000305175781</ele>
        <time>2024-06-01T10:06:29Z</time>
        <extensions>
          <ns3:TrackPointExtension></ns3:TrackPointExtension>
        </extensions>
      </trkpt>
      <trkpt lat="51.31145398132503" lon="0.16337838023900986">
        <ele>89.5999984741211</ele>
        <time>2024-06-01T10:08:17Z</time>
        <extensions>
          <ns3:TrackPointExtension></ns3:TrackPointExtension>
        </extensions>
      </trkpt>
      <trkpt lat="51.311067240312696" lon="0.1613601017743349">
        <ele>96.80000305175781</ele>
        <time>2024-06-01T10:09:16Z</time>
        <extensions>
          <ns3:TrackPointExtension></ns3:TrackPointExtension>
        </extensions>
      </trkpt>
      <trkpt lat="51.308671440929174" lon="0.16054747626185417">
        <ele>102.19999694824219</ele>
        <time>2024-06-01T10:10:43Z</time>
        <extensions>
          <ns3:TrackPointExtension></ns3:TrackPointExtension>
        </extensions>
      </trkpt>
      <trkpt lat="51.30881862714887" lon="0.15871996991336346">
        <ele>110.4000015258789</ele>
        <time>2024-06-01T10:14:13Z</time>
        <extensions>
          <ns3:TrackPointExtension></ns3:TrackPointExtension>
        </extensions>
      </trkpt>
      <trkpt lat="51.30696672946215" lon="0.15786719508469105">
        <ele>102.0</ele>
        <time>2024-06-01T10:14:42Z</time>
        <extensions>
          <ns3:TrackPointExtension></ns3:TrackPointExtension>
        </extensions>
      </trkpt>
      <trkpt lat="51.304944260045886" lon="0.15549318864941597">
        <ele>102.0</ele>
        <time>2024-06-01T10:15:16Z</time>
        <extensions>
          <ns3:TrackPointExtension></ns3:TrackPointExtension>
        </extensions>
      </trkpt>
      <trkpt lat="51.303762244060636" lon="0.15225207433104515">
        <ele>106.80000305175781</ele>
        <time>2024-06-01T10:16:10Z</time>
        <extensions>
          <ns3:TrackPointExtension></ns3:TrackPointExtension>
        </extensions>
      </trkpt>
      <trkpt lat="51.30179165862501" lon="0.14877836219966412">
        <ele>104.19999694824219</ele>
        <time>2024-06-01T10:16:49Z</time>
        <extensions>
          <ns3:TrackPointExtension></ns3:TrackPointExtension>
        </extensions>
      </trkpt>
      <trkpt lat="51.300465893000364" lon="0.14387880451977253">
        <ele>101.5999984741211</ele>
        <time>2024-06-01T10:17:35Z</time>
        <extensions>
          <ns3:TrackPointExtension></ns3:TrackPointExtension>
        </extensions>
      </trkpt>
      <trkpt lat="51.296623796224594" lon="0.14419890940189362">
        <ele>87.80000305175781</ele>
        <time>2024-06-01T10:18:15Z</time>
        <extensions>
          <ns3:TrackPointExtension></ns3:TrackPointExtension>
        </extensions>
      </trkpt>
      <trkpt lat="51.29467357881367" lon="0.14342442154884338">
        <ele>86.0</ele>
        <time>2024-06-01T10:18:37Z</time>
        <extensions>
          <ns3:TrackPointExtension></ns3:TrackPointExtension>
        </extensions>
      </trkpt>
      <trkpt lat="51.289077401161194" lon="0.13131877407431602">
        <ele>94.5999984741211</ele>
        <time>2024-06-01T10:21:39Z</time>
        <extensions>
          <ns3:TrackPointExtension></ns3:TrackPointExtension>
        </extensions>
      </trkpt>
      <trkpt lat="51.28908544778824" lon="0.1258364226669073">
        <ele>105.80000305175781</ele>
        <time>2024-06-01T10:23:11Z</time>
        <extensions>
          <ns3:TrackPointExtension></ns3:TrackPointExtension>
        </extensions>
      </trkpt>
      <trkpt lat="51.288235522806644" lon="0.1210020761936903">
        <ele>110.19999694824219</ele>
        <time>2024-06-01T10:24:41Z</time>
        <extensions>
          <ns3:TrackPointExtension></ns3:TrackPointExtension>
        </extensions>
      </trkpt>
      <trkpt lat="51.291750809177756" lon="0.12012281455099583">
        <ele>107.5999984741211</ele>
        <time>2024-06-01T10:26:15Z</time>
        <extensions>
          <ns3:TrackPointExtension></ns3:TrackPointExtension>
        </extensions>
      </trkpt>
      <trkpt lat="51.29709125496447" lon="0.1159314438700676">
        <ele>126.80000305175781</ele>
        <time>2024-06-01T10:29:10Z</time>
        <extensions>
          <ns3:TrackPointExtension></ns3:TrackPointExtension>
        </extensions>
      </trkpt>
      <trkpt lat="51.29420980811119" lon="0.10868361219763756">
        <ele>126.4000015258789</ele>
        <time>2024-06-01T10:31:22Z</time>
        <extensions>
          <ns3:TrackPointExtension></ns3:TrackPointExtension>
        </extensions>
      </trkpt>
      <trkpt lat="51.28747729584575" lon="0.09491222910583019">
        <ele>135.60000610351562</ele>
        <time>2024-06-01T10:35:19Z</time>
        <extensions>
          <ns3:TrackPointExtension></ns3:TrackPointExtension>
        </extensions>
      </trkpt>
      <trkpt lat="51.28588833846152" lon="0.08934999816119671">
        <ele>130.39999389648438</ele>
        <time>2024-06-01T10:36:28Z</time>
        <extensions>
          <ns3:TrackPointExtension></ns3:TrackPointExtension>
        </extensions>
      </trkpt>
      <trkpt lat="51.28492249175906" lon="0.08503247983753681">
        <ele>128.1999969482422</ele>
        <time>2024-06-01T10:37:26Z</time>
        <extensions>
          <ns3:TrackPointExtension></ns3:TrackPointExtension>
        </extensions>
      </trkpt>
      <trkpt lat="51.284092934802175" lon="0.06918246857821941">
        <ele>141.39999389648438</ele>
        <time>2024-06-01T10:41:24Z</time>
        <extensions>
          <ns3:TrackPointExtension></ns3:TrackPointExtension>
        </extensions>
      </trkpt>
      <trkpt lat="51.283299922943115" lon="0.06544355303049088">
        <ele>157.1999969482422</ele>
        <time>2024-06-01T10:43:00Z</time>
        <extensions>
          <ns3:TrackPointExtension></ns3:TrackPointExtension>
        </extensions>
      </trkpt>
      <trkpt lat="51.28077973611653" lon="0.06765411235392094">
        <ele>137.0</ele>
        <time>2024-06-01T10:44:13Z</time>
        <extensions>
          <ns3:TrackPointExtension></ns3:TrackPointExtension>
        </extensions>
      </trkpt>
      <trkpt lat="51.27768874168396" lon="0.07334173657000065">
        <ele>121.0</ele>
        <time>2024-06-01T10:45:01Z</time>
        <extensions>
          <ns3:TrackPointExtension></ns3:TrackPointExtension>
        </extensions>
      </trkpt>
      <trkpt lat="51.275225300341845" lon="0.07477906532585621">
        <ele>112.0</ele>
        <time>2024-06-01T10:45:33Z</time>
        <extensions>
          <ns3:TrackPointExtension></ns3:TrackPointExtension>
        </extensions>
      </trkpt>
      <trkpt lat="51.276517789810896" lon="0.08069350384175777">
        <ele>105.80000305175781</ele>
        <time>2024-06-01T10:46:30Z</time>
        <extensions>
          <ns3:TrackPointExtension></ns3:TrackPointExtension>
        </extensions>
      </trkpt>
      <trkpt lat="51.27641494385898" lon="0.08251572959125042">
        <ele>103.0</ele>
        <time>2024-06-01T10:46:45Z</time>
        <extensions>
          <ns3:TrackPointExtension></ns3:TrackPointExtension>
        </extensions>
      </trkpt>
      <trkpt lat="51.27584723755717" lon="0.08416872471570969">
        <ele>101.0</ele>
        <time>2024-06-01T10:47:00Z</time>
        <extensions>
          <ns3:TrackPointExtension></ns3:TrackPointExtension>
        </extensions>
      </trkpt>
      <trkpt lat="51.27446824684739" lon="0.08561795577406883">
        <ele>102.5999984741211</ele>
        <time>2024-06-01T10:47:26Z</time>
        <extensions>
          <ns3:TrackPointExtension></ns3:TrackPointExtension>
        </extensions>
      </trkpt>
      <trkpt lat="51.27105706371367" lon="0.08721336722373962">
        <ele>106.0</ele>
        <time>2024-06-01T10:48:25Z</time>
        <extensions>
          <ns3:TrackPointExtension></ns3:TrackPointExtension>
        </extensions>
      </trkpt>
      <trkpt lat="51.274443017318845" lon="0.09552611969411373">
        <ele>99.4000015258789</ele>
        <time>2024-06-01T10:50:22Z</time>
        <extensions>
          <ns3:TrackPointExtension></ns3:TrackPointExtension>
        </extensions>
      </trkpt>
      <trkpt lat="51.27507979050279" lon="0.10239584371447563">
        <ele>95.4000015258789</ele>
        <time>2024-06-01T10:51:46Z</time>
        <extensions>
          <ns3:TrackPointExtension></ns3:TrackPointExtension>
        </extensions>
      </trkpt>
      <trkpt lat="51.27788135781884" lon="0.11749844066798687">
        <ele>87.4000015258789</ele>
        <time>2024-06-01T10:54:11Z</time>
        <extensions>
          <ns3:TrackPointExtension></ns3:TrackPointExtension>
        </extensions>
      </trkpt>
      <trkpt lat="51.27788697369397" lon="0.11897072196006775">
        <ele>85.80000305175781</ele>
        <time>2024-06-01T10:54:39Z</time>
        <extensions>
          <ns3:TrackPointExtension></ns3:TrackPointExtension>
        </extensions>
      </trkpt>
      <trkpt lat="51.27625308930874" lon="0.11952158063650131">
        <ele>92.4000015258789</ele>
        <time>2024-06-01T10:55:35Z</time>
        <extensions>
          <ns3:TrackPointExtension></ns3:TrackPointExtension>
        </extensions>
      </trkpt>
      <trkpt lat="51.27632492221892" lon="0.1223688293248415">
        <ele>91.0</ele>
        <time>2024-06-01T10:56:57Z</time>
        <extensions>
          <ns3:TrackPointExtension></ns3:TrackPointExtension>
        </extensions>
      </trkpt>
    </trkseg>
  </trk>
</gpx>