<?xml version="1.0" encoding="UTF-8"?>
<gpx version="1.1" creator="charalambous.uk" xmlns="http://www.topografix.com/GPX/1/1">
<trk><name>Braintree Road Cycling</name><trkseg>
<trkpt lat="51.901508" lon="0.570252"><ele>74.8</ele></trkpt>
<trkpt lat="51.902736" lon="0.571218"><ele>73.8</ele></trkpt>
<trkpt lat="51.913466" lon="0.580303"><ele>73.8</ele></trkpt>
<trkpt lat="51.914865" lon="0.581879"><ele>76.8</ele></trkpt>
<trkpt lat="51.916410" lon="0.582792"><ele>81.2</ele></trkpt>
<trkpt lat="51.928416" lon="0.592950"><ele>72.2</ele></trkpt>
<trkpt lat="51.929287" lon="0.593863"><ele>69.4</ele></trkpt>
<trkpt lat="51.930564" lon="0.595711"><ele>62.6</ele></trkpt>
<trkpt lat="51.931541" lon="0.595851"><ele>57.4</ele></trkpt>
<trkpt lat="51.933295" lon="0.594434"><ele>63.8</ele></trkpt>
<trkpt lat="51.934188" lon="0.593392"><ele>67.0</ele></trkpt>
<trkpt lat="51.934843" lon="0.592985"><ele>68.0</ele></trkpt>
<trkpt lat="51.936030" lon="0.592673"><ele>68.8</ele></trkpt>
<trkpt lat="51.936503" lon="0.591849"><ele>69.8</ele></trkpt>
<trkpt lat="51.936110" lon="0.590685"><ele>70.0</ele></trkpt>
<trkpt lat="51.935977" lon="0.587624"><ele>70.6</ele></trkpt>
<trkpt lat="51.935739" lon="0.586408"><ele>70.8</ele></trkpt>
<trkpt lat="51.935293" lon="0.585488"><ele>70.0</ele></trkpt>
<trkpt lat="51.934640" lon="0.585147"><ele>69.6</ele></trkpt>
<trkpt lat="51.934372" lon="0.584773"><ele>69.6</ele></trkpt>
<trkpt lat="51.932243" lon="0.580226"><ele>64.2</ele></trkpt>
<trkpt lat="51.930996" lon="0.576984"><ele>71.2</ele></trkpt>
<trkpt lat="51.932075" lon="0.575237"><ele>67.4</ele></trkpt>
<trkpt lat="51.933447" lon="0.572348"><ele>71.0</ele></trkpt>
<trkpt lat="51.934852" lon="0.567634"><ele>71.0</ele></trkpt>
<trkpt lat="51.935388" lon="0.566396"><ele>72.2</ele></trkpt>
<trkpt lat="51.936019" lon="0.565449"><ele>71.4</ele></trkpt>
<trkpt lat="51.937538" lon="0.563981"><ele>68.4</ele></trkpt>
<trkpt lat="51.937436" lon="0.561877"><ele>70.4</ele></trkpt>
<trkpt lat="51.937699" lon="0.560693"><ele>71.6</ele></trkpt>
<trkpt lat="51.936994" lon="0.557149"><ele>73.8</ele></trkpt>
<trkpt lat="51.935432" lon="0.553712"><ele>76.8</ele></trkpt>
<trkpt lat="51.935324" lon="0.550198"><ele>79.8</ele></trkpt>
<trkpt lat="51.934300" lon="0.546081"><ele>86.4</ele></trkpt>
<trkpt lat="51.933560" lon="0.544160"><ele>89.0</ele></trkpt>
<trkpt lat="51.933128" lon="0.541554"><ele>90.6</ele></trkpt>
<trkpt lat="51.932198" lon="0.538477"><ele>90.2</ele></trkpt>
<trkpt lat="51.932170" lon="0.537145"><ele>89.6</ele></trkpt>
<trkpt lat="51.932589" lon="0.535020"><ele>89.2</ele></trkpt>
<trkpt lat="51.932310" lon="0.533998"><ele>88.6</ele></trkpt>
<trkpt lat="51.931791" lon="0.533118"><ele>87.2</ele></trkpt>
<trkpt lat="51.934092" lon="0.532818"><ele>87.4</ele></trkpt>
<trkpt lat="51.937132" lon="0.531275"><ele>84.0</ele></trkpt>
<trkpt lat="51.937317" lon="0.532955"><ele>82.8</ele></trkpt>
<trkpt lat="51.937725" lon="0.534242"><ele>83.0</ele></trkpt>
<trkpt lat="51.938961" lon="0.535903"><ele>79.8</ele></trkpt>
<trkpt lat="51.939419" lon="0.536127"><ele>78.2</ele></trkpt>
<trkpt lat="51.941221" lon="0.535568"><ele>74.8</ele></trkpt>
<trkpt lat="51.942636" lon="0.533900"><ele>75.6</ele></trkpt>
<trkpt lat="51.943853" lon="0.534231"><ele>77.0</ele></trkpt>
<trkpt lat="51.945381" lon="0.533448"><ele>79.6</ele></trkpt>
<trkpt lat="51.948822" lon="0.529012"><ele>78.6</ele></trkpt>
<trkpt lat="51.949886" lon="0.528114"><ele>75.8</ele></trkpt>
<trkpt lat="51.950190" lon="0.525894"><ele>81.4</ele></trkpt>
<trkpt lat="51.951033" lon="0.523605"><ele>84.8</ele></trkpt>
<trkpt lat="51.952310" lon="0.521561"><ele>87.4</ele></trkpt>
<trkpt lat="51.953342" lon="0.520942"><ele>87.4</ele></trkpt>
<trkpt lat="51.955429" lon="0.515745"><ele>86.0</ele></trkpt>
<trkpt lat="51.957849" lon="0.512036"><ele>87.2</ele></trkpt>
<trkpt lat="51.957872" lon="0.511650"><ele>86.8</ele></trkpt>
<trkpt lat="51.957484" lon="0.510075"><ele>88.6</ele></trkpt>
<trkpt lat="51.957540" lon="0.508955"><ele>89.6</ele></trkpt>
<trkpt lat="51.957148" lon="0.506198"><ele>92.6</ele></trkpt>
<trkpt lat="51.956583" lon="0.503938"><ele>91.0</ele></trkpt>
<trkpt lat="51.956177" lon="0.498888"><ele>77.4</ele></trkpt>
<trkpt lat="51.954965" lon="0.496150"><ele>72.8</ele></trkpt>
<trkpt lat="51.954528" lon="0.492333"><ele>73.8</ele></trkpt>
<trkpt lat="51.953631" lon="0.489725"><ele>75.8</ele></trkpt>
<trkpt lat="51.953632" lon="0.487436"><ele>70.4</ele></trkpt>
<trkpt lat="51.953308" lon="0.484742"><ele>77.0</ele></trkpt>
<trkpt lat="51.953634" lon="0.483975"><ele>77.4</ele></trkpt>
<trkpt lat="51.955282" lon="0.482021"><ele>68.2</ele></trkpt>
<trkpt lat="51.955649" lon="0.481835"><ele>66.8</ele></trkpt>
<trkpt lat="51.956595" lon="0.482062"><ele>67.8</ele></trkpt>
<trkpt lat="51.957051" lon="0.481927"><ele>68.6</ele></trkpt>
<trkpt lat="51.958569" lon="0.480683"><ele>70.8</ele></trkpt>
<trkpt lat="51.961160" lon="0.477911"><ele>79.4</ele></trkpt>
<trkpt lat="51.962842" lon="0.477075"><ele>74.8</ele></trkpt>
<trkpt lat="51.963137" lon="0.476494"><ele>73.4</ele></trkpt>
<trkpt lat="51.963680" lon="0.474282"><ele>74.0</ele></trkpt>
<trkpt lat="51.965534" lon="0.470278"><ele>75.4</ele></trkpt>
<trkpt lat="51.966517" lon="0.469100"><ele>80.8</ele></trkpt>
<trkpt lat="51.968505" lon="0.465538"><ele>82.2</ele></trkpt>
<trkpt lat="51.968904" lon="0.464115"><ele>77.2</ele></trkpt>
<trkpt lat="51.969005" lon="0.462232"><ele>75.8</ele></trkpt>
<trkpt lat="51.968424" lon="0.454184"><ele>74.6</ele></trkpt>
<trkpt lat="51.968458" lon="0.453114"><ele>75.4</ele></trkpt>
<trkpt lat="51.968190" lon="0.451966"><ele>73.0</ele></trkpt>
<trkpt lat="51.968505" lon="0.451045"><ele>65.8</ele></trkpt>
<trkpt lat="51.968282" lon="0.450375"><ele>64.0</ele></trkpt>
<trkpt lat="51.967556" lon="0.449998"><ele>65.4</ele></trkpt>
<trkpt lat="51.966403" lon="0.450833"><ele>68.2</ele></trkpt>
<trkpt lat="51.965341" lon="0.450774"><ele>69.6</ele></trkpt>
<trkpt lat="51.963452" lon="0.450016"><ele>68.4</ele></trkpt>
<trkpt lat="51.961636" lon="0.448640"><ele>66.2</ele></trkpt>
<trkpt lat="51.960481" lon="0.447095"><ele>66.6</ele></trkpt>
<trkpt lat="51.959381" lon="0.444830"><ele>68.2</ele></trkpt>
<trkpt lat="51.957582" lon="0.442299"><ele>71.6</ele></trkpt>
<trkpt lat="51.955201" lon="0.440029"><ele>68.8</ele></trkpt>
<trkpt lat="51.953784" lon="0.439065"><ele>60.6</ele></trkpt>
<trkpt lat="51.952896" lon="0.437086"><ele>59.6</ele></trkpt>
<trkpt lat="51.952364" lon="0.436617"><ele>59.8</ele></trkpt>
<trkpt lat="51.951845" lon="0.436493"><ele>60.0</ele></trkpt>
<trkpt lat="51.949558" lon="0.437157"><ele>64.4</ele></trkpt>
<trkpt lat="51.948196" lon="0.437951"><ele>67.4</ele></trkpt>
<trkpt lat="51.947900" lon="0.440154"><ele>65.0</ele></trkpt>
<trkpt lat="51.947546" lon="0.440706"><ele>66.6</ele></trkpt>
<trkpt lat="51.946919" lon="0.441121"><ele>69.8</ele></trkpt>
<trkpt lat="51.942603" lon="0.439102"><ele>83.4</ele></trkpt>
<trkpt lat="51.942102" lon="0.439294"><ele>85.4</ele></trkpt>
<trkpt lat="51.940641" lon="0.440606"><ele>89.6</ele></trkpt>
<trkpt lat="51.940216" lon="0.441331"><ele>90.4</ele></trkpt>
<trkpt lat="51.938747" lon="0.445400"><ele>86.0</ele></trkpt>
<trkpt lat="51.935906" lon="0.445999"><ele>83.6</ele></trkpt>
<trkpt lat="51.934232" lon="0.447991"><ele>86.8</ele></trkpt>
<trkpt lat="51.932165" lon="0.451795"><ele>86.4</ele></trkpt>
<trkpt lat="51.929735" lon="0.456843"><ele>83.0</ele></trkpt>
<trkpt lat="51.927509" lon="0.462196"><ele>85.6</ele></trkpt>
<trkpt lat="51.926796" lon="0.463304"><ele>83.2</ele></trkpt>
<trkpt lat="51.926114" lon="0.463789"><ele>81.6</ele></trkpt>
<trkpt lat="51.921900" lon="0.464806"><ele>82.2</ele></trkpt>
<trkpt lat="51.920076" lon="0.464096"><ele>84.8</ele></trkpt>
<trkpt lat="51.919543" lon="0.464475"><ele>83.8</ele></trkpt>
<trkpt lat="51.917997" lon="0.466500"><ele>81.8</ele></trkpt>
<trkpt lat="51.916750" lon="0.467309"><ele>81.6</ele></trkpt>
<trkpt lat="51.915479" lon="0.467395"><ele>83.4</ele></trkpt>
<trkpt lat="51.914403" lon="0.466883"><ele>85.0</ele></trkpt>
<trkpt lat="51.913701" lon="0.467025"><ele>84.8</ele></trkpt>
<trkpt lat="51.912760" lon="0.467501"><ele>84.4</ele></trkpt>
<trkpt lat="51.911214" lon="0.469290"><ele>79.4</ele></trkpt>
<trkpt lat="51.909735" lon="0.468956"><ele>75.2</ele></trkpt>
<trkpt lat="51.908309" lon="0.469873"><ele>78.8</ele></trkpt>
<trkpt lat="51.907200" lon="0.469421"><ele>82.8</ele></trkpt>
<trkpt lat="51.905858" lon="0.470851"><ele>85.8</ele></trkpt>
<trkpt lat="51.903647" lon="0.471213"><ele>86.6</ele></trkpt>
<trkpt lat="51.902129" lon="0.472123"><ele>88.6</ele></trkpt>
<trkpt lat="51.901699" lon="0.472030"><ele>89.0</ele></trkpt>
<trkpt lat="51.901061" lon="0.470889"><ele>89.2</ele></trkpt>
<trkpt lat="51.900604" lon="0.470683"><ele>89.4</ele></trkpt>
<trkpt lat="51.893770" lon="0.472199"><ele>81.2</ele></trkpt>
<trkpt lat="51.893117" lon="0.472671"><ele>81.0</ele></trkpt>
<trkpt lat="51.892228" lon="0.474200"><ele>81.2</ele></trkpt>
<trkpt lat="51.891288" lon="0.474755"><ele>81.0</ele></trkpt>
<trkpt lat="51.890491" lon="0.474441"><ele>80.8</ele></trkpt>
<trkpt lat="51.889787" lon="0.473738"><ele>80.0</ele></trkpt>
<trkpt lat="51.889045" lon="0.472484"><ele>79.2</ele></trkpt>
<trkpt lat="51.888061" lon="0.471868"><ele>78.2</ele></trkpt>
<trkpt lat="51.887429" lon="0.470655"><ele>78.2</ele></trkpt>
<trkpt lat="51.886500" lon="0.468148"><ele>78.0</ele></trkpt>
<trkpt lat="51.885934" lon="0.467536"><ele>77.2</ele></trkpt>
<trkpt lat="51.885374" lon="0.467656"><ele>76.6</ele></trkpt>
<trkpt lat="51.883297" lon="0.469235"><ele>77.8</ele></trkpt>
<trkpt lat="51.881536" lon="0.471700"><ele>76.0</ele></trkpt>
<trkpt lat="51.879317" lon="0.472778"><ele>73.4</ele></trkpt>
<trkpt lat="51.877910" lon="0.472294"><ele>72.0</ele></trkpt>
<trkpt lat="51.875658" lon="0.478221"><ele>72.2</ele></trkpt>
<trkpt lat="51.875036" lon="0.481542"><ele>71.4</ele></trkpt>
<trkpt lat="51.873594" lon="0.487029"><ele>71.2</ele></trkpt>
<trkpt lat="51.873792" lon="0.488090"><ele>71.0</ele></trkpt>
<trkpt lat="51.873810" lon="0.491792"><ele>73.0</ele></trkpt>
<trkpt lat="51.874156" lon="0.497156"><ele>77.2</ele></trkpt>
<trkpt lat="51.875785" lon="0.512651"><ele>72.4</ele></trkpt>
<trkpt lat="51.876397" lon="0.515814"><ele>66.0</ele></trkpt>
<trkpt lat="51.876420" lon="0.517400"><ele>63.4</ele></trkpt>
</trkseg></trk>
</gpx>