<?xml version="1.0" encoding="UTF-8"?>
<gpx version="1.1" creator="charalambous.uk" xmlns="http://www.topografix.com/GPX/1/1">
<trk><name>Braintree Road Cycling</name><trkseg>
<trkpt lat="51.876410" lon="0.517716"><ele>62.2</ele></trkpt>
<trkpt lat="51.876360" lon="0.515829"><ele>66.4</ele></trkpt>
<trkpt lat="51.875849" lon="0.513323"><ele>70.8</ele></trkpt>
<trkpt lat="51.875151" lon="0.506636"><ele>78.8</ele></trkpt>
<trkpt lat="51.872875" lon="0.505810"><ele>79.4</ele></trkpt>
<trkpt lat="51.871585" lon="0.505666"><ele>79.2</ele></trkpt>
<trkpt lat="51.870413" lon="0.506025"><ele>81.4</ele></trkpt>
<trkpt lat="51.869641" lon="0.505780"><ele>85.0</ele></trkpt>
<trkpt lat="51.868952" lon="0.504928"><ele>83.4</ele></trkpt>
<trkpt lat="51.868284" lon="0.502952"><ele>78.0</ele></trkpt>
<trkpt lat="51.866787" lon="0.501065"><ele>76.6</ele></trkpt>
<trkpt lat="51.866070" lon="0.500467"><ele>75.4</ele></trkpt>
<trkpt lat="51.863870" lon="0.499618"><ele>75.4</ele></trkpt>
<trkpt lat="51.862566" lon="0.498682"><ele>74.8</ele></trkpt>
<trkpt lat="51.861669" lon="0.498545"><ele>73.2</ele></trkpt>
<trkpt lat="51.859654" lon="0.498965"><ele>69.2</ele></trkpt>
<trkpt lat="51.857463" lon="0.498652"><ele>69.4</ele></trkpt>
<trkpt lat="51.857259" lon="0.498365"><ele>69.0</ele></trkpt>
<trkpt lat="51.856387" lon="0.494836"><ele>68.0</ele></trkpt>
<trkpt lat="51.856088" lon="0.494457"><ele>68.0</ele></trkpt>
<trkpt lat="51.854421" lon="0.495776"><ele>67.2</ele></trkpt>
<trkpt lat="51.852500" lon="0.496670"><ele>63.0</ele></trkpt>
<trkpt lat="51.849979" lon="0.496774"><ele>67.2</ele></trkpt>
<trkpt lat="51.848116" lon="0.491962"><ele>65.6</ele></trkpt>
<trkpt lat="51.846795" lon="0.489878"><ele>66.2</ele></trkpt>
<trkpt lat="51.847119" lon="0.488511"><ele>66.4</ele></trkpt>
<trkpt lat="51.846402" lon="0.485994"><ele>67.4</ele></trkpt>
<trkpt lat="51.845970" lon="0.483191"><ele>67.2</ele></trkpt>
<trkpt lat="51.846376" lon="0.481575"><ele>67.0</ele></trkpt>
<trkpt lat="51.846512" lon="0.479805"><ele>67.2</ele></trkpt>
<trkpt lat="51.846410" lon="0.478388"><ele>67.8</ele></trkpt>
<trkpt lat="51.845829" lon="0.475646"><ele>67.8</ele></trkpt>
<trkpt lat="51.845098" lon="0.473816"><ele>67.0</ele></trkpt>
<trkpt lat="51.844235" lon="0.470644"><ele>65.8</ele></trkpt>
<trkpt lat="51.843379" lon="0.468192"><ele>65.0</ele></trkpt>
<trkpt lat="51.841202" lon="0.466276"><ele>60.4</ele></trkpt>
<trkpt lat="51.839900" lon="0.463957"><ele>54.8</ele></trkpt>
<trkpt lat="51.840446" lon="0.458307"><ele>57.8</ele></trkpt>
<trkpt lat="51.840462" lon="0.455214"><ele>60.0</ele></trkpt>
<trkpt lat="51.839744" lon="0.454869"><ele>63.2</ele></trkpt>
<trkpt lat="51.839630" lon="0.453800"><ele>64.4</ele></trkpt>
<trkpt lat="51.838675" lon="0.450663"><ele>68.0</ele></trkpt>
<trkpt lat="51.837583" lon="0.449282"><ele>69.6</ele></trkpt>
<trkpt lat="51.837019" lon="0.447847"><ele>68.4</ele></trkpt>
<trkpt lat="51.836431" lon="0.447417"><ele>66.4</ele></trkpt>
<trkpt lat="51.835002" lon="0.448023"><ele>62.6</ele></trkpt>
<trkpt lat="51.833897" lon="0.448130"><ele>59.8</ele></trkpt>
<trkpt lat="51.832698" lon="0.447879"><ele>56.6</ele></trkpt>
<trkpt lat="51.830033" lon="0.449497"><ele>41.2</ele></trkpt>
<trkpt lat="51.828861" lon="0.449466"><ele>41.2</ele></trkpt>
<trkpt lat="51.828153" lon="0.449727"><ele>42.6</ele></trkpt>
<trkpt lat="51.826665" lon="0.448969"><ele>49.2</ele></trkpt>
<trkpt lat="51.823555" lon="0.445419"><ele>61.4</ele></trkpt>
<trkpt lat="51.821643" lon="0.444165"><ele>67.2</ele></trkpt>
<trkpt lat="51.821364" lon="0.444290"><ele>67.6</ele></trkpt>
<trkpt lat="51.820248" lon="0.446270"><ele>66.2</ele></trkpt>
<trkpt lat="51.819976" lon="0.446322"><ele>65.2</ele></trkpt>
<trkpt lat="51.820327" lon="0.443482"><ele>68.8</ele></trkpt>
<trkpt lat="51.820295" lon="0.438112"><ele>71.6</ele></trkpt>
<trkpt lat="51.819788" lon="0.436961"><ele>71.4</ele></trkpt>
<trkpt lat="51.818764" lon="0.435762"><ele>70.6</ele></trkpt>
<trkpt lat="51.818250" lon="0.434393"><ele>71.2</ele></trkpt>
<trkpt lat="51.818376" lon="0.433950"><ele>71.8</ele></trkpt>
<trkpt lat="51.819684" lon="0.431995"><ele>74.6</ele></trkpt>
<trkpt lat="51.819683" lon="0.431514"><ele>74.8</ele></trkpt>
<trkpt lat="51.818257" lon="0.430041"><ele>75.0</ele></trkpt>
<trkpt lat="51.817522" lon="0.430450"><ele>74.2</ele></trkpt>
<trkpt lat="51.817313" lon="0.430341"><ele>74.2</ele></trkpt>
<trkpt lat="51.815703" lon="0.427364"><ele>74.8</ele></trkpt>
<trkpt lat="51.814516" lon="0.427154"><ele>72.0</ele></trkpt>
<trkpt lat="51.814087" lon="0.425510"><ele>70.6</ele></trkpt>
<trkpt lat="51.813631" lon="0.425036"><ele>71.4</ele></trkpt>
<trkpt lat="51.812689" lon="0.424881"><ele>68.2</ele></trkpt>
<trkpt lat="51.811925" lon="0.425720"><ele>68.0</ele></trkpt>
<trkpt lat="51.810115" lon="0.425373"><ele>69.0</ele></trkpt>
<trkpt lat="51.809336" lon="0.425599"><ele>66.8</ele></trkpt>
<trkpt lat="51.808762" lon="0.425417"><ele>68.6</ele></trkpt>
<trkpt lat="51.806917" lon="0.423899"><ele>68.6</ele></trkpt>
<trkpt lat="51.805713" lon="0.423609"><ele>66.8</ele></trkpt>
<trkpt lat="51.805717" lon="0.422039"><ele>64.6</ele></trkpt>
<trkpt lat="51.806220" lon="0.419646"><ele>65.0</ele></trkpt>
<trkpt lat="51.805423" lon="0.418091"><ele>61.0</ele></trkpt>
<trkpt lat="51.805265" lon="0.416928"><ele>61.0</ele></trkpt>
<trkpt lat="51.805419" lon="0.415438"><ele>63.6</ele></trkpt>
<trkpt lat="51.804774" lon="0.413533"><ele>67.0</ele></trkpt>
<trkpt lat="51.802908" lon="0.410729"><ele>76.0</ele></trkpt>
<trkpt lat="51.802360" lon="0.405459"><ele>79.6</ele></trkpt>
<trkpt lat="51.802509" lon="0.404330"><ele>80.4</ele></trkpt>
<trkpt lat="51.802955" lon="0.402952"><ele>80.8</ele></trkpt>
<trkpt lat="51.803218" lon="0.400100"><ele>81.0</ele></trkpt>
<trkpt lat="51.803802" lon="0.397367"><ele>81.0</ele></trkpt>
<trkpt lat="51.804095" lon="0.392308"><ele>85.0</ele></trkpt>
<trkpt lat="51.803688" lon="0.388180"><ele>85.4</ele></trkpt>
<trkpt lat="51.804869" lon="0.386449"><ele>86.0</ele></trkpt>
<trkpt lat="51.805525" lon="0.386444"><ele>86.2</ele></trkpt>
<trkpt lat="51.806623" lon="0.386853"><ele>87.6</ele></trkpt>
<trkpt lat="51.807008" lon="0.386531"><ele>88.0</ele></trkpt>
<trkpt lat="51.807141" lon="0.385893"><ele>88.4</ele></trkpt>
<trkpt lat="51.807069" lon="0.384412"><ele>87.8</ele></trkpt>
<trkpt lat="51.807186" lon="0.383340"><ele>87.0</ele></trkpt>
<trkpt lat="51.807900" lon="0.380812"><ele>86.8</ele></trkpt>
<trkpt lat="51.808105" lon="0.379528"><ele>86.4</ele></trkpt>
<trkpt lat="51.808133" lon="0.376688"><ele>88.8</ele></trkpt>
<trkpt lat="51.808988" lon="0.373672"><ele>88.4</ele></trkpt>
<trkpt lat="51.807977" lon="0.366278"><ele>84.0</ele></trkpt>
<trkpt lat="51.808253" lon="0.362711"><ele>82.4</ele></trkpt>
<trkpt lat="51.808108" lon="0.360448"><ele>82.0</ele></trkpt>
<trkpt lat="51.808435" lon="0.358474"><ele>81.6</ele></trkpt>
<trkpt lat="51.808743" lon="0.354495"><ele>79.8</ele></trkpt>
<trkpt lat="51.808197" lon="0.349162"><ele>76.6</ele></trkpt>
<trkpt lat="51.809433" lon="0.348558"><ele>74.4</ele></trkpt>
<trkpt lat="51.811204" lon="0.346985"><ele>68.4</ele></trkpt>
<trkpt lat="51.811643" lon="0.347505"><ele>66.4</ele></trkpt>
<trkpt lat="51.812374" lon="0.347465"><ele>66.0</ele></trkpt>
<trkpt lat="51.816110" lon="0.346271"><ele>75.6</ele></trkpt>
<trkpt lat="51.817746" lon="0.346058"><ele>79.0</ele></trkpt>
<trkpt lat="51.818210" lon="0.346420"><ele>79.0</ele></trkpt>
<trkpt lat="51.819256" lon="0.347967"><ele>80.8</ele></trkpt>
<trkpt lat="51.820600" lon="0.350827"><ele>83.6</ele></trkpt>
<trkpt lat="51.821658" lon="0.351999"><ele>86.0</ele></trkpt>
<trkpt lat="51.822058" lon="0.352731"><ele>86.6</ele></trkpt>
<trkpt lat="51.822723" lon="0.351985"><ele>85.4</ele></trkpt>
<trkpt lat="51.823494" lon="0.350653"><ele>81.6</ele></trkpt>
<trkpt lat="51.823509" lon="0.349426"><ele>80.0</ele></trkpt>
<trkpt lat="51.823852" lon="0.348589"><ele>79.0</ele></trkpt>
<trkpt lat="51.824109" lon="0.348417"><ele>78.6</ele></trkpt>
<trkpt lat="51.824668" lon="0.348591"><ele>78.6</ele></trkpt>
<trkpt lat="51.825350" lon="0.346864"><ele>79.0</ele></trkpt>
<trkpt lat="51.826253" lon="0.345223"><ele>82.6</ele></trkpt>
<trkpt lat="51.826478" lon="0.345318"><ele>82.6</ele></trkpt>
<trkpt lat="51.827388" lon="0.346853"><ele>83.0</ele></trkpt>
<trkpt lat="51.828139" lon="0.347259"><ele>82.2</ele></trkpt>
<trkpt lat="51.829173" lon="0.346517"><ele>83.2</ele></trkpt>
<trkpt lat="51.830697" lon="0.343586"><ele>84.4</ele></trkpt>
<trkpt lat="51.831483" lon="0.342429"><ele>84.6</ele></trkpt>
<trkpt lat="51.832420" lon="0.338610"><ele>86.2</ele></trkpt>
<trkpt lat="51.833930" lon="0.336528"><ele>88.6</ele></trkpt>
<trkpt lat="51.834307" lon="0.335024"><ele>89.6</ele></trkpt>
<trkpt lat="51.834488" lon="0.333509"><ele>89.6</ele></trkpt>
<trkpt lat="51.834381" lon="0.330982"><ele>89.8</ele></trkpt>
<trkpt lat="51.833853" lon="0.328497"><ele>90.2</ele></trkpt>
<trkpt lat="51.834616" lon="0.327812"><ele>89.6</ele></trkpt>
<trkpt lat="51.835630" lon="0.325143"><ele>88.2</ele></trkpt>
<trkpt lat="51.835673" lon="0.323425"><ele>86.6</ele></trkpt>
<trkpt lat="51.835532" lon="0.321865"><ele>84.2</ele></trkpt>
<trkpt lat="51.836718" lon="0.319715"><ele>78.2</ele></trkpt>
<trkpt lat="51.837282" lon="0.317905"><ele>74.4</ele></trkpt>
<trkpt lat="51.838232" lon="0.316516"><ele>71.4</ele></trkpt>
<trkpt lat="51.838185" lon="0.314893"><ele>71.6</ele></trkpt>
<trkpt lat="51.838920" lon="0.313491"><ele>71.8</ele></trkpt>
<trkpt lat="51.839306" lon="0.312257"><ele>71.8</ele></trkpt>
<trkpt lat="51.839005" lon="0.310920"><ele>72.4</ele></trkpt>
<trkpt lat="51.840772" lon="0.309068"><ele>72.4</ele></trkpt>
<trkpt lat="51.841346" lon="0.308025"><ele>73.0</ele></trkpt>
<trkpt lat="51.841024" lon="0.305975"><ele>76.2</ele></trkpt>
<trkpt lat="51.841009" lon="0.304722"><ele>78.8</ele></trkpt>
<trkpt lat="51.839836" lon="0.301155"><ele>87.0</ele></trkpt>
<trkpt lat="51.839818" lon="0.300464"><ele>87.6</ele></trkpt>
<trkpt lat="51.841141" lon="0.297419"><ele>86.2</ele></trkpt>
<trkpt lat="51.841739" lon="0.295117"><ele>84.8</ele></trkpt>
<trkpt lat="51.842934" lon="0.294168"><ele>83.8</ele></trkpt>
<trkpt lat="51.843813" lon="0.292015"><ele>82.8</ele></trkpt>
<trkpt lat="51.845293" lon="0.289695"><ele>83.2</ele></trkpt>
<trkpt lat="51.848542" lon="0.281532"><ele>91.8</ele></trkpt>
<trkpt lat="51.849232" lon="0.281233"><ele>92.0</ele></trkpt>
<trkpt lat="51.850154" lon="0.280367"><ele>92.4</ele></trkpt>
<trkpt lat="51.851438" lon="0.280149"><ele>91.0</ele></trkpt>
<trkpt lat="51.852209" lon="0.279777"><ele>90.6</ele></trkpt>
<trkpt lat="51.853563" lon="0.278712"><ele>91.0</ele></trkpt>
<trkpt lat="51.855362" lon="0.276837"><ele>93.4</ele></trkpt>
<trkpt lat="51.857559" lon="0.276219"><ele>95.8</ele></trkpt>
<trkpt lat="51.857907" lon="0.276199"><ele>97.6</ele></trkpt>
<trkpt lat="51.858050" lon="0.276405"><ele>98.0</ele></trkpt>
<trkpt lat="51.857865" lon="0.277815"><ele>98.0</ele></trkpt>
<trkpt lat="51.859189" lon="0.278324"><ele>99.4</ele></trkpt>
<trkpt lat="51.860452" lon="0.280095"><ele>100.0</ele></trkpt>
<trkpt lat="51.860734" lon="0.280132"><ele>99.2</ele></trkpt>
<trkpt lat="51.862133" lon="0.279176"><ele>98.2</ele></trkpt>
<trkpt lat="51.862958" lon="0.278312"><ele>98.4</ele></trkpt>
<trkpt lat="51.865189" lon="0.277175"><ele>100.6</ele></trkpt>
<trkpt lat="51.866220" lon="0.275940"><ele>103.4</ele></trkpt>
<trkpt lat="51.866871" lon="0.275462"><ele>103.2</ele></trkpt>
<trkpt lat="51.866994" lon="0.273327"><ele>105.0</ele></trkpt>
<trkpt lat="51.867136" lon="0.272871"><ele>105.6</ele></trkpt>
<trkpt lat="51.868741" lon="0.274249"><ele>104.8</ele></trkpt>
<trkpt lat="51.870168" lon="0.276624"><ele>105.6</ele></trkpt>
<trkpt lat="51.872812" lon="0.278063"><ele>106.2</ele></trkpt>
<trkpt lat="51.879457" lon="0.279421"><ele>104.4</ele></trkpt>
<trkpt lat="51.881241" lon="0.281450"><ele>104.6</ele></trkpt>
<trkpt lat="51.882532" lon="0.283871"><ele>103.6</ele></trkpt>
<trkpt lat="51.883644" lon="0.285455"><ele>105.2</ele></trkpt>
<trkpt lat="51.884710" lon="0.283868"><ele>106.6</ele></trkpt>
<trkpt lat="51.887132" lon="0.280999"><ele>107.2</ele></trkpt>
<trkpt lat="51.888718" lon="0.279609"><ele>108.2</ele></trkpt>
<trkpt lat="51.890719" lon="0.278667"><ele>106.0</ele></trkpt>
<trkpt lat="51.890787" lon="0.278364"><ele>106.0</ele></trkpt>
<trkpt lat="51.890474" lon="0.277141"><ele>106.6</ele></trkpt>
<trkpt lat="51.890593" lon="0.276518"><ele>107.6</ele></trkpt>
<trkpt lat="51.891629" lon="0.274875"><ele>109.4</ele></trkpt>
<trkpt lat="51.892717" lon="0.273574"><ele>110.2</ele></trkpt>
<trkpt lat="51.893036" lon="0.272637"><ele>111.2</ele></trkpt>
<trkpt lat="51.894545" lon="0.272641"><ele>110.0</ele></trkpt>
<trkpt lat="51.897262" lon="0.271157"><ele>110.8</ele></trkpt>
<trkpt lat="51.899802" lon="0.268040"><ele>111.6</ele></trkpt>
<trkpt lat="51.901684" lon="0.264834"><ele>111.8</ele></trkpt>
<trkpt lat="51.903244" lon="0.262767"><ele>109.4</ele></trkpt>
<trkpt lat="51.904017" lon="0.261216"><ele>110.6</ele></trkpt>
<trkpt lat="51.905047" lon="0.258542"><ele>113.2</ele></trkpt>
<trkpt lat="51.906725" lon="0.250790"><ele>110.8</ele></trkpt>
<trkpt lat="51.907449" lon="0.245700"><ele>108.6</ele></trkpt>
<trkpt lat="51.907573" lon="0.243146"><ele>106.4</ele></trkpt>
<trkpt lat="51.907446" lon="0.240288"><ele>104.6</ele></trkpt>
<trkpt lat="51.907745" lon="0.239932"><ele>104.0</ele></trkpt>
<trkpt lat="51.911835" lon="0.237882"><ele>85.8</ele></trkpt>
<trkpt lat="51.914185" lon="0.235181"><ele>94.6</ele></trkpt>
<trkpt lat="51.914315" lon="0.235245"><ele>95.6</ele></trkpt>
<trkpt lat="51.916000" lon="0.240761"><ele>96.8</ele></trkpt>
<trkpt lat="51.917448" lon="0.241769"><ele>96.8</ele></trkpt>
<trkpt lat="51.918866" lon="0.242338"><ele>97.0</ele></trkpt>
<trkpt lat="51.919619" lon="0.243682"><ele>97.0</ele></trkpt>
<trkpt lat="51.921020" lon="0.244463"><ele>97.6</ele></trkpt>
<trkpt lat="51.921741" lon="0.245979"><ele>99.2</ele></trkpt>
<trkpt lat="51.925913" lon="0.244237"><ele>108.8</ele></trkpt>
<trkpt lat="51.928471" lon="0.244267"><ele>105.2</ele></trkpt>
<trkpt lat="51.929300" lon="0.244590"><ele>106.4</ele></trkpt>
<trkpt lat="51.930070" lon="0.247329"><ele>111.8</ele></trkpt>
<trkpt lat="51.930335" lon="0.247693"><ele>112.4</ele></trkpt>
<trkpt lat="51.931078" lon="0.247908"><ele>113.6</ele></trkpt>
<trkpt lat="51.933383" lon="0.247699"><ele>116.6</ele></trkpt>
<trkpt lat="51.933578" lon="0.252745"><ele>116.4</ele></trkpt>
<trkpt lat="51.933939" lon="0.256164"><ele>118.8</ele></trkpt>
<trkpt lat="51.934393" lon="0.257996"><ele>118.0</ele></trkpt>
<trkpt lat="51.935641" lon="0.261543"><ele>118.4</ele></trkpt>
<trkpt lat="51.935907" lon="0.267785"><ele>115.2</ele></trkpt>
<trkpt lat="51.937817" lon="0.268668"><ele>116.8</ele></trkpt>
<trkpt lat="51.940265" lon="0.269152"><ele>121.2</ele></trkpt>
<trkpt lat="51.940656" lon="0.270815"><ele>122.8</ele></trkpt>
<trkpt lat="51.941097" lon="0.271579"><ele>123.0</ele></trkpt>
<trkpt lat="51.941344" lon="0.271664"><ele>122.8</ele></trkpt>
<trkpt lat="51.942006" lon="0.270849"><ele>122.8</ele></trkpt>
<trkpt lat="51.942340" lon="0.270961"><ele>123.4</ele></trkpt>
<trkpt lat="51.945135" lon="0.274188"><ele>124.6</ele></trkpt>
<trkpt lat="51.947490" lon="0.277389"><ele>125.0</ele></trkpt>
<trkpt lat="51.948318" lon="0.279551"><ele>123.6</ele></trkpt>
<trkpt lat="51.949206" lon="0.279343"><ele>124.0</ele></trkpt>
<trkpt lat="51.949885" lon="0.279775"><ele>123.8</ele></trkpt>
<trkpt lat="51.950335" lon="0.280543"><ele>123.4</ele></trkpt>
<trkpt lat="51.951582" lon="0.280595"><ele>122.6</ele></trkpt>
<trkpt lat="51.953076" lon="0.281862"><ele>124.2</ele></trkpt>
<trkpt lat="51.953281" lon="0.282420"><ele>124.4</ele></trkpt>
<trkpt lat="51.953618" lon="0.286480"><ele>121.6</ele></trkpt>
<trkpt lat="51.954084" lon="0.288524"><ele>119.8</ele></trkpt>
<trkpt lat="51.955280" lon="0.288821"><ele>116.0</ele></trkpt>
<trkpt lat="51.956687" lon="0.288196"><ele>115.6</ele></trkpt>
<trkpt lat="51.958092" lon="0.289205"><ele>114.0</ele></trkpt>
<trkpt lat="51.960067" lon="0.291265"><ele>110.2</ele></trkpt>
<trkpt lat="51.960603" lon="0.291497"><ele>109.0</ele></trkpt>
<trkpt lat="51.961571" lon="0.291231"><ele>108.0</ele></trkpt>
<trkpt lat="51.961768" lon="0.293509"><ele>108.0</ele></trkpt>
<trkpt lat="51.962164" lon="0.294806"><ele>107.2</ele></trkpt>
<trkpt lat="51.963130" lon="0.297190"><ele>104.4</ele></trkpt>
<trkpt lat="51.963971" lon="0.298769"><ele>104.8</ele></trkpt>
<trkpt lat="51.964568" lon="0.299473"><ele>102.6</ele></trkpt>
<trkpt lat="51.962285" lon="0.303374"><ele>114.0</ele></trkpt>
<trkpt lat="51.961103" lon="0.304460"><ele>115.4</ele></trkpt>
<trkpt lat="51.960254" lon="0.305698"><ele>113.0</ele></trkpt>
<trkpt lat="51.957405" lon="0.312319"><ele>103.8</ele></trkpt>
<trkpt lat="51.953218" lon="0.319386"><ele>111.4</ele></trkpt>
<trkpt lat="51.951691" lon="0.325807"><ele>102.0</ele></trkpt>
<trkpt lat="51.950860" lon="0.327845"><ele>99.0</ele></trkpt>
<trkpt lat="51.950602" lon="0.331821"><ele>96.4</ele></trkpt>
<trkpt lat="51.950706" lon="0.332692"><ele>93.0</ele></trkpt>
<trkpt lat="51.951824" lon="0.335724"><ele>81.6</ele></trkpt>
<trkpt lat="51.953066" lon="0.338116"><ele>80.4</ele></trkpt>
<trkpt lat="51.953844" lon="0.340298"><ele>95.4</ele></trkpt>
<trkpt lat="51.954419" lon="0.341375"><ele>97.0</ele></trkpt>
<trkpt lat="51.954670" lon="0.341154"><ele>98.6</ele></trkpt>
<trkpt lat="51.955903" lon="0.341131"><ele>99.0</ele></trkpt>
<trkpt lat="51.957473" lon="0.341971"><ele>99.8</ele></trkpt>
<trkpt lat="51.960554" lon="0.342884"><ele>101.6</ele></trkpt>
<trkpt lat="51.962110" lon="0.347595"><ele>106.4</ele></trkpt>
<trkpt lat="51.963539" lon="0.351263"><ele>110.8</ele></trkpt>
<trkpt lat="51.967454" lon="0.356657"><ele>115.8</ele></trkpt>
<trkpt lat="51.968204" lon="0.358666"><ele>116.0</ele></trkpt>
<trkpt lat="51.969820" lon="0.360922"><ele>114.8</ele></trkpt>
<trkpt lat="51.971409" lon="0.364520"><ele>107.8</ele></trkpt>
<trkpt lat="51.973293" lon="0.365834"><ele>105.0</ele></trkpt>
<trkpt lat="51.974605" lon="0.368418"><ele>102.0</ele></trkpt>
<trkpt lat="51.975805" lon="0.369396"><ele>98.2</ele></trkpt>
<trkpt lat="51.976212" lon="0.370431"><ele>94.4</ele></trkpt>
<trkpt lat="51.978343" lon="0.370617"><ele>93.6</ele></trkpt>
<trkpt lat="51.978645" lon="0.370841"><ele>93.8</ele></trkpt>
<trkpt lat="51.979864" lon="0.372718"><ele>94.8</ele></trkpt>
<trkpt lat="51.980114" lon="0.374709"><ele>92.8</ele></trkpt>
<trkpt lat="51.980708" lon="0.376531"><ele>90.8</ele></trkpt>
<trkpt lat="51.981895" lon="0.377634"><ele>91.8</ele></trkpt>
<trkpt lat="51.984063" lon="0.380299"><ele>96.4</ele></trkpt>
<trkpt lat="51.986384" lon="0.386098"><ele>92.6</ele></trkpt>
<trkpt lat="51.988788" lon="0.388891"><ele>84.2</ele></trkpt>
<trkpt lat="51.990927" lon="0.390733"><ele>73.6</ele></trkpt>
<trkpt lat="51.992295" lon="0.391507"><ele>73.2</ele></trkpt>
<trkpt lat="51.993391" lon="0.395427"><ele>76.2</ele></trkpt>
<trkpt lat="51.992551" lon="0.396934"><ele>76.6</ele></trkpt>
<trkpt lat="51.991163" lon="0.398778"><ele>82.8</ele></trkpt>
<trkpt lat="51.991880" lon="0.400726"><ele>86.8</ele></trkpt>
<trkpt lat="51.992110" lon="0.401784"><ele>88.8</ele></trkpt>
<trkpt lat="51.991944" lon="0.402970"><ele>92.0</ele></trkpt>
<trkpt lat="51.993021" lon="0.405283"><ele>97.4</ele></trkpt>
<trkpt lat="51.994283" lon="0.406941"><ele>99.2</ele></trkpt>
<trkpt lat="51.995201" lon="0.408585"><ele>101.2</ele></trkpt>
<trkpt lat="51.995761" lon="0.411071"><ele>101.2</ele></trkpt>
<trkpt lat="51.996408" lon="0.412658"><ele>100.8</ele></trkpt>
<trkpt lat="51.996612" lon="0.414436"><ele>99.8</ele></trkpt>
<trkpt lat="51.998082" lon="0.417639"><ele>99.6</ele></trkpt>
<trkpt lat="51.998030" lon="0.421877"><ele>99.4</ele></trkpt>
<trkpt lat="51.998536" lon="0.424988"><ele>96.2</ele></trkpt>
<trkpt lat="51.999270" lon="0.427006"><ele>92.8</ele></trkpt>
<trkpt lat="51.997906" lon="0.429394"><ele>88.6</ele></trkpt>
<trkpt lat="51.995240" lon="0.432052"><ele>90.6</ele></trkpt>
<trkpt lat="51.994176" lon="0.432356"><ele>90.0</ele></trkpt>
<trkpt lat="51.993051" lon="0.433202"><ele>89.2</ele></trkpt>
<trkpt lat="51.992240" lon="0.433504"><ele>89.4</ele></trkpt>
<trkpt lat="51.988688" lon="0.434061"><ele>86.2</ele></trkpt>
<trkpt lat="51.987731" lon="0.435644"><ele>82.0</ele></trkpt>
<trkpt lat="51.987280" lon="0.436963"><ele>81.2</ele></trkpt>
<trkpt lat="51.985577" lon="0.438782"><ele>91.6</ele></trkpt>
<trkpt lat="51.984757" lon="0.439112"><ele>94.6</ele></trkpt>
<trkpt lat="51.983710" lon="0.438787"><ele>95.0</ele></trkpt>
<trkpt lat="51.981248" lon="0.439861"><ele>92.4</ele></trkpt>
<trkpt lat="51.979957" lon="0.439285"><ele>91.4</ele></trkpt>
<trkpt lat="51.978874" lon="0.439985"><ele>88.2</ele></trkpt>
<trkpt lat="51.977045" lon="0.441962"><ele>87.6</ele></trkpt>
<trkpt lat="51.975069" lon="0.444761"><ele>83.4</ele></trkpt>
<trkpt lat="51.974804" lon="0.445279"><ele>82.2</ele></trkpt>
<trkpt lat="51.974367" lon="0.447114"><ele>74.2</ele></trkpt>
<trkpt lat="51.972267" lon="0.448866"><ele>65.6</ele></trkpt>
<trkpt lat="51.972011" lon="0.449864"><ele>65.6</ele></trkpt>
<trkpt lat="51.970907" lon="0.451241"><ele>64.8</ele></trkpt>
<trkpt lat="51.970294" lon="0.452701"><ele>65.6</ele></trkpt>
<trkpt lat="51.969642" lon="0.451616"><ele>66.2</ele></trkpt>
<trkpt lat="51.968552" lon="0.451289"><ele>64.8</ele></trkpt>
<trkpt lat="51.968414" lon="0.450380"><ele>64.2</ele></trkpt>
<trkpt lat="51.968502" lon="0.450287"><ele>65.0</ele></trkpt>
<trkpt lat="51.968533" lon="0.451114"><ele>65.6</ele></trkpt>
<trkpt lat="51.968239" lon="0.451965"><ele>68.2</ele></trkpt>
<trkpt lat="51.968508" lon="0.453046"><ele>77.2</ele></trkpt>
<trkpt lat="51.969043" lon="0.461860"><ele>77.6</ele></trkpt>
<trkpt lat="51.968925" lon="0.464327"><ele>78.6</ele></trkpt>
<trkpt lat="51.968178" lon="0.466366"><ele>84.4</ele></trkpt>
<trkpt lat="51.966541" lon="0.469199"><ele>89.2</ele></trkpt>
<trkpt lat="51.965679" lon="0.470144"><ele>81.0</ele></trkpt>
<trkpt lat="51.964689" lon="0.472156"><ele>77.0</ele></trkpt>
<trkpt lat="51.963638" lon="0.474588"><ele>75.4</ele></trkpt>
<trkpt lat="51.963075" lon="0.476900"><ele>74.8</ele></trkpt>
<trkpt lat="51.962744" lon="0.477306"><ele>74.6</ele></trkpt>
<trkpt lat="51.961238" lon="0.477944"><ele>80.6</ele></trkpt>
<trkpt lat="51.958623" lon="0.480741"><ele>72.8</ele></trkpt>
<trkpt lat="51.957095" lon="0.481993"><ele>71.4</ele></trkpt>
<trkpt lat="51.956671" lon="0.482138"><ele>71.0</ele></trkpt>
<trkpt lat="51.955653" lon="0.481934"><ele>68.2</ele></trkpt>
<trkpt lat="51.955138" lon="0.482292"><ele>67.8</ele></trkpt>
<trkpt lat="51.953733" lon="0.483968"><ele>76.8</ele></trkpt>
<trkpt lat="51.953412" lon="0.484594"><ele>77.8</ele></trkpt>
<trkpt lat="51.953354" lon="0.485276"><ele>77.6</ele></trkpt>
<trkpt lat="51.953690" lon="0.487735"><ele>72.8</ele></trkpt>
<trkpt lat="51.953589" lon="0.488921"><ele>71.2</ele></trkpt>
<trkpt lat="51.952683" lon="0.489167"><ele>70.2</ele></trkpt>
<trkpt lat="51.951830" lon="0.489746"><ele>67.2</ele></trkpt>
<trkpt lat="51.950322" lon="0.491498"><ele>60.2</ele></trkpt>
<trkpt lat="51.949603" lon="0.492988"><ele>64.0</ele></trkpt>
<trkpt lat="51.948145" lon="0.494185"><ele>66.6</ele></trkpt>
<trkpt lat="51.947414" lon="0.495059"><ele>62.4</ele></trkpt>
<trkpt lat="51.946722" lon="0.496115"><ele>57.8</ele></trkpt>
<trkpt lat="51.945994" lon="0.498580"><ele>59.8</ele></trkpt>
<trkpt lat="51.944986" lon="0.499955"><ele>66.6</ele></trkpt>
<trkpt lat="51.942625" lon="0.501196"><ele>63.8</ele></trkpt>
<trkpt lat="51.940662" lon="0.502774"><ele>53.4</ele></trkpt>
<trkpt lat="51.938598" lon="0.502915"><ele>51.2</ele></trkpt>
<trkpt lat="51.936755" lon="0.501237"><ele>59.6</ele></trkpt>
<trkpt lat="51.934684" lon="0.503411"><ele>56.2</ele></trkpt>
<trkpt lat="51.933861" lon="0.504932"><ele>55.6</ele></trkpt>
<trkpt lat="51.932964" lon="0.505799"><ele>59.4</ele></trkpt>
<trkpt lat="51.931341" lon="0.506045"><ele>62.8</ele></trkpt>
<trkpt lat="51.929386" lon="0.505893"><ele>72.6</ele></trkpt>
<trkpt lat="51.926720" lon="0.507028"><ele>77.0</ele></trkpt>
<trkpt lat="51.925829" lon="0.506922"><ele>77.4</ele></trkpt>
<trkpt lat="51.925485" lon="0.505980"><ele>77.0</ele></trkpt>
<trkpt lat="51.925003" lon="0.505461"><ele>77.0</ele></trkpt>
<trkpt lat="51.923816" lon="0.503443"><ele>77.6</ele></trkpt>
<trkpt lat="51.923214" lon="0.501687"><ele>80.2</ele></trkpt>
<trkpt lat="51.922285" lon="0.500801"><ele>82.2</ele></trkpt>
<trkpt lat="51.921106" lon="0.498239"><ele>85.8</ele></trkpt>
<trkpt lat="51.920628" lon="0.496630"><ele>86.2</ele></trkpt>
<trkpt lat="51.920634" lon="0.495517"><ele>87.0</ele></trkpt>
<trkpt lat="51.920886" lon="0.494359"><ele>86.4</ele></trkpt>
<trkpt lat="51.920766" lon="0.493594"><ele>85.4</ele></trkpt>
<trkpt lat="51.920114" lon="0.491971"><ele>82.0</ele></trkpt>
<trkpt lat="51.918956" lon="0.490285"><ele>80.4</ele></trkpt>
<trkpt lat="51.917716" lon="0.487942"><ele>79.0</ele></trkpt>
<trkpt lat="51.916337" lon="0.486594"><ele>76.4</ele></trkpt>
<trkpt lat="51.915361" lon="0.485968"><ele>76.6</ele></trkpt>
<trkpt lat="51.913432" lon="0.483310"><ele>68.8</ele></trkpt>
<trkpt lat="51.910814" lon="0.482178"><ele>74.4</ele></trkpt>
<trkpt lat="51.910114" lon="0.481398"><ele>78.0</ele></trkpt>
<trkpt lat="51.909110" lon="0.480702"><ele>81.2</ele></trkpt>
<trkpt lat="51.907974" lon="0.481745"><ele>82.2</ele></trkpt>
<trkpt lat="51.906846" lon="0.484059"><ele>81.8</ele></trkpt>
<trkpt lat="51.906640" lon="0.485879"><ele>80.0</ele></trkpt>
<trkpt lat="51.905728" lon="0.487191"><ele>77.6</ele></trkpt>
<trkpt lat="51.905041" lon="0.487490"><ele>77.4</ele></trkpt>
<trkpt lat="51.903245" lon="0.488919"><ele>71.8</ele></trkpt>
<trkpt lat="51.902243" lon="0.488995"><ele>69.4</ele></trkpt>
<trkpt lat="51.900446" lon="0.489974"><ele>69.0</ele></trkpt>
<trkpt lat="51.898811" lon="0.490196"><ele>73.6</ele></trkpt>
<trkpt lat="51.895810" lon="0.492211"><ele>72.4</ele></trkpt>
<trkpt lat="51.894026" lon="0.493717"><ele>72.4</ele></trkpt>
<trkpt lat="51.892506" lon="0.496219"><ele>68.6</ele></trkpt>
<trkpt lat="51.890311" lon="0.498047"><ele>63.4</ele></trkpt>
<trkpt lat="51.889096" lon="0.499351"><ele>64.8</ele></trkpt>
<trkpt lat="51.888722" lon="0.499288"><ele>65.4</ele></trkpt>
<trkpt lat="51.887920" lon="0.498393"><ele>66.2</ele></trkpt>
<trkpt lat="51.886022" lon="0.495333"><ele>67.6</ele></trkpt>
<trkpt lat="51.884949" lon="0.495807"><ele>71.8</ele></trkpt>
<trkpt lat="51.883953" lon="0.495281"><ele>73.4</ele></trkpt>
<trkpt lat="51.881813" lon="0.496733"><ele>75.6</ele></trkpt>
<trkpt lat="51.880957" lon="0.497551"><ele>76.4</ele></trkpt>
<trkpt lat="51.879960" lon="0.497409"><ele>78.2</ele></trkpt>
<trkpt lat="51.877244" lon="0.496130"><ele>81.2</ele></trkpt>
<trkpt lat="51.875881" lon="0.496570"><ele>81.2</ele></trkpt>
<trkpt lat="51.874736" lon="0.497306"><ele>80.0</ele></trkpt>
<trkpt lat="51.874288" lon="0.498063"><ele>79.6</ele></trkpt>
<trkpt lat="51.875157" lon="0.506362"><ele>77.6</ele></trkpt>
<trkpt lat="51.874823" lon="0.506545"><ele>77.6</ele></trkpt>
<trkpt lat="51.873191" lon="0.505951"><ele>78.8</ele></trkpt>
<trkpt lat="51.873161" lon="0.506246"><ele>78.6</ele></trkpt>
<trkpt lat="51.873229" lon="0.505952"><ele>78.6</ele></trkpt>
<trkpt lat="51.873436" lon="0.505969"><ele>78.8</ele></trkpt>
<trkpt lat="51.875160" lon="0.506579"><ele>77.8</ele></trkpt>
<trkpt lat="51.875992" lon="0.513952"><ele>70.6</ele></trkpt>
<trkpt lat="51.876432" lon="0.515955"><ele>67.2</ele></trkpt>
<trkpt lat="51.876453" lon="0.517599"><ele>64.8</ele></trkpt>
</trkseg></trk>
</gpx>