<?xml version="1.0" encoding="UTF-8"?>
<gpx version="1.1" creator="charalambous.uk" xmlns="http://www.topografix.com/GPX/1/1">
<trk><name>Braintree Road Cycling</name><trkseg>
<trkpt lat="51.876410" lon="0.517758"><ele>61.2</ele></trkpt>
<trkpt lat="51.876361" lon="0.515822"><ele>65.4</ele></trkpt>
<trkpt lat="51.875934" lon="0.513666"><ele>69.4</ele></trkpt>
<trkpt lat="51.877512" lon="0.513424"><ele>66.8</ele></trkpt>
<trkpt lat="51.878360" lon="0.511540"><ele>67.2</ele></trkpt>
<trkpt lat="51.879248" lon="0.507275"><ele>72.2</ele></trkpt>
<trkpt lat="51.880066" lon="0.504813"><ele>74.2</ele></trkpt>
<trkpt lat="51.880093" lon="0.503883"><ele>75.0</ele></trkpt>
<trkpt lat="51.879869" lon="0.502011"><ele>77.0</ele></trkpt>
<trkpt lat="51.879950" lon="0.500411"><ele>77.2</ele></trkpt>
<trkpt lat="51.881062" lon="0.497499"><ele>77.2</ele></trkpt>
<trkpt lat="51.881760" lon="0.496734"><ele>76.4</ele></trkpt>
<trkpt lat="51.883873" lon="0.495264"><ele>74.8</ele></trkpt>
<trkpt lat="51.884281" lon="0.495272"><ele>74.4</ele></trkpt>
<trkpt lat="51.884906" lon="0.495756"><ele>73.2</ele></trkpt>
<trkpt lat="51.886049" lon="0.495284"><ele>68.8</ele></trkpt>
<trkpt lat="51.888136" lon="0.498624"><ele>66.0</ele></trkpt>
<trkpt lat="51.888748" lon="0.499275"><ele>66.0</ele></trkpt>
<trkpt lat="51.889115" lon="0.499282"><ele>66.0</ele></trkpt>
<trkpt lat="51.890260" lon="0.498030"><ele>63.2</ele></trkpt>
<trkpt lat="51.892557" lon="0.496092"><ele>69.0</ele></trkpt>
<trkpt lat="51.894045" lon="0.493618"><ele>72.6</ele></trkpt>
<trkpt lat="51.897067" lon="0.491242"><ele>72.2</ele></trkpt>
<trkpt lat="51.898828" lon="0.490130"><ele>73.0</ele></trkpt>
<trkpt lat="51.900474" lon="0.489913"><ele>71.2</ele></trkpt>
<trkpt lat="51.902155" lon="0.488988"><ele>65.4</ele></trkpt>
<trkpt lat="51.903289" lon="0.488852"><ele>70.6</ele></trkpt>
<trkpt lat="51.905060" lon="0.487408"><ele>76.2</ele></trkpt>
<trkpt lat="51.905733" lon="0.487142"><ele>78.2</ele></trkpt>
<trkpt lat="51.906599" lon="0.485863"><ele>79.8</ele></trkpt>
<trkpt lat="51.906801" lon="0.484097"><ele>81.4</ele></trkpt>
<trkpt lat="51.907909" lon="0.481797"><ele>83.0</ele></trkpt>
<trkpt lat="51.909129" lon="0.480605"><ele>81.6</ele></trkpt>
<trkpt lat="51.910822" lon="0.482134"><ele>76.0</ele></trkpt>
<trkpt lat="51.913421" lon="0.483282"><ele>65.4</ele></trkpt>
<trkpt lat="51.915343" lon="0.485926"><ele>76.8</ele></trkpt>
<trkpt lat="51.916410" lon="0.486614"><ele>75.8</ele></trkpt>
<trkpt lat="51.917727" lon="0.487905"><ele>77.8</ele></trkpt>
<trkpt lat="51.919085" lon="0.490447"><ele>80.4</ele></trkpt>
<trkpt lat="51.920080" lon="0.491846"><ele>81.4</ele></trkpt>
<trkpt lat="51.920808" lon="0.493666"><ele>83.4</ele></trkpt>
<trkpt lat="51.920886" lon="0.494413"><ele>84.6</ele></trkpt>
<trkpt lat="51.920639" lon="0.496392"><ele>86.2</ele></trkpt>
<trkpt lat="51.921119" lon="0.498223"><ele>86.2</ele></trkpt>
<trkpt lat="51.922110" lon="0.500476"><ele>84.2</ele></trkpt>
<trkpt lat="51.923240" lon="0.501653"><ele>80.6</ele></trkpt>
<trkpt lat="51.923752" lon="0.503233"><ele>78.2</ele></trkpt>
<trkpt lat="51.924953" lon="0.505340"><ele>76.4</ele></trkpt>
<trkpt lat="51.925483" lon="0.505927"><ele>76.4</ele></trkpt>
<trkpt lat="51.925655" lon="0.506757"><ele>76.6</ele></trkpt>
<trkpt lat="51.925381" lon="0.508847"><ele>75.6</ele></trkpt>
<trkpt lat="51.924615" lon="0.509357"><ele>76.0</ele></trkpt>
<trkpt lat="51.924500" lon="0.509629"><ele>75.8</ele></trkpt>
<trkpt lat="51.924509" lon="0.510911"><ele>73.8</ele></trkpt>
<trkpt lat="51.924004" lon="0.514000"><ele>64.8</ele></trkpt>
<trkpt lat="51.924083" lon="0.518407"><ele>51.6</ele></trkpt>
<trkpt lat="51.923948" lon="0.518939"><ele>49.6</ele></trkpt>
<trkpt lat="51.920288" lon="0.519051"><ele>61.4</ele></trkpt>
<trkpt lat="51.919603" lon="0.519340"><ele>59.2</ele></trkpt>
<trkpt lat="51.919113" lon="0.518920"><ele>56.4</ele></trkpt>
<trkpt lat="51.918005" lon="0.519361"><ele>60.8</ele></trkpt>
<trkpt lat="51.917084" lon="0.519441"><ele>65.0</ele></trkpt>
<trkpt lat="51.916204" lon="0.520074"><ele>66.4</ele></trkpt>
<trkpt lat="51.915114" lon="0.519761"><ele>68.6</ele></trkpt>
<trkpt lat="51.914610" lon="0.519866"><ele>69.6</ele></trkpt>
<trkpt lat="51.913950" lon="0.520647"><ele>68.6</ele></trkpt>
<trkpt lat="51.913402" lon="0.522357"><ele>65.0</ele></trkpt>
<trkpt lat="51.912103" lon="0.523397"><ele>60.4</ele></trkpt>
<trkpt lat="51.911020" lon="0.525873"><ele>49.0</ele></trkpt>
<trkpt lat="51.909370" lon="0.526655"><ele>50.6</ele></trkpt>
<trkpt lat="51.907944" lon="0.527744"><ele>49.4</ele></trkpt>
<trkpt lat="51.905678" lon="0.528250"><ele>58.6</ele></trkpt>
<trkpt lat="51.902958" lon="0.531532"><ele>61.6</ele></trkpt>
<trkpt lat="51.901921" lon="0.533773"><ele>56.2</ele></trkpt>
<trkpt lat="51.902177" lon="0.536305"><ele>58.2</ele></trkpt>
<trkpt lat="51.901966" lon="0.537524"><ele>56.0</ele></trkpt>
<trkpt lat="51.900381" lon="0.540119"><ele>55.6</ele></trkpt>
</trkseg></trk>
</gpx>