<?xml version="1.0" encoding="UTF-8"?>
<gpx xmlns="http://www.topografix.com/GPX/1/1" xmlns:ns2="http://www.garmin.com/xmlschemas/GpxExtensions/v3" xmlns:ns3="http://www.garmin.com/xmlschemas/TrackPointExtension/v1" xmlns:xsi="http://www.w3.org/2001/XMLSchema-instance" xsi:schemaLocation="http://www.topografix.com/GPX/1/1 http://www.topografix.com/GPX/11.xsd" version="1.1" creator="Garmin Connect">
  <metadata>
    <link href="connect.garmin.com">
      <text>Garmin Connect</text>
    </link>
    <time>2024-09-07T08:19:41Z</time>
  </metadata>
  <trk>
    <name>Braintree Road Cycling</name>
    <type>road_biking</type>
    <trkseg>
      <trkpt lat="51.885418547317386" lon="0.5565029662102461">
        <ele>50.79999923706055</ele>
        <time>2024-09-07T08:23:04Z</time>
        <extensions>
          <ns3:TrackPointExtension>
            <ns3:atemp>19.0</ns3:atemp>
          </ns3:TrackPointExtension>
        </extensions>
      </trkpt>
      <trkpt lat="51.88611516728997" lon="0.5567191354930401">
        <ele>48.20000076293945</ele>
        <time>2024-09-07T08:23:11Z</time>
        <extensions>
          <ns3:TrackPointExtension>
            <ns3:atemp>19.0</ns3:atemp>
          </ns3:TrackPointExtension>
        </extensions>
      </trkpt>
      <trkpt lat="51.88740371726453" lon="0.5564859509468079">
        <ele>44.599998474121094</ele>
        <time>2024-09-07T08:23:23Z</time>
        <extensions>
          <ns3:TrackPointExtension>
            <ns3:atemp>19.0</ns3:atemp>
          </ns3:TrackPointExtension>
        </extensions>
      </trkpt>
      <trkpt lat="51.88801526091993" lon="0.556797506287694">
        <ele>44.20000076293945</ele>
        <time>2024-09-07T08:23:29Z</time>
        <extensions>
          <ns3:TrackPointExtension>
            <ns3:atemp>19.0</ns3:atemp>
          </ns3:TrackPointExtension>
        </extensions>
      </trkpt>
      <trkpt lat="51.88879662193358" lon="0.5579851381480694">
        <ele>43.20000076293945</ele>
        <time>2024-09-07T08:23:41Z</time>
        <extensions>
          <ns3:TrackPointExtension>
            <ns3:atemp>19.0</ns3:atemp>
          </ns3:TrackPointExtension>
        </extensions>
      </trkpt>
      <trkpt lat="51.88976573757827" lon="0.5602363497018814">
        <ele>41.79999923706055</ele>
        <time>2024-09-07T08:23:58Z</time>
        <extensions>
          <ns3:TrackPointExtension>
            <ns3:atemp>19.0</ns3:atemp>
          </ns3:TrackPointExtension>
        </extensions>
      </trkpt>
      <trkpt lat="51.92851644940674" lon="0.5930390954017639">
        <ele>73.4000015258789</ele>
        <time>2024-09-07T08:35:27Z</time>
        <extensions>
          <ns3:TrackPointExtension>
            <ns3:atemp>18.0</ns3:atemp>
          </ns3:TrackPointExtension>
        </extensions>
      </trkpt>
      <trkpt lat="51.92930744960904" lon="0.5938951391726732">
        <ele>70.4000015258789</ele>
        <time>2024-09-07T08:35:38Z</time>
        <extensions>
          <ns3:TrackPointExtension>
            <ns3:atemp>18.0</ns3:atemp>
          </ns3:TrackPointExtension>
        </extensions>
      </trkpt>
      <trkpt lat="51.930497428402305" lon="0.5956550873816013">
        <ele>64.0</ele>
        <time>2024-09-07T08:35:56Z</time>
        <extensions>
          <ns3:TrackPointExtension>
            <ns3:atemp>18.0</ns3:atemp>
          </ns3:TrackPointExtension>
        </extensions>
      </trkpt>
      <trkpt lat="51.93149738945067" lon="0.5958714243024588">
        <ele>58.599998474121094</ele>
        <time>2024-09-07T08:36:08Z</time>
        <extensions>
          <ns3:TrackPointExtension>
            <ns3:atemp>18.0</ns3:atemp>
          </ns3:TrackPointExtension>
        </extensions>
      </trkpt>
      <trkpt lat="51.933318777009845" lon="0.5943932756781578">
        <ele>64.80000305175781</ele>
        <time>2024-09-07T08:36:42Z</time>
        <extensions>
          <ns3:TrackPointExtension>
            <ns3:atemp>18.0</ns3:atemp>
          </ns3:TrackPointExtension>
        </extensions>
      </trkpt>
      <trkpt lat="51.93414229899645" lon="0.5934137664735317">
        <ele>67.80000305175781</ele>
        <time>2024-09-07T08:37:03Z</time>
        <extensions>
          <ns3:TrackPointExtension>
            <ns3:atemp>18.0</ns3:atemp>
          </ns3:TrackPointExtension>
        </extensions>
      </trkpt>
      <trkpt lat="51.936043901368976" lon="0.5926474090665579">
        <ele>69.80000305175781</ele>
        <time>2024-09-07T08:37:37Z</time>
        <extensions>
          <ns3:TrackPointExtension>
            <ns3:atemp>18.0</ns3:atemp>
          </ns3:TrackPointExtension>
        </extensions>
      </trkpt>
      <trkpt lat="51.93650088272989" lon="0.5918404832482338">
        <ele>70.80000305175781</ele>
        <time>2024-09-07T08:37:50Z</time>
        <extensions>
          <ns3:TrackPointExtension>
            <ns3:atemp>18.0</ns3:atemp>
          </ns3:TrackPointExtension>
        </extensions>
      </trkpt>
      <trkpt lat="51.93610584363341" lon="0.5905917473137379">
        <ele>70.80000305175781</ele>
        <time>2024-09-07T08:38:03Z</time>
        <extensions>
          <ns3:TrackPointExtension>
            <ns3:atemp>18.0</ns3:atemp>
          </ns3:TrackPointExtension>
        </extensions>
      </trkpt>
      <trkpt lat="51.935980869457126" lon="0.5875770282000303">
        <ele>71.19999694824219</ele>
        <time>2024-09-07T08:38:27Z</time>
        <extensions>
          <ns3:TrackPointExtension>
            <ns3:atemp>18.0</ns3:atemp>
          </ns3:TrackPointExtension>
        </extensions>
      </trkpt>
      <trkpt lat="51.93571005016565" lon="0.5863049067556858">
        <ele>71.4000015258789</ele>
        <time>2024-09-07T08:38:37Z</time>
        <extensions>
          <ns3:TrackPointExtension>
            <ns3:atemp>18.0</ns3:atemp>
          </ns3:TrackPointExtension>
        </extensions>
      </trkpt>
      <trkpt lat="51.9353206269443" lon="0.585501417517662">
        <ele>71.0</ele>
        <time>2024-09-07T08:38:44Z</time>
        <extensions>
          <ns3:TrackPointExtension>
            <ns3:atemp>18.0</ns3:atemp>
          </ns3:TrackPointExtension>
        </extensions>
      </trkpt>
      <trkpt lat="51.93440523929894" lon="0.5848146043717861">
        <ele>70.4000015258789</ele>
        <time>2024-09-07T08:38:56Z</time>
        <extensions>
          <ns3:TrackPointExtension>
            <ns3:atemp>18.0</ns3:atemp>
          </ns3:TrackPointExtension>
        </extensions>
      </trkpt>
      <trkpt lat="51.932289730757475" lon="0.5803037155419588">
        <ele>64.80000305175781</ele>
        <time>2024-09-07T08:39:39Z</time>
        <extensions>
          <ns3:TrackPointExtension>
            <ns3:atemp>18.0</ns3:atemp>
          </ns3:TrackPointExtension>
        </extensions>
      </trkpt>
      <trkpt lat="51.93098567426205" lon="0.5770238768309355">
        <ele>71.80000305175781</ele>
        <time>2024-09-07T08:40:16Z</time>
        <extensions>
          <ns3:TrackPointExtension>
            <ns3:atemp>18.0</ns3:atemp>
          </ns3:TrackPointExtension>
        </extensions>
      </trkpt>
      <trkpt lat="51.932193338871" lon="0.5749873258173466">
        <ele>69.0</ele>
        <time>2024-09-07T08:40:39Z</time>
        <extensions>
          <ns3:TrackPointExtension>
            <ns3:atemp>18.0</ns3:atemp>
          </ns3:TrackPointExtension>
        </extensions>
      </trkpt>
      <trkpt lat="51.933437967672944" lon="0.5723544023931026">
        <ele>71.5999984741211</ele>
        <time>2024-09-07T08:41:10Z</time>
        <extensions>
          <ns3:TrackPointExtension>
            <ns3:atemp>18.0</ns3:atemp>
          </ns3:TrackPointExtension>
        </extensions>
      </trkpt>
      <trkpt lat="51.93480882793665" lon="0.5677713453769684">
        <ele>71.80000305175781</ele>
        <time>2024-09-07T08:41:53Z</time>
        <extensions>
          <ns3:TrackPointExtension>
            <ns3:atemp>18.0</ns3:atemp>
          </ns3:TrackPointExtension>
        </extensions>
      </trkpt>
      <trkpt lat="51.935414504259825" lon="0.5663444101810455">
        <ele>73.0</ele>
        <time>2024-09-07T08:42:09Z</time>
        <extensions>
          <ns3:TrackPointExtension>
            <ns3:atemp>18.0</ns3:atemp>
          </ns3:TrackPointExtension>
        </extensions>
      </trkpt>
      <trkpt lat="51.936017498373985" lon="0.565436314791441">
        <ele>72.19999694824219</ele>
        <time>2024-09-07T08:42:20Z</time>
        <extensions>
          <ns3:TrackPointExtension>
            <ns3:atemp>18.0</ns3:atemp>
          </ns3:TrackPointExtension>
        </extensions>
      </trkpt>
      <trkpt lat="51.9375414121896" lon="0.5639724992215633">
        <ele>69.80000305175781</ele>
        <time>2024-09-07T08:42:41Z</time>
        <extensions>
          <ns3:TrackPointExtension>
            <ns3:atemp>18.0</ns3:atemp>
          </ns3:TrackPointExtension>
        </extensions>
      </trkpt>
      <trkpt lat="51.937440913170576" lon="0.5618918593972921">
        <ele>71.5999984741211</ele>
        <time>2024-09-07T08:42:59Z</time>
        <extensions>
          <ns3:TrackPointExtension>
            <ns3:atemp>18.0</ns3:atemp>
          </ns3:TrackPointExtension>
        </extensions>
      </trkpt>
      <trkpt lat="51.93768943659961" lon="0.5607397668063641">
        <ele>72.4000015258789</ele>
        <time>2024-09-07T08:43:10Z</time>
        <extensions>
          <ns3:TrackPointExtension>
            <ns3:atemp>18.0</ns3:atemp>
          </ns3:TrackPointExtension>
        </extensions>
      </trkpt>
      <trkpt lat="51.936976723372936" lon="0.5570872686803341">
        <ele>75.0</ele>
        <time>2024-09-07T08:43:46Z</time>
        <extensions>
          <ns3:TrackPointExtension>
            <ns3:atemp>18.0</ns3:atemp>
          </ns3:TrackPointExtension>
        </extensions>
      </trkpt>
      <trkpt lat="51.935430094599724" lon="0.5536638479679823">
        <ele>77.4000015258789</ele>
        <time>2024-09-07T08:44:27Z</time>
        <extensions>
          <ns3:TrackPointExtension>
            <ns3:atemp>18.0</ns3:atemp>
          </ns3:TrackPointExtension>
        </extensions>
      </trkpt>
      <trkpt lat="51.93542154505849" lon="0.5510351154953241">
        <ele>79.80000305175781</ele>
        <time>2024-09-07T08:44:55Z</time>
        <extensions>
          <ns3:TrackPointExtension>
            <ns3:atemp>18.0</ns3:atemp>
          </ns3:TrackPointExtension>
        </extensions>
      </trkpt>
      <trkpt lat="51.93528424948454" lon="0.5500727891921997">
        <ele>80.4000015258789</ele>
        <time>2024-09-07T08:45:05Z</time>
        <extensions>
          <ns3:TrackPointExtension>
            <ns3:atemp>18.0</ns3:atemp>
          </ns3:TrackPointExtension>
        </extensions>
      </trkpt>
      <trkpt lat="51.9342502579093" lon="0.5459109228104353">
        <ele>87.19999694824219</ele>
        <time>2024-09-07T08:45:54Z</time>
        <extensions>
          <ns3:TrackPointExtension>
            <ns3:atemp>18.0</ns3:atemp>
          </ns3:TrackPointExtension>
        </extensions>
      </trkpt>
      <trkpt lat="51.93355271592736" lon="0.5440973304212093">
        <ele>89.80000305175781</ele>
        <time>2024-09-07T08:46:19Z</time>
        <extensions>
          <ns3:TrackPointExtension>
            <ns3:atemp>18.0</ns3:atemp>
          </ns3:TrackPointExtension>
        </extensions>
      </trkpt>
      <trkpt lat="51.93313010036945" lon="0.5415569432079792">
        <ele>91.19999694824219</ele>
        <time>2024-09-07T08:46:47Z</time>
        <extensions>
          <ns3:TrackPointExtension>
            <ns3:atemp>18.0</ns3:atemp>
          </ns3:TrackPointExtension>
        </extensions>
      </trkpt>
      <trkpt lat="51.93219618871808" lon="0.5384792760014534">
        <ele>91.0</ele>
        <time>2024-09-07T08:47:18Z</time>
        <extensions>
          <ns3:TrackPointExtension>
            <ns3:atemp>18.0</ns3:atemp>
          </ns3:TrackPointExtension>
        </extensions>
      </trkpt>
      <trkpt lat="51.93215318955481" lon="0.5372001975774765">
        <ele>90.80000305175781</ele>
        <time>2024-09-07T08:47:28Z</time>
        <extensions>
          <ns3:TrackPointExtension>
            <ns3:atemp>18.0</ns3:atemp>
          </ns3:TrackPointExtension>
        </extensions>
      </trkpt>
      <trkpt lat="51.932581840083" lon="0.5349970143288374">
        <ele>90.0</ele>
        <time>2024-09-07T08:47:46Z</time>
        <extensions>
          <ns3:TrackPointExtension>
            <ns3:atemp>18.0</ns3:atemp>
          </ns3:TrackPointExtension>
        </extensions>
      </trkpt>
      <trkpt lat="51.93234018981457" lon="0.534025551751256">
        <ele>89.4000015258789</ele>
        <time>2024-09-07T08:47:54Z</time>
        <extensions>
          <ns3:TrackPointExtension>
            <ns3:atemp>18.0</ns3:atemp>
          </ns3:TrackPointExtension>
        </extensions>
      </trkpt>
      <trkpt lat="51.931785475462675" lon="0.5330885387957096">
        <ele>87.80000305175781</ele>
        <time>2024-09-07T08:48:07Z</time>
        <extensions>
          <ns3:TrackPointExtension>
            <ns3:atemp>18.0</ns3:atemp>
          </ns3:TrackPointExtension>
        </extensions>
      </trkpt>
      <trkpt lat="51.934112040326" lon="0.5327919870615005">
        <ele>88.5999984741211</ele>
        <time>2024-09-07T08:48:44Z</time>
        <extensions>
          <ns3:TrackPointExtension>
            <ns3:atemp>18.0</ns3:atemp>
          </ns3:TrackPointExtension>
        </extensions>
      </trkpt>
      <trkpt lat="51.9370855204761" lon="0.5312619544565678">
        <ele>85.19999694824219</ele>
        <time>2024-09-07T08:49:24Z</time>
        <extensions>
          <ns3:TrackPointExtension>
            <ns3:atemp>18.0</ns3:atemp>
          </ns3:TrackPointExtension>
        </extensions>
      </trkpt>
      <trkpt lat="51.937253745272756" lon="0.531487762928009">
        <ele>84.80000305175781</ele>
        <time>2024-09-07T08:49:27Z</time>
        <extensions>
          <ns3:TrackPointExtension>
            <ns3:atemp>18.0</ns3:atemp>
          </ns3:TrackPointExtension>
        </extensions>
      </trkpt>
      <trkpt lat="51.93735030479729" lon="0.5331023689359426">
        <ele>84.0</ele>
        <time>2024-09-07T08:49:40Z</time>
        <extensions>
          <ns3:TrackPointExtension>
            <ns3:atemp>18.0</ns3:atemp>
          </ns3:TrackPointExtension>
        </extensions>
      </trkpt>
      <trkpt lat="51.93771089427173" lon="0.5341807845979929">
        <ele>84.0</ele>
        <time>2024-09-07T08:49:50Z</time>
        <extensions>
          <ns3:TrackPointExtension>
            <ns3:atemp>18.0</ns3:atemp>
          </ns3:TrackPointExtension>
        </extensions>
      </trkpt>
      <trkpt lat="51.93900455720723" lon="0.5359354522079229">
        <ele>80.5999984741211</ele>
        <time>2024-09-07T08:50:11Z</time>
        <extensions>
          <ns3:TrackPointExtension>
            <ns3:atemp>18.0</ns3:atemp>
          </ns3:TrackPointExtension>
        </extensions>
      </trkpt>
      <trkpt lat="51.93937956355512" lon="0.5361075326800346">
        <ele>79.4000015258789</ele>
        <time>2024-09-07T08:50:16Z</time>
        <extensions>
          <ns3:TrackPointExtension>
            <ns3:atemp>18.0</ns3:atemp>
          </ns3:TrackPointExtension>
        </extensions>
      </trkpt>
      <trkpt lat="51.94127781316638" lon="0.5355445202440023">
        <ele>75.5999984741211</ele>
        <time>2024-09-07T08:50:39Z</time>
        <extensions>
          <ns3:TrackPointExtension>
            <ns3:atemp>18.0</ns3:atemp>
          </ns3:TrackPointExtension>
        </extensions>
      </trkpt>
      <trkpt lat="51.94264741614461" lon="0.5338912736624479">
        <ele>76.4000015258789</ele>
        <time>2024-09-07T08:51:02Z</time>
        <extensions>
          <ns3:TrackPointExtension>
            <ns3:atemp>18.0</ns3:atemp>
          </ns3:TrackPointExtension>
        </extensions>
      </trkpt>
      <trkpt lat="51.943780397996306" lon="0.5342310760170221">
        <ele>77.5999984741211</ele>
        <time>2024-09-07T08:51:18Z</time>
        <extensions>
          <ns3:TrackPointExtension>
            <ns3:atemp>18.0</ns3:atemp>
          </ns3:TrackPointExtension>
        </extensions>
      </trkpt>
      <trkpt lat="51.945383017882705" lon="0.5334434285759926">
        <ele>80.19999694824219</ele>
        <time>2024-09-07T08:51:43Z</time>
        <extensions>
          <ns3:TrackPointExtension>
            <ns3:atemp>18.0</ns3:atemp>
          </ns3:TrackPointExtension>
        </extensions>
      </trkpt>
      <trkpt lat="51.94876410998404" lon="0.5290663987398148">
        <ele>79.5999984741211</ele>
        <time>2024-09-07T08:52:40Z</time>
        <extensions>
          <ns3:TrackPointExtension>
            <ns3:atemp>18.0</ns3:atemp>
          </ns3:TrackPointExtension>
        </extensions>
      </trkpt>
      <trkpt lat="51.94988745264709" lon="0.5280998814851046">
        <ele>77.0</ele>
        <time>2024-09-07T08:52:54Z</time>
        <extensions>
          <ns3:TrackPointExtension>
            <ns3:atemp>18.0</ns3:atemp>
          </ns3:TrackPointExtension>
        </extensions>
      </trkpt>
      <trkpt lat="51.95019825361669" lon="0.5258263740688562">
        <ele>82.4000015258789</ele>
        <time>2024-09-07T08:53:20Z</time>
        <extensions>
          <ns3:TrackPointExtension>
            <ns3:atemp>18.0</ns3:atemp>
          </ns3:TrackPointExtension>
        </extensions>
      </trkpt>
      <trkpt lat="51.95106267929077" lon="0.5235509388148785">
        <ele>86.19999694824219</ele>
        <time>2024-09-07T08:53:50Z</time>
        <extensions>
          <ns3:TrackPointExtension>
            <ns3:atemp>18.0</ns3:atemp>
          </ns3:TrackPointExtension>
        </extensions>
      </trkpt>
      <trkpt lat="51.95237260311842" lon="0.5214999709278345">
        <ele>88.80000305175781</ele>
        <time>2024-09-07T08:54:23Z</time>
        <extensions>
          <ns3:TrackPointExtension>
            <ns3:atemp>18.0</ns3:atemp>
          </ns3:TrackPointExtension>
        </extensions>
      </trkpt>
      <trkpt lat="51.95335043594241" lon="0.5209267325699329">
        <ele>88.80000305175781</ele>
        <time>2024-09-07T08:54:39Z</time>
        <extensions>
          <ns3:TrackPointExtension>
            <ns3:atemp>19.0</ns3:atemp>
          </ns3:TrackPointExtension>
        </extensions>
      </trkpt>
      <trkpt lat="51.9541419390589" lon="0.5186787899583578">
        <ele>84.19999694824219</ele>
        <time>2024-09-07T08:54:58Z</time>
        <extensions>
          <ns3:TrackPointExtension>
            <ns3:atemp>19.0</ns3:atemp>
          </ns3:TrackPointExtension>
        </extensions>
      </trkpt>
      <trkpt lat="51.955416994169354" lon="0.5157933197915554">
        <ele>87.5999984741211</ele>
        <time>2024-09-07T08:55:29Z</time>
        <extensions>
          <ns3:TrackPointExtension>
            <ns3:atemp>19.0</ns3:atemp>
          </ns3:TrackPointExtension>
        </extensions>
      </trkpt>
      <trkpt lat="51.95785420015454" lon="0.5120387300848961">
        <ele>89.0</ele>
        <time>2024-09-07T08:56:21Z</time>
        <extensions>
          <ns3:TrackPointExtension>
            <ns3:atemp>19.0</ns3:atemp>
          </ns3:TrackPointExtension>
        </extensions>
      </trkpt>
      <trkpt lat="51.95787272416055" lon="0.5116371531039476">
        <ele>88.80000305175781</ele>
        <time>2024-09-07T08:56:25Z</time>
        <extensions>
          <ns3:TrackPointExtension>
            <ns3:atemp>19.0</ns3:atemp>
          </ns3:TrackPointExtension>
        </extensions>
      </trkpt>
      <trkpt lat="51.957488832995296" lon="0.5101095512509346">
        <ele>90.4000015258789</ele>
        <time>2024-09-07T08:56:38Z</time>
        <extensions>
          <ns3:TrackPointExtension>
            <ns3:atemp>19.0</ns3:atemp>
          </ns3:TrackPointExtension>
        </extensions>
      </trkpt>
      <trkpt lat="51.9575319159776" lon="0.5088833626359701">
        <ele>91.80000305175781</ele>
        <time>2024-09-07T08:56:50Z</time>
        <extensions>
          <ns3:TrackPointExtension>
            <ns3:atemp>19.0</ns3:atemp>
          </ns3:TrackPointExtension>
        </extensions>
      </trkpt>
      <trkpt lat="51.95715288631618" lon="0.5061857309192419">
        <ele>94.4000015258789</ele>
        <time>2024-09-07T08:57:20Z</time>
        <extensions>
          <ns3:TrackPointExtension>
            <ns3:atemp>19.0</ns3:atemp>
          </ns3:TrackPointExtension>
        </extensions>
      </trkpt>
      <trkpt lat="51.95656212978065" lon="0.5036422424018383">
        <ele>93.0</ele>
        <time>2024-09-07T08:57:43Z</time>
        <extensions>
          <ns3:TrackPointExtension>
            <ns3:atemp>19.0</ns3:atemp>
          </ns3:TrackPointExtension>
        </extensions>
      </trkpt>
      <trkpt lat="51.95612174458802" lon="0.49870261922478676">
        <ele>79.19999694824219</ele>
        <time>2024-09-07T08:58:15Z</time>
        <extensions>
          <ns3:TrackPointExtension>
            <ns3:atemp>19.0</ns3:atemp>
          </ns3:TrackPointExtension>
        </extensions>
      </trkpt>
      <trkpt lat="51.95496495813131" lon="0.49611889757215977">
        <ele>75.19999694824219</ele>
        <time>2024-09-07T08:58:34Z</time>
        <extensions>
          <ns3:TrackPointExtension>
            <ns3:atemp>19.0</ns3:atemp>
          </ns3:TrackPointExtension>
        </extensions>
      </trkpt>
      <trkpt lat="51.95451292209327" lon="0.49224662594497204">
        <ele>76.0</ele>
        <time>2024-09-07T08:59:07Z</time>
        <extensions>
          <ns3:TrackPointExtension>
            <ns3:atemp>19.0</ns3:atemp>
          </ns3:TrackPointExtension>
        </extensions>
      </trkpt>
      <trkpt lat="51.95361278951168" lon="0.48957405611872673">
        <ele>77.4000015258789</ele>
        <time>2024-09-07T08:59:35Z</time>
        <extensions>
          <ns3:TrackPointExtension>
            <ns3:atemp>19.0</ns3:atemp>
          </ns3:TrackPointExtension>
        </extensions>
      </trkpt>
      <trkpt lat="51.953616980463266" lon="0.4870281368494034">
        <ele>73.4000015258789</ele>
        <time>2024-09-07T08:59:54Z</time>
        <extensions>
          <ns3:TrackPointExtension>
            <ns3:atemp>19.0</ns3:atemp>
          </ns3:TrackPointExtension>
        </extensions>
      </trkpt>
      <trkpt lat="51.953313974663615" lon="0.48531219363212585">
        <ele>77.80000305175781</ele>
        <time>2024-09-07T09:00:14Z</time>
        <extensions>
          <ns3:TrackPointExtension>
            <ns3:atemp>19.0</ns3:atemp>
          </ns3:TrackPointExtension>
        </extensions>
      </trkpt>
      <trkpt lat="51.95332939736545" lon="0.48463476821780205">
        <ele>78.80000305175781</ele>
        <time>2024-09-07T09:00:22Z</time>
        <extensions>
          <ns3:TrackPointExtension>
            <ns3:atemp>19.0</ns3:atemp>
          </ns3:TrackPointExtension>
        </extensions>
      </trkpt>
      <trkpt lat="51.95369048975408" lon="0.4838954843580723">
        <ele>79.19999694824219</ele>
        <time>2024-09-07T09:00:32Z</time>
        <extensions>
          <ns3:TrackPointExtension>
            <ns3:atemp>19.0</ns3:atemp>
          </ns3:TrackPointExtension>
        </extensions>
      </trkpt>
      <trkpt lat="51.95532797835767" lon="0.48197762109339237">
        <ele>70.19999694824219</ele>
        <time>2024-09-07T09:00:54Z</time>
        <extensions>
          <ns3:TrackPointExtension>
            <ns3:atemp>19.0</ns3:atemp>
          </ns3:TrackPointExtension>
        </extensions>
      </trkpt>
      <trkpt lat="51.95706529542804" lon="0.4819177743047476">
        <ele>70.5999984741211</ele>
        <time>2024-09-07T09:01:15Z</time>
        <extensions>
          <ns3:TrackPointExtension>
            <ns3:atemp>19.0</ns3:atemp>
          </ns3:TrackPointExtension>
        </extensions>
      </trkpt>
      <trkpt lat="51.958613097667694" lon="0.48064188100397587">
        <ele>72.80000305175781</ele>
        <time>2024-09-07T09:01:41Z</time>
        <extensions>
          <ns3:TrackPointExtension>
            <ns3:atemp>19.0</ns3:atemp>
          </ns3:TrackPointExtension>
        </extensions>
      </trkpt>
      <trkpt lat="51.96132196113467" lon="0.4777865018695593">
        <ele>81.19999694824219</ele>
        <time>2024-09-07T09:02:36Z</time>
        <extensions>
          <ns3:TrackPointExtension>
            <ns3:atemp>20.0</ns3:atemp>
          </ns3:TrackPointExtension>
        </extensions>
      </trkpt>
      <trkpt lat="51.9628572743386" lon="0.4770633112639189">
        <ele>76.80000305175781</ele>
        <time>2024-09-07T09:02:57Z</time>
        <extensions>
          <ns3:TrackPointExtension>
            <ns3:atemp>20.0</ns3:atemp>
          </ns3:TrackPointExtension>
        </extensions>
      </trkpt>
      <trkpt lat="51.963136894628406" lon="0.4765145480632782">
        <ele>75.4000015258789</ele>
        <time>2024-09-07T09:03:02Z</time>
        <extensions>
          <ns3:TrackPointExtension>
            <ns3:atemp>20.0</ns3:atemp>
          </ns3:TrackPointExtension>
        </extensions>
      </trkpt>
      <trkpt lat="51.963687585666776" lon="0.4742570500820875">
        <ele>75.80000305175781</ele>
        <time>2024-09-07T09:03:21Z</time>
        <extensions>
          <ns3:TrackPointExtension>
            <ns3:atemp>20.0</ns3:atemp>
          </ns3:TrackPointExtension>
        </extensions>
      </trkpt>
      <trkpt lat="51.964905727654696" lon="0.4715676326304674">
        <ele>76.80000305175781</ele>
        <time>2024-09-07T09:03:50Z</time>
        <extensions>
          <ns3:TrackPointExtension>
            <ns3:atemp>20.0</ns3:atemp>
          </ns3:TrackPointExtension>
        </extensions>
      </trkpt>
      <trkpt lat="51.96562682278454" lon="0.47012150287628174">
        <ele>78.0</ele>
        <time>2024-09-07T09:04:08Z</time>
        <extensions>
          <ns3:TrackPointExtension>
            <ns3:atemp>20.0</ns3:atemp>
          </ns3:TrackPointExtension>
        </extensions>
      </trkpt>
      <trkpt lat="51.966476161032915" lon="0.4691999964416027">
        <ele>82.0</ele>
        <time>2024-09-07T09:04:26Z</time>
        <extensions>
          <ns3:TrackPointExtension>
            <ns3:atemp>20.0</ns3:atemp>
          </ns3:TrackPointExtension>
        </extensions>
      </trkpt>
      <trkpt lat="51.9684767536819" lon="0.4656355921179056">
        <ele>85.5999984741211</ele>
        <time>2024-09-07T09:05:22Z</time>
        <extensions>
          <ns3:TrackPointExtension>
            <ns3:atemp>20.0</ns3:atemp>
          </ns3:TrackPointExtension>
        </extensions>
      </trkpt>
      <trkpt lat="51.968889562413096" lon="0.46423908323049545">
        <ele>80.19999694824219</ele>
        <time>2024-09-07T09:05:31Z</time>
        <extensions>
          <ns3:TrackPointExtension>
            <ns3:atemp>20.0</ns3:atemp>
          </ns3:TrackPointExtension>
        </extensions>
      </trkpt>
      <trkpt lat="51.969004310667515" lon="0.4625312704592943">
        <ele>79.0</ele>
        <time>2024-09-07T09:05:42Z</time>
        <extensions>
          <ns3:TrackPointExtension>
            <ns3:atemp>20.0</ns3:atemp>
          </ns3:TrackPointExtension>
        </extensions>
      </trkpt>
      <trkpt lat="51.968447836115956" lon="0.4530889727175236">
        <ele>77.19999694824219</ele>
        <time>2024-09-07T09:07:00Z</time>
        <extensions>
          <ns3:TrackPointExtension>
            <ns3:atemp>20.0</ns3:atemp>
          </ns3:TrackPointExtension>
        </extensions>
      </trkpt>
      <trkpt lat="51.96817919611931" lon="0.4519466869533062">
        <ele>76.0</ele>
        <time>2024-09-07T09:07:10Z</time>
        <extensions>
          <ns3:TrackPointExtension>
            <ns3:atemp>20.0</ns3:atemp>
          </ns3:TrackPointExtension>
        </extensions>
      </trkpt>
      <trkpt lat="51.96851053275168" lon="0.4509546048939228">
        <ele>68.5999984741211</ele>
        <time>2024-09-07T09:07:18Z</time>
        <extensions>
          <ns3:TrackPointExtension>
            <ns3:atemp>20.0</ns3:atemp>
          </ns3:TrackPointExtension>
        </extensions>
      </trkpt>
      <trkpt lat="51.96825304068625" lon="0.4503309912979603">
        <ele>66.5999984741211</ele>
        <time>2024-09-07T09:07:24Z</time>
        <extensions>
          <ns3:TrackPointExtension>
            <ns3:atemp>20.0</ns3:atemp>
          </ns3:TrackPointExtension>
        </extensions>
      </trkpt>
      <trkpt lat="51.96748408488929" lon="0.44999420642852783">
        <ele>67.0</ele>
        <time>2024-09-07T09:07:35Z</time>
        <extensions>
          <ns3:TrackPointExtension>
            <ns3:atemp>20.0</ns3:atemp>
          </ns3:TrackPointExtension>
        </extensions>
      </trkpt>
      <trkpt lat="51.9663645979017" lon="0.45084220357239246">
        <ele>69.80000305175781</ele>
        <time>2024-09-07T09:07:55Z</time>
        <extensions>
          <ns3:TrackPointExtension>
            <ns3:atemp>21.0</ns3:atemp>
          </ns3:TrackPointExtension>
        </extensions>
      </trkpt>
      <trkpt lat="51.96525097824633" lon="0.4507323168218136">
        <ele>71.0</ele>
        <time>2024-09-07T09:08:13Z</time>
        <extensions>
          <ns3:TrackPointExtension>
            <ns3:atemp>21.0</ns3:atemp>
          </ns3:TrackPointExtension>
        </extensions>
      </trkpt>
      <trkpt lat="51.96345314383507" lon="0.4499990679323673">
        <ele>70.19999694824219</ele>
        <time>2024-09-07T09:08:38Z</time>
        <extensions>
          <ns3:TrackPointExtension>
            <ns3:atemp>21.0</ns3:atemp>
          </ns3:TrackPointExtension>
        </extensions>
      </trkpt>
      <trkpt lat="51.96159051731229" lon="0.4485945962369442">
        <ele>67.80000305175781</ele>
        <time>2024-09-07T09:09:03Z</time>
        <extensions>
          <ns3:TrackPointExtension>
            <ns3:atemp>21.0</ns3:atemp>
          </ns3:TrackPointExtension>
        </extensions>
      </trkpt>
      <trkpt lat="51.96026676334441" lon="0.4467251803725958">
        <ele>68.5999984741211</ele>
        <time>2024-09-07T09:09:27Z</time>
        <extensions>
          <ns3:TrackPointExtension>
            <ns3:atemp>21.0</ns3:atemp>
          </ns3:TrackPointExtension>
        </extensions>
      </trkpt>
      <trkpt lat="51.95951767265797" lon="0.44503320939838886">
        <ele>69.0</ele>
        <time>2024-09-07T09:09:46Z</time>
        <extensions>
          <ns3:TrackPointExtension>
            <ns3:atemp>21.0</ns3:atemp>
          </ns3:TrackPointExtension>
        </extensions>
      </trkpt>
      <trkpt lat="51.95764775387943" lon="0.44236491434276104">
        <ele>73.19999694824219</ele>
        <time>2024-09-07T09:10:30Z</time>
        <extensions>
          <ns3:TrackPointExtension>
            <ns3:atemp>21.0</ns3:atemp>
          </ns3:TrackPointExtension>
        </extensions>
      </trkpt>
      <trkpt lat="51.95518774911761" lon="0.44000767171382904">
        <ele>70.4000015258789</ele>
        <time>2024-09-07T09:11:11Z</time>
        <extensions>
          <ns3:TrackPointExtension>
            <ns3:atemp>21.0</ns3:atemp>
          </ns3:TrackPointExtension>
        </extensions>
      </trkpt>
      <trkpt lat="51.95373533293605" lon="0.43900913558900356">
        <ele>62.400001525878906</ele>
        <time>2024-09-07T09:11:26Z</time>
        <extensions>
          <ns3:TrackPointExtension>
            <ns3:atemp>21.0</ns3:atemp>
          </ns3:TrackPointExtension>
        </extensions>
      </trkpt>
      <trkpt lat="51.95280075073242" lon="0.4369609337300062">
        <ele>61.79999923706055</ele>
        <time>2024-09-07T09:11:44Z</time>
        <extensions>
          <ns3:TrackPointExtension>
            <ns3:atemp>21.0</ns3:atemp>
          </ns3:TrackPointExtension>
        </extensions>
      </trkpt>
      <trkpt lat="51.951833898201585" lon="0.4364772140979767">
        <ele>62.20000076293945</ele>
        <time>2024-09-07T09:11:58Z</time>
        <extensions>
          <ns3:TrackPointExtension>
            <ns3:atemp>21.0</ns3:atemp>
          </ns3:TrackPointExtension>
        </extensions>
      </trkpt>
      <trkpt lat="51.949676563963294" lon="0.4370921105146408">
        <ele>65.5999984741211</ele>
        <time>2024-09-07T09:12:35Z</time>
        <extensions>
          <ns3:TrackPointExtension>
            <ns3:atemp>21.0</ns3:atemp>
          </ns3:TrackPointExtension>
        </extensions>
      </trkpt>
      <trkpt lat="51.948185758665204" lon="0.4379246011376381">
        <ele>68.5999984741211</ele>
        <time>2024-09-07T09:13:09Z</time>
        <extensions>
          <ns3:TrackPointExtension>
            <ns3:atemp>21.0</ns3:atemp>
          </ns3:TrackPointExtension>
        </extensions>
      </trkpt>
      <trkpt lat="51.94790395908058" lon="0.4401774890720844">
        <ele>66.5999984741211</ele>
        <time>2024-09-07T09:13:32Z</time>
        <extensions>
          <ns3:TrackPointExtension>
            <ns3:atemp>21.0</ns3:atemp>
          </ns3:TrackPointExtension>
        </extensions>
      </trkpt>
      <trkpt lat="51.94761419668794" lon="0.44064645655453205">
        <ele>67.80000305175781</ele>
        <time>2024-09-07T09:13:39Z</time>
        <extensions>
          <ns3:TrackPointExtension>
            <ns3:atemp>21.0</ns3:atemp>
          </ns3:TrackPointExtension>
        </extensions>
      </trkpt>
      <trkpt lat="51.9469890743494" lon="0.4410937149077654">
        <ele>71.0</ele>
        <time>2024-09-07T09:13:54Z</time>
        <extensions>
          <ns3:TrackPointExtension>
            <ns3:atemp>21.0</ns3:atemp>
          </ns3:TrackPointExtension>
        </extensions>
      </trkpt>
      <trkpt lat="51.94665958173573" lon="0.4411015100777149">
        <ele>73.0</ele>
        <time>2024-09-07T09:14:02Z</time>
        <extensions>
          <ns3:TrackPointExtension>
            <ns3:atemp>21.0</ns3:atemp>
          </ns3:TrackPointExtension>
        </extensions>
      </trkpt>
      <trkpt lat="51.942664347589016" lon="0.4391110595315695">
        <ele>84.19999694824219</ele>
        <time>2024-09-07T09:15:27Z</time>
        <extensions>
          <ns3:TrackPointExtension>
            <ns3:atemp>20.0</ns3:atemp>
          </ns3:TrackPointExtension>
        </extensions>
      </trkpt>
      <trkpt lat="51.94210267625749" lon="0.43929445557296276">
        <ele>86.4000015258789</ele>
        <time>2024-09-07T09:15:39Z</time>
        <extensions>
          <ns3:TrackPointExtension>
            <ns3:atemp>20.0</ns3:atemp>
          </ns3:TrackPointExtension>
        </extensions>
      </trkpt>
      <trkpt lat="51.94059519097209" lon="0.4406558442860842">
        <ele>90.5999984741211</ele>
        <time>2024-09-07T09:16:13Z</time>
        <extensions>
          <ns3:TrackPointExtension>
            <ns3:atemp>20.0</ns3:atemp>
          </ns3:TrackPointExtension>
        </extensions>
      </trkpt>
      <trkpt lat="51.940186992287636" lon="0.4413958825170994">
        <ele>91.4000015258789</ele>
        <time>2024-09-07T09:16:24Z</time>
        <extensions>
          <ns3:TrackPointExtension>
            <ns3:atemp>20.0</ns3:atemp>
          </ns3:TrackPointExtension>
        </extensions>
      </trkpt>
      <trkpt lat="51.938788555562496" lon="0.44534518383443356">
        <ele>87.0</ele>
        <time>2024-09-07T09:17:01Z</time>
        <extensions>
          <ns3:TrackPointExtension>
            <ns3:atemp>20.0</ns3:atemp>
          </ns3:TrackPointExtension>
        </extensions>
      </trkpt>
      <trkpt lat="51.93589461967349" lon="0.44601062312722206">
        <ele>84.5999984741211</ele>
        <time>2024-09-07T09:17:38Z</time>
        <extensions>
          <ns3:TrackPointExtension>
            <ns3:atemp>20.0</ns3:atemp>
          </ns3:TrackPointExtension>
        </extensions>
      </trkpt>
      <trkpt lat="51.93431940861046" lon="0.44785640202462673">
        <ele>87.19999694824219</ele>
        <time>2024-09-07T09:18:08Z</time>
        <extensions>
          <ns3:TrackPointExtension>
            <ns3:atemp>20.0</ns3:atemp>
          </ns3:TrackPointExtension>
        </extensions>
      </trkpt>
      <trkpt lat="51.932296101003885" lon="0.4515573475509882">
        <ele>87.0</ele>
        <time>2024-09-07T09:18:54Z</time>
        <extensions>
          <ns3:TrackPointExtension>
            <ns3:atemp>20.0</ns3:atemp>
          </ns3:TrackPointExtension>
        </extensions>
      </trkpt>
      <trkpt lat="51.92986241541803" lon="0.4565719049423933">
        <ele>82.5999984741211</ele>
        <time>2024-09-07T09:19:48Z</time>
        <extensions>
          <ns3:TrackPointExtension>
            <ns3:atemp>20.0</ns3:atemp>
          </ns3:TrackPointExtension>
        </extensions>
      </trkpt>
      <trkpt lat="51.92749360576272" lon="0.4622028674930334">
        <ele>86.0</ele>
        <time>2024-09-07T09:21:00Z</time>
        <extensions>
          <ns3:TrackPointExtension>
            <ns3:atemp>19.0</ns3:atemp>
          </ns3:TrackPointExtension>
        </extensions>
      </trkpt>
      <trkpt lat="51.92685113288462" lon="0.4632263816893101">
        <ele>84.0</ele>
        <time>2024-09-07T09:21:11Z</time>
        <extensions>
          <ns3:TrackPointExtension>
            <ns3:atemp>19.0</ns3:atemp>
          </ns3:TrackPointExtension>
        </extensions>
      </trkpt>
      <trkpt lat="51.92597245797515" lon="0.46382845379412174">
        <ele>81.80000305175781</ele>
        <time>2024-09-07T09:21:21Z</time>
        <extensions>
          <ns3:TrackPointExtension>
            <ns3:atemp>19.0</ns3:atemp>
          </ns3:TrackPointExtension>
        </extensions>
      </trkpt>
      <trkpt lat="51.921802796423435" lon="0.4648089688271284">
        <ele>81.80000305175781</ele>
        <time>2024-09-07T09:22:16Z</time>
        <extensions>
          <ns3:TrackPointExtension>
            <ns3:atemp>19.0</ns3:atemp>
          </ns3:TrackPointExtension>
        </extensions>
      </trkpt>
      <trkpt lat="51.92011543549597" lon="0.4640900529921055">
        <ele>84.80000305175781</ele>
        <time>2024-09-07T09:22:37Z</time>
        <extensions>
          <ns3:TrackPointExtension>
            <ns3:atemp>19.0</ns3:atemp>
          </ns3:TrackPointExtension>
        </extensions>
      </trkpt>
      <trkpt lat="51.919534569606185" lon="0.46448961831629276">
        <ele>83.80000305175781</ele>
        <time>2024-09-07T09:22:45Z</time>
        <extensions>
          <ns3:TrackPointExtension>
            <ns3:atemp>19.0</ns3:atemp>
          </ns3:TrackPointExtension>
        </extensions>
      </trkpt>
      <trkpt lat="51.918025240302086" lon="0.4664609581232071">
        <ele>81.5999984741211</ele>
        <time>2024-09-07T09:23:11Z</time>
        <extensions>
          <ns3:TrackPointExtension>
            <ns3:atemp>19.0</ns3:atemp>
          </ns3:TrackPointExtension>
        </extensions>
      </trkpt>
      <trkpt lat="51.91671263426542" lon="0.4673252999782562">
        <ele>81.4000015258789</ele>
        <time>2024-09-07T09:23:32Z</time>
        <extensions>
          <ns3:TrackPointExtension>
            <ns3:atemp>19.0</ns3:atemp>
          </ns3:TrackPointExtension>
        </extensions>
      </trkpt>
      <trkpt lat="51.915488708764315" lon="0.46739797107875347">
        <ele>83.0</ele>
        <time>2024-09-07T09:23:52Z</time>
        <extensions>
          <ns3:TrackPointExtension>
            <ns3:atemp>19.0</ns3:atemp>
          </ns3:TrackPointExtension>
        </extensions>
      </trkpt>
      <trkpt lat="51.914425464347005" lon="0.4668891057372093">
        <ele>85.0</ele>
        <time>2024-09-07T09:24:12Z</time>
        <extensions>
          <ns3:TrackPointExtension>
            <ns3:atemp>19.0</ns3:atemp>
          </ns3:TrackPointExtension>
        </extensions>
      </trkpt>
      <trkpt lat="51.91363278776407" lon="0.4670478589832783">
        <ele>85.0</ele>
        <time>2024-09-07T09:24:24Z</time>
        <extensions>
          <ns3:TrackPointExtension>
            <ns3:atemp>19.0</ns3:atemp>
          </ns3:TrackPointExtension>
        </extensions>
      </trkpt>
      <trkpt lat="51.912694266065955" lon="0.467567453160882">
        <ele>84.4000015258789</ele>
        <time>2024-09-07T09:24:38Z</time>
        <extensions>
          <ns3:TrackPointExtension>
            <ns3:atemp>19.0</ns3:atemp>
          </ns3:TrackPointExtension>
        </extensions>
      </trkpt>
      <trkpt lat="51.911228438839316" lon="0.4692684765905142">
        <ele>79.4000015258789</ele>
        <time>2024-09-07T09:25:00Z</time>
        <extensions>
          <ns3:TrackPointExtension>
            <ns3:atemp>19.0</ns3:atemp>
          </ns3:TrackPointExtension>
        </extensions>
      </trkpt>
      <trkpt lat="51.90977836959064" lon="0.4689109046012163">
        <ele>75.5999984741211</ele>
        <time>2024-09-07T09:25:16Z</time>
        <extensions>
          <ns3:TrackPointExtension>
            <ns3:atemp>19.0</ns3:atemp>
          </ns3:TrackPointExtension>
        </extensions>
      </trkpt>
      <trkpt lat="51.908355709165335" lon="0.4698713030666113">
        <ele>78.4000015258789</ele>
        <time>2024-09-07T09:25:39Z</time>
        <extensions>
          <ns3:TrackPointExtension>
            <ns3:atemp>19.0</ns3:atemp>
          </ns3:TrackPointExtension>
        </extensions>
      </trkpt>
      <trkpt lat="51.907230941578746" lon="0.469405185431242">
        <ele>82.5999984741211</ele>
        <time>2024-09-07T09:26:04Z</time>
        <extensions>
          <ns3:TrackPointExtension>
            <ns3:atemp>19.0</ns3:atemp>
          </ns3:TrackPointExtension>
        </extensions>
      </trkpt>
      <trkpt lat="51.9059001468122" lon="0.47083170153200626">
        <ele>85.80000305175781</ele>
        <time>2024-09-07T09:26:37Z</time>
        <extensions>
          <ns3:TrackPointExtension>
            <ns3:atemp>19.0</ns3:atemp>
          </ns3:TrackPointExtension>
        </extensions>
      </trkpt>
      <trkpt lat="51.90358196385205" lon="0.47122908756136894">
        <ele>87.0</ele>
        <time>2024-09-07T09:27:15Z</time>
        <extensions>
          <ns3:TrackPointExtension>
            <ns3:atemp>19.0</ns3:atemp>
          </ns3:TrackPointExtension>
        </extensions>
      </trkpt>
      <trkpt lat="51.902073472738266" lon="0.47213081270456314">
        <ele>88.80000305175781</ele>
        <time>2024-09-07T09:27:44Z</time>
        <extensions>
          <ns3:TrackPointExtension>
            <ns3:atemp>19.0</ns3:atemp>
          </ns3:TrackPointExtension>
        </extensions>
      </trkpt>
      <trkpt lat="51.90163157880306" lon="0.47196485102176666">
        <ele>89.19999694824219</ele>
        <time>2024-09-07T09:27:52Z</time>
        <extensions>
          <ns3:TrackPointExtension>
            <ns3:atemp>19.0</ns3:atemp>
          </ns3:TrackPointExtension>
        </extensions>
      </trkpt>
      <trkpt lat="51.9010164309293" lon="0.4708455316722393">
        <ele>89.5999984741211</ele>
        <time>2024-09-07T09:28:07Z</time>
        <extensions>
          <ns3:TrackPointExtension>
            <ns3:atemp>19.0</ns3:atemp>
          </ns3:TrackPointExtension>
        </extensions>
      </trkpt>
      <trkpt lat="51.90064980648458" lon="0.47066221944987774">
        <ele>89.5999984741211</ele>
        <time>2024-09-07T09:28:13Z</time>
        <extensions>
          <ns3:TrackPointExtension>
            <ns3:atemp>19.0</ns3:atemp>
          </ns3:TrackPointExtension>
        </extensions>
      </trkpt>
      <trkpt lat="51.8936893902719" lon="0.4722085129469633">
        <ele>81.80000305175781</ele>
        <time>2024-09-07T09:29:43Z</time>
        <extensions>
          <ns3:TrackPointExtension>
            <ns3:atemp>19.0</ns3:atemp>
          </ns3:TrackPointExtension>
        </extensions>
      </trkpt>
      <trkpt lat="51.89310282468796" lon="0.4727055598050356">
        <ele>81.5999984741211</ele>
        <time>2024-09-07T09:29:52Z</time>
        <extensions>
          <ns3:TrackPointExtension>
            <ns3:atemp>19.0</ns3:atemp>
          </ns3:TrackPointExtension>
        </extensions>
      </trkpt>
      <trkpt lat="51.892212834209204" lon="0.47422293573617935">
        <ele>81.5999984741211</ele>
        <time>2024-09-07T09:30:10Z</time>
        <extensions>
          <ns3:TrackPointExtension>
            <ns3:atemp>19.0</ns3:atemp>
          </ns3:TrackPointExtension>
        </extensions>
      </trkpt>
      <trkpt lat="51.89125687815249" lon="0.47476197592914104">
        <ele>81.4000015258789</ele>
        <time>2024-09-07T09:30:24Z</time>
        <extensions>
          <ns3:TrackPointExtension>
            <ns3:atemp>19.0</ns3:atemp>
          </ns3:TrackPointExtension>
        </extensions>
      </trkpt>
      <trkpt lat="51.89023763872683" lon="0.4742018971592188">
        <ele>81.0</ele>
        <time>2024-09-07T09:30:39Z</time>
        <extensions>
          <ns3:TrackPointExtension>
            <ns3:atemp>19.0</ns3:atemp>
          </ns3:TrackPointExtension>
        </extensions>
      </trkpt>
      <trkpt lat="51.8890321534127" lon="0.47248310409486294">
        <ele>79.80000305175781</ele>
        <time>2024-09-07T09:31:00Z</time>
        <extensions>
          <ns3:TrackPointExtension>
            <ns3:atemp>19.0</ns3:atemp>
          </ns3:TrackPointExtension>
        </extensions>
      </trkpt>
      <trkpt lat="51.8880080524832" lon="0.47180794179439545">
        <ele>79.0</ele>
        <time>2024-09-07T09:31:13Z</time>
        <extensions>
          <ns3:TrackPointExtension>
            <ns3:atemp>19.0</ns3:atemp>
          </ns3:TrackPointExtension>
        </extensions>
      </trkpt>
      <trkpt lat="51.88647751696408" lon="0.46812484972178936">
        <ele>78.5999984741211</ele>
        <time>2024-09-07T09:31:49Z</time>
        <extensions>
          <ns3:TrackPointExtension>
            <ns3:atemp>19.0</ns3:atemp>
          </ns3:TrackPointExtension>
        </extensions>
      </trkpt>
      <trkpt lat="51.88595976680517" lon="0.46754314564168453">
        <ele>77.80000305175781</ele>
        <time>2024-09-07T09:31:57Z</time>
        <extensions>
          <ns3:TrackPointExtension>
            <ns3:atemp>19.0</ns3:atemp>
          </ns3:TrackPointExtension>
        </extensions>
      </trkpt>
      <trkpt lat="51.88540278933942" lon="0.46763903461396694">
        <ele>77.0</ele>
        <time>2024-09-07T09:32:04Z</time>
        <extensions>
          <ns3:TrackPointExtension>
            <ns3:atemp>20.0</ns3:atemp>
          </ns3:TrackPointExtension>
        </extensions>
      </trkpt>
      <trkpt lat="51.88331846147776" lon="0.4692087974399328">
        <ele>78.19999694824219</ele>
        <time>2024-09-07T09:32:37Z</time>
        <extensions>
          <ns3:TrackPointExtension>
            <ns3:atemp>20.0</ns3:atemp>
          </ns3:TrackPointExtension>
        </extensions>
      </trkpt>
      <trkpt lat="51.881517274305224" lon="0.4717135615646839">
        <ele>76.5999984741211</ele>
        <time>2024-09-07T09:33:13Z</time>
        <extensions>
          <ns3:TrackPointExtension>
            <ns3:atemp>20.0</ns3:atemp>
          </ns3:TrackPointExtension>
        </extensions>
      </trkpt>
      <trkpt lat="51.879406878724694" lon="0.47275652177631855">
        <ele>74.5999984741211</ele>
        <time>2024-09-07T09:33:42Z</time>
        <extensions>
          <ns3:TrackPointExtension>
            <ns3:atemp>20.0</ns3:atemp>
          </ns3:TrackPointExtension>
        </extensions>
      </trkpt>
      <trkpt lat="51.87790056690574" lon="0.4722923319786787">
        <ele>73.0</ele>
        <time>2024-09-07T09:34:04Z</time>
        <extensions>
          <ns3:TrackPointExtension>
            <ns3:atemp>20.0</ns3:atemp>
          </ns3:TrackPointExtension>
        </extensions>
      </trkpt>
      <trkpt lat="51.87568472698331" lon="0.4780866578221321">
        <ele>73.4000015258789</ele>
        <time>2024-09-07T09:35:03Z</time>
        <extensions>
          <ns3:TrackPointExtension>
            <ns3:atemp>20.0</ns3:atemp>
          </ns3:TrackPointExtension>
        </extensions>
      </trkpt>
      <trkpt lat="51.87489724718034" lon="0.48212388530373573">
        <ele>72.5999984741211</ele>
        <time>2024-09-07T09:35:38Z</time>
        <extensions>
          <ns3:TrackPointExtension>
            <ns3:atemp>20.0</ns3:atemp>
          </ns3:TrackPointExtension>
        </extensions>
      </trkpt>
      <trkpt lat="51.87358531169593" lon="0.48700458370149136">
        <ele>72.80000305175781</ele>
        <time>2024-09-07T09:36:24Z</time>
        <extensions>
          <ns3:TrackPointExtension>
            <ns3:atemp>20.0</ns3:atemp>
          </ns3:TrackPointExtension>
        </extensions>
      </trkpt>
      <trkpt lat="51.87379150651395" lon="0.4879561811685562">
        <ele>72.5999984741211</ele>
        <time>2024-09-07T09:36:34Z</time>
        <extensions>
          <ns3:TrackPointExtension>
            <ns3:atemp>20.0</ns3:atemp>
          </ns3:TrackPointExtension>
        </extensions>
      </trkpt>
      <trkpt lat="51.87385495752096" lon="0.49243664368987083">
        <ele>75.0</ele>
        <time>2024-09-07T09:37:20Z</time>
        <extensions>
          <ns3:TrackPointExtension>
            <ns3:atemp>20.0</ns3:atemp>
          </ns3:TrackPointExtension>
        </extensions>
      </trkpt>
      <trkpt lat="51.874179588630795" lon="0.49743217416107655">
        <ele>79.0</ele>
        <time>2024-09-07T09:38:16Z</time>
        <extensions>
          <ns3:TrackPointExtension>
            <ns3:atemp>20.0</ns3:atemp>
          </ns3:TrackPointExtension>
        </extensions>
      </trkpt>
      <trkpt lat="51.875744657590985" lon="0.5122601799666882">
        <ele>74.19999694824219</ele>
        <time>2024-09-07T09:40:41Z</time>
        <extensions>
          <ns3:TrackPointExtension>
            <ns3:atemp>21.0</ns3:atemp>
          </ns3:TrackPointExtension>
        </extensions>
      </trkpt>
      <trkpt lat="51.87640590593219" lon="0.5158874485641718">
        <ele>68.5999984741211</ele>
        <time>2024-09-07T09:43:02Z</time>
        <extensions>
          <ns3:TrackPointExtension>
            <ns3:atemp>22.0</ns3:atemp>
          </ns3:TrackPointExtension>
        </extensions>
      </trkpt>
      <trkpt lat="51.87641981989145" lon="0.517376996576786">
        <ele>66.0</ele>
        <time>2024-09-07T09:43:12Z</time>
        <extensions>
          <ns3:TrackPointExtension>
            <ns3:atemp>22.0</ns3:atemp>
          </ns3:TrackPointExtension>
        </extensions>
      </trkpt>
      <trkpt lat="51.87731827609241" lon="0.5277418904006481">
        <ele>52.79999923706055</ele>
        <time>2024-09-07T09:44:25Z</time>
        <extensions>
          <ns3:TrackPointExtension>
            <ns3:atemp>22.0</ns3:atemp>
          </ns3:TrackPointExtension>
        </extensions>
      </trkpt>
      <trkpt lat="51.87810139730573" lon="0.5343099497258663">
        <ele>66.5999984741211</ele>
        <time>2024-09-07T09:45:51Z</time>
        <extensions>
          <ns3:TrackPointExtension>
            <ns3:atemp>22.0</ns3:atemp>
          </ns3:TrackPointExtension>
        </extensions>
      </trkpt>
      <trkpt lat="51.878339191898704" lon="0.5348992813378572">
        <ele>68.5999984741211</ele>
        <time>2024-09-07T09:46:14Z</time>
        <extensions>
          <ns3:TrackPointExtension>
            <ns3:atemp>22.0</ns3:atemp>
          </ns3:TrackPointExtension>
        </extensions>
      </trkpt>
      <trkpt lat="51.87829745002091" lon="0.5358019284904003">
        <ele>70.0</ele>
        <time>2024-09-07T09:46:27Z</time>
        <extensions>
          <ns3:TrackPointExtension>
            <ns3:atemp>22.0</ns3:atemp>
          </ns3:TrackPointExtension>
        </extensions>
      </trkpt>
      <trkpt lat="51.87878695316613" lon="0.5400277487933636">
        <ele>73.4000015258789</ele>
        <time>2024-09-07T09:47:37Z</time>
        <extensions>
          <ns3:TrackPointExtension>
            <ns3:atemp>22.0</ns3:atemp>
          </ns3:TrackPointExtension>
        </extensions>
      </trkpt>
      <trkpt lat="51.879152404144406" lon="0.548027353361249">
        <ele>72.80000305175781</ele>
        <time>2024-09-07T09:49:25Z</time>
        <extensions>
          <ns3:TrackPointExtension>
            <ns3:atemp>22.0</ns3:atemp>
          </ns3:TrackPointExtension>
        </extensions>
      </trkpt>
      <trkpt lat="51.8799280654639" lon="0.5507954768836498">
        <ele>73.4000015258789</ele>
        <time>2024-09-07T09:49:54Z</time>
        <extensions>
          <ns3:TrackPointExtension>
            <ns3:atemp>22.0</ns3:atemp>
          </ns3:TrackPointExtension>
        </extensions>
      </trkpt>
    </trkseg>
  </trk>
</gpx>