<?xml version="1.0" encoding="UTF-8"?>
<gpx version="1.1" creator="charalambous.uk" xmlns="http://www.topografix.com/GPX/1/1">
<trk><name>Braintree Road Cycling</name><trkseg>
<trkpt lat="51.876377" lon="0.517533"><ele>62.2</ele></trkpt>
<trkpt lat="51.876350" lon="0.515844"><ele>65.6</ele></trkpt>
<trkpt lat="51.875907" lon="0.513633"><ele>69.2</ele></trkpt>
<trkpt lat="51.877500" lon="0.513408"><ele>67.8</ele></trkpt>
<trkpt lat="51.878350" lon="0.511538"><ele>68.0</ele></trkpt>
<trkpt lat="51.879252" lon="0.507222"><ele>72.6</ele></trkpt>
<trkpt lat="51.880054" lon="0.504804"><ele>75.2</ele></trkpt>
<trkpt lat="51.880084" lon="0.503933"><ele>75.8</ele></trkpt>
<trkpt lat="51.879843" lon="0.501835"><ele>77.8</ele></trkpt>
<trkpt lat="51.879936" lon="0.500396"><ele>78.2</ele></trkpt>
<trkpt lat="51.880857" lon="0.497918"><ele>77.6</ele></trkpt>
<trkpt lat="51.881566" lon="0.496869"><ele>77.8</ele></trkpt>
<trkpt lat="51.883936" lon="0.495221"><ele>76.2</ele></trkpt>
<trkpt lat="51.884880" lon="0.495748"><ele>74.4</ele></trkpt>
<trkpt lat="51.886017" lon="0.495280"><ele>71.2</ele></trkpt>
<trkpt lat="51.888023" lon="0.498499"><ele>65.8</ele></trkpt>
<trkpt lat="51.888711" lon="0.499248"><ele>66.0</ele></trkpt>
<trkpt lat="51.889088" lon="0.499273"><ele>66.2</ele></trkpt>
<trkpt lat="51.890295" lon="0.497966"><ele>63.4</ele></trkpt>
<trkpt lat="51.892396" lon="0.496236"><ele>69.4</ele></trkpt>
<trkpt lat="51.893987" lon="0.493643"><ele>72.8</ele></trkpt>
<trkpt lat="51.895802" lon="0.492136"><ele>74.8</ele></trkpt>
<trkpt lat="51.898772" lon="0.490132"><ele>74.0</ele></trkpt>
<trkpt lat="51.900489" lon="0.489900"><ele>71.2</ele></trkpt>
<trkpt lat="51.902115" lon="0.488989"><ele>66.2</ele></trkpt>
<trkpt lat="51.903196" lon="0.488869"><ele>71.4</ele></trkpt>
<trkpt lat="51.904236" lon="0.488209"><ele>73.2</ele></trkpt>
<trkpt lat="51.905013" lon="0.487433"><ele>76.2</ele></trkpt>
<trkpt lat="51.905742" lon="0.487109"><ele>78.2</ele></trkpt>
<trkpt lat="51.906594" lon="0.485824"><ele>78.6</ele></trkpt>
<trkpt lat="51.906746" lon="0.484198"><ele>80.2</ele></trkpt>
<trkpt lat="51.907852" lon="0.481853"><ele>82.2</ele></trkpt>
<trkpt lat="51.909108" lon="0.480608"><ele>80.4</ele></trkpt>
<trkpt lat="51.910791" lon="0.482111"><ele>76.6</ele></trkpt>
<trkpt lat="51.912418" lon="0.482706"><ele>69.0</ele></trkpt>
<trkpt lat="51.913500" lon="0.483373"><ele>65.2</ele></trkpt>
<trkpt lat="51.915364" lon="0.485934"><ele>75.8</ele></trkpt>
<trkpt lat="51.916369" lon="0.486568"><ele>75.4</ele></trkpt>
<trkpt lat="51.917696" lon="0.487873"><ele>76.8</ele></trkpt>
<trkpt lat="51.920383" lon="0.492466"><ele>80.8</ele></trkpt>
<trkpt lat="51.920894" lon="0.494073"><ele>84.2</ele></trkpt>
<trkpt lat="51.920622" lon="0.496228"><ele>86.6</ele></trkpt>
<trkpt lat="51.921005" lon="0.497945"><ele>86.6</ele></trkpt>
<trkpt lat="51.922147" lon="0.500521"><ele>84.4</ele></trkpt>
<trkpt lat="51.923197" lon="0.501572"><ele>81.8</ele></trkpt>
<trkpt lat="51.923797" lon="0.503374"><ele>78.8</ele></trkpt>
<trkpt lat="51.924951" lon="0.505349"><ele>76.8</ele></trkpt>
<trkpt lat="51.925512" lon="0.505960"><ele>77.4</ele></trkpt>
<trkpt lat="51.925640" lon="0.506477"><ele>77.4</ele></trkpt>
<trkpt lat="51.925357" lon="0.508864"><ele>76.0</ele></trkpt>
<trkpt lat="51.924489" lon="0.509594"><ele>76.4</ele></trkpt>
<trkpt lat="51.924499" lon="0.510849"><ele>74.6</ele></trkpt>
<trkpt lat="51.923990" lon="0.513902"><ele>66.0</ele></trkpt>
<trkpt lat="51.924048" lon="0.518719"><ele>51.6</ele></trkpt>
<trkpt lat="51.923635" lon="0.519056"><ele>50.6</ele></trkpt>
<trkpt lat="51.920358" lon="0.519030"><ele>61.4</ele></trkpt>
<trkpt lat="51.919612" lon="0.519335"><ele>59.6</ele></trkpt>
<trkpt lat="51.919073" lon="0.518907"><ele>56.8</ele></trkpt>
<trkpt lat="51.917921" lon="0.519367"><ele>61.6</ele></trkpt>
<trkpt lat="51.917118" lon="0.519408"><ele>64.4</ele></trkpt>
<trkpt lat="51.916189" lon="0.520060"><ele>65.8</ele></trkpt>
<trkpt lat="51.915167" lon="0.519749"><ele>68.2</ele></trkpt>
<trkpt lat="51.914615" lon="0.519837"><ele>69.6</ele></trkpt>
<trkpt lat="51.913960" lon="0.520606"><ele>68.6</ele></trkpt>
<trkpt lat="51.913317" lon="0.522442"><ele>65.2</ele></trkpt>
<trkpt lat="51.912129" lon="0.523296"><ele>62.0</ele></trkpt>
<trkpt lat="51.910943" lon="0.525916"><ele>50.8</ele></trkpt>
<trkpt lat="51.909406" lon="0.526624"><ele>51.0</ele></trkpt>
<trkpt lat="51.907862" lon="0.527769"><ele>50.0</ele></trkpt>
<trkpt lat="51.905626" lon="0.528264"><ele>59.4</ele></trkpt>
<trkpt lat="51.903066" lon="0.531353"><ele>61.6</ele></trkpt>
<trkpt lat="51.902087" lon="0.533185"><ele>56.2</ele></trkpt>
<trkpt lat="51.901894" lon="0.533977"><ele>56.0</ele></trkpt>
<trkpt lat="51.902159" lon="0.536286"><ele>58.2</ele></trkpt>
<trkpt lat="51.901962" lon="0.537495"><ele>55.6</ele></trkpt>
<trkpt lat="51.900337" lon="0.540177"><ele>55.6</ele></trkpt>
</trkseg></trk>
</gpx>