<?xml version="1.0" encoding="UTF-8"?>
<gpx version="1.1" creator="charalambous.uk" xmlns="http://www.topografix.com/GPX/1/1">
<trk><name>Braintree Road Cycling</name><trkseg>
<trkpt lat="51.902335" lon="0.550983"><ele>44.6</ele></trkpt>
<trkpt lat="51.902752" lon="0.548093"><ele>44.2</ele></trkpt>
<trkpt lat="51.903646" lon="0.543973"><ele>48.6</ele></trkpt>
<trkpt lat="51.905052" lon="0.541914"><ele>48.8</ele></trkpt>
<trkpt lat="51.906788" lon="0.538769"><ele>46.4</ele></trkpt>
<trkpt lat="51.908109" lon="0.537700"><ele>49.0</ele></trkpt>
<trkpt lat="51.908590" lon="0.537557"><ele>50.4</ele></trkpt>
<trkpt lat="51.910519" lon="0.539623"><ele>63.2</ele></trkpt>
<trkpt lat="51.911141" lon="0.539844"><ele>66.6</ele></trkpt>
<trkpt lat="51.912723" lon="0.538288"><ele>68.8</ele></trkpt>
<trkpt lat="51.914375" lon="0.537362"><ele>72.2</ele></trkpt>
<trkpt lat="51.914964" lon="0.537732"><ele>73.8</ele></trkpt>
<trkpt lat="51.915948" lon="0.538857"><ele>76.8</ele></trkpt>
<trkpt lat="51.917188" lon="0.538973"><ele>78.0</ele></trkpt>
<trkpt lat="51.918245" lon="0.538756"><ele>77.2</ele></trkpt>
<trkpt lat="51.920080" lon="0.537706"><ele>73.6</ele></trkpt>
<trkpt lat="51.923807" lon="0.536304"><ele>74.4</ele></trkpt>
<trkpt lat="51.924660" lon="0.535495"><ele>74.4</ele></trkpt>
<trkpt lat="51.926353" lon="0.532894"><ele>81.6</ele></trkpt>
<trkpt lat="51.927194" lon="0.532564"><ele>84.0</ele></trkpt>
<trkpt lat="51.927493" lon="0.531632"><ele>81.2</ele></trkpt>
<trkpt lat="51.928714" lon="0.532607"><ele>75.2</ele></trkpt>
<trkpt lat="51.930576" lon="0.533307"><ele>83.0</ele></trkpt>
<trkpt lat="51.934120" lon="0.532819"><ele>89.0</ele></trkpt>
<trkpt lat="51.937080" lon="0.531290"><ele>85.8</ele></trkpt>
<trkpt lat="51.937243" lon="0.531511"><ele>85.0</ele></trkpt>
<trkpt lat="51.937373" lon="0.533215"><ele>84.2</ele></trkpt>
<trkpt lat="51.937740" lon="0.534271"><ele>84.2</ele></trkpt>
<trkpt lat="51.938997" lon="0.535949"><ele>80.6</ele></trkpt>
<trkpt lat="51.939516" lon="0.536132"><ele>79.2</ele></trkpt>
<trkpt lat="51.941243" lon="0.535594"><ele>76.0</ele></trkpt>
<trkpt lat="51.942648" lon="0.533927"><ele>77.0</ele></trkpt>
<trkpt lat="51.943814" lon="0.534252"><ele>77.6</ele></trkpt>
<trkpt lat="51.945343" lon="0.533501"><ele>80.2</ele></trkpt>
<trkpt lat="51.947340" lon="0.530804"><ele>82.0</ele></trkpt>
<trkpt lat="51.948073" lon="0.530267"><ele>81.4</ele></trkpt>
<trkpt lat="51.948347" lon="0.530665"><ele>80.6</ele></trkpt>
<trkpt lat="51.948566" lon="0.531654"><ele>80.2</ele></trkpt>
<trkpt lat="51.949574" lon="0.537590"><ele>74.2</ele></trkpt>
<trkpt lat="51.949865" lon="0.537704"><ele>74.4</ele></trkpt>
<trkpt lat="51.950735" lon="0.537368"><ele>78.8</ele></trkpt>
<trkpt lat="51.951929" lon="0.537718"><ele>77.2</ele></trkpt>
<trkpt lat="51.953564" lon="0.540338"><ele>83.8</ele></trkpt>
<trkpt lat="51.953823" lon="0.541223"><ele>83.2</ele></trkpt>
<trkpt lat="51.954116" lon="0.541648"><ele>82.2</ele></trkpt>
<trkpt lat="51.955362" lon="0.542932"><ele>86.4</ele></trkpt>
<trkpt lat="51.959111" lon="0.545569"><ele>90.4</ele></trkpt>
<trkpt lat="51.960848" lon="0.544610"><ele>95.0</ele></trkpt>
<trkpt lat="51.962428" lon="0.544737"><ele>95.0</ele></trkpt>
<trkpt lat="51.963157" lon="0.545141"><ele>94.8</ele></trkpt>
<trkpt lat="51.964296" lon="0.544980"><ele>95.6</ele></trkpt>
<trkpt lat="51.966850" lon="0.542992"><ele>96.2</ele></trkpt>
<trkpt lat="51.967856" lon="0.541752"><ele>96.6</ele></trkpt>
<trkpt lat="51.968845" lon="0.541613"><ele>97.6</ele></trkpt>
<trkpt lat="51.970081" lon="0.541855"><ele>97.8</ele></trkpt>
<trkpt lat="51.972345" lon="0.540061"><ele>94.6</ele></trkpt>
<trkpt lat="51.975059" lon="0.540160"><ele>86.6</ele></trkpt>
<trkpt lat="51.976255" lon="0.539634"><ele>84.4</ele></trkpt>
<trkpt lat="51.978910" lon="0.539386"><ele>79.8</ele></trkpt>
<trkpt lat="51.979545" lon="0.539006"><ele>78.0</ele></trkpt>
<trkpt lat="51.980646" lon="0.537860"><ele>75.6</ele></trkpt>
<trkpt lat="51.982196" lon="0.537071"><ele>75.4</ele></trkpt>
<trkpt lat="51.984721" lon="0.537411"><ele>72.8</ele></trkpt>
<trkpt lat="51.985967" lon="0.540640"><ele>67.0</ele></trkpt>
<trkpt lat="51.987532" lon="0.542115"><ele>67.4</ele></trkpt>
<trkpt lat="51.988474" lon="0.543413"><ele>73.4</ele></trkpt>
<trkpt lat="51.989189" lon="0.543778"><ele>73.2</ele></trkpt>
<trkpt lat="51.989932" lon="0.544602"><ele>73.0</ele></trkpt>
<trkpt lat="51.990501" lon="0.543882"><ele>70.6</ele></trkpt>
<trkpt lat="51.991129" lon="0.542434"><ele>60.0</ele></trkpt>
<trkpt lat="51.991644" lon="0.541982"><ele>62.8</ele></trkpt>
<trkpt lat="51.991734" lon="0.540426"><ele>69.6</ele></trkpt>
<trkpt lat="51.991071" lon="0.537812"><ele>73.4</ele></trkpt>
<trkpt lat="51.990972" lon="0.536699"><ele>75.4</ele></trkpt>
<trkpt lat="51.992377" lon="0.535653"><ele>76.2</ele></trkpt>
<trkpt lat="51.993549" lon="0.535818"><ele>71.8</ele></trkpt>
<trkpt lat="51.994177" lon="0.535480"><ele>69.6</ele></trkpt>
<trkpt lat="51.994946" lon="0.535761"><ele>68.8</ele></trkpt>
<trkpt lat="51.995387" lon="0.535597"><ele>68.6</ele></trkpt>
<trkpt lat="51.995552" lon="0.535232"><ele>68.2</ele></trkpt>
<trkpt lat="51.995910" lon="0.531462"><ele>71.4</ele></trkpt>
<trkpt lat="51.996416" lon="0.530266"><ele>69.8</ele></trkpt>
<trkpt lat="51.996899" lon="0.529931"><ele>69.8</ele></trkpt>
<trkpt lat="51.997676" lon="0.529853"><ele>74.2</ele></trkpt>
<trkpt lat="51.998749" lon="0.530266"><ele>68.8</ele></trkpt>
<trkpt lat="51.999096" lon="0.529378"><ele>62.8</ele></trkpt>
<trkpt lat="51.999509" lon="0.529056"><ele>61.0</ele></trkpt>
<trkpt lat="51.999565" lon="0.528469"><ele>59.6</ele></trkpt>
<trkpt lat="52.000254" lon="0.527189"><ele>60.2</ele></trkpt>
<trkpt lat="52.001605" lon="0.526543"><ele>64.8</ele></trkpt>
<trkpt lat="52.001880" lon="0.527007"><ele>66.2</ele></trkpt>
<trkpt lat="52.002227" lon="0.529250"><ele>74.8</ele></trkpt>
<trkpt lat="52.002732" lon="0.529973"><ele>77.6</ele></trkpt>
<trkpt lat="52.003968" lon="0.530743"><ele>81.2</ele></trkpt>
<trkpt lat="52.006912" lon="0.531811"><ele>86.8</ele></trkpt>
<trkpt lat="52.007701" lon="0.531779"><ele>87.0</ele></trkpt>
<trkpt lat="52.008099" lon="0.531509"><ele>87.0</ele></trkpt>
<trkpt lat="52.008243" lon="0.530894"><ele>86.8</ele></trkpt>
<trkpt lat="52.008506" lon="0.530608"><ele>86.6</ele></trkpt>
<trkpt lat="52.009996" lon="0.529792"><ele>82.6</ele></trkpt>
<trkpt lat="52.011260" lon="0.527937"><ele>77.6</ele></trkpt>
<trkpt lat="52.014004" lon="0.525595"><ele>77.4</ele></trkpt>
<trkpt lat="52.014510" lon="0.525420"><ele>78.6</ele></trkpt>
<trkpt lat="52.014911" lon="0.525587"><ele>79.8</ele></trkpt>
<trkpt lat="52.015780" lon="0.527240"><ele>80.8</ele></trkpt>
<trkpt lat="52.016094" lon="0.527370"><ele>81.2</ele></trkpt>
<trkpt lat="52.017371" lon="0.525837"><ele>83.4</ele></trkpt>
<trkpt lat="52.017470" lon="0.525191"><ele>83.2</ele></trkpt>
<trkpt lat="52.017362" lon="0.524333"><ele>83.4</ele></trkpt>
<trkpt lat="52.017513" lon="0.523978"><ele>83.4</ele></trkpt>
<trkpt lat="52.018320" lon="0.523357"><ele>80.0</ele></trkpt>
<trkpt lat="52.019358" lon="0.523065"><ele>76.0</ele></trkpt>
<trkpt lat="52.020300" lon="0.523115"><ele>72.6</ele></trkpt>
<trkpt lat="52.020625" lon="0.522903"><ele>71.0</ele></trkpt>
<trkpt lat="52.020084" lon="0.520826"><ele>74.6</ele></trkpt>
<trkpt lat="52.020180" lon="0.519922"><ele>77.0</ele></trkpt>
<trkpt lat="52.020062" lon="0.518509"><ele>78.8</ele></trkpt>
<trkpt lat="52.020465" lon="0.515218"><ele>82.8</ele></trkpt>
<trkpt lat="52.019258" lon="0.511455"><ele>77.6</ele></trkpt>
<trkpt lat="52.019206" lon="0.510663"><ele>77.6</ele></trkpt>
<trkpt lat="52.019371" lon="0.509874"><ele>76.6</ele></trkpt>
<trkpt lat="52.018652" lon="0.508853"><ele>76.4</ele></trkpt>
<trkpt lat="52.017075" lon="0.505526"><ele>80.6</ele></trkpt>
<trkpt lat="52.014051" lon="0.500652"><ele>90.4</ele></trkpt>
<trkpt lat="52.012540" lon="0.498355"><ele>97.0</ele></trkpt>
<trkpt lat="52.010753" lon="0.496838"><ele>97.6</ele></trkpt>
<trkpt lat="52.009325" lon="0.494266"><ele>97.8</ele></trkpt>
<trkpt lat="52.006688" lon="0.492676"><ele>93.2</ele></trkpt>
<trkpt lat="52.004964" lon="0.490105"><ele>90.2</ele></trkpt>
<trkpt lat="52.003240" lon="0.488504"><ele>88.6</ele></trkpt>
<trkpt lat="52.002417" lon="0.488191"><ele>85.6</ele></trkpt>
<trkpt lat="52.001086" lon="0.487022"><ele>89.0</ele></trkpt>
<trkpt lat="51.999840" lon="0.487297"><ele>91.0</ele></trkpt>
<trkpt lat="51.999438" lon="0.487191"><ele>91.0</ele></trkpt>
<trkpt lat="51.995954" lon="0.484873"><ele>84.6</ele></trkpt>
<trkpt lat="51.993656" lon="0.482359"><ele>77.2</ele></trkpt>
<trkpt lat="51.991609" lon="0.480628"><ele>87.0</ele></trkpt>
<trkpt lat="51.990237" lon="0.479766"><ele>93.0</ele></trkpt>
<trkpt lat="51.988795" lon="0.477306"><ele>95.2</ele></trkpt>
<trkpt lat="51.985076" lon="0.474837"><ele>92.6</ele></trkpt>
<trkpt lat="51.983869" lon="0.472669"><ele>91.2</ele></trkpt>
<trkpt lat="51.982910" lon="0.467686"><ele>88.0</ele></trkpt>
<trkpt lat="51.981846" lon="0.465681"><ele>85.4</ele></trkpt>
<trkpt lat="51.979177" lon="0.462524"><ele>78.2</ele></trkpt>
<trkpt lat="51.977217" lon="0.461477"><ele>85.2</ele></trkpt>
<trkpt lat="51.973574" lon="0.455974"><ele>81.4</ele></trkpt>
<trkpt lat="51.972001" lon="0.454320"><ele>73.2</ele></trkpt>
<trkpt lat="51.970560" lon="0.453152"><ele>67.4</ele></trkpt>
<trkpt lat="51.969650" lon="0.451629"><ele>67.4</ele></trkpt>
<trkpt lat="51.968664" lon="0.451377"><ele>67.2</ele></trkpt>
<trkpt lat="51.968307" lon="0.450431"><ele>65.6</ele></trkpt>
<trkpt lat="51.967576" lon="0.450013"><ele>65.6</ele></trkpt>
<trkpt lat="51.966433" lon="0.450833"><ele>69.0</ele></trkpt>
<trkpt lat="51.965537" lon="0.450829"><ele>70.0</ele></trkpt>
<trkpt lat="51.963464" lon="0.450025"><ele>69.6</ele></trkpt>
<trkpt lat="51.961587" lon="0.448618"><ele>67.2</ele></trkpt>
<trkpt lat="51.960343" lon="0.446883"><ele>68.0</ele></trkpt>
<trkpt lat="51.959472" lon="0.444988"><ele>68.8</ele></trkpt>
<trkpt lat="51.957646" lon="0.442389"><ele>72.4</ele></trkpt>
<trkpt lat="51.955231" lon="0.440067"><ele>70.2</ele></trkpt>
<trkpt lat="51.953796" lon="0.439096"><ele>61.8</ele></trkpt>
<trkpt lat="51.953048" lon="0.437359"><ele>61.0</ele></trkpt>
<trkpt lat="51.952370" lon="0.436652"><ele>61.4</ele></trkpt>
<trkpt lat="51.951902" lon="0.436471"><ele>61.4</ele></trkpt>
<trkpt lat="51.948596" lon="0.437599"><ele>68.8</ele></trkpt>
<trkpt lat="51.948612" lon="0.437200"><ele>69.4</ele></trkpt>
<trkpt lat="51.947663" lon="0.435665"><ele>75.8</ele></trkpt>
<trkpt lat="51.946606" lon="0.434532"><ele>81.2</ele></trkpt>
<trkpt lat="51.945176" lon="0.432328"><ele>79.6</ele></trkpt>
<trkpt lat="51.943520" lon="0.428368"><ele>82.2</ele></trkpt>
<trkpt lat="51.940994" lon="0.424129"><ele>91.4</ele></trkpt>
<trkpt lat="51.939767" lon="0.421530"><ele>91.6</ele></trkpt>
<trkpt lat="51.938802" lon="0.420907"><ele>89.6</ele></trkpt>
<trkpt lat="51.936976" lon="0.418715"><ele>96.6</ele></trkpt>
<trkpt lat="51.936034" lon="0.418131"><ele>99.4</ele></trkpt>
<trkpt lat="51.935173" lon="0.416446"><ele>100.4</ele></trkpt>
<trkpt lat="51.934010" lon="0.415531"><ele>100.8</ele></trkpt>
<trkpt lat="51.932520" lon="0.415048"><ele>99.4</ele></trkpt>
<trkpt lat="51.930398" lon="0.415385"><ele>94.6</ele></trkpt>
<trkpt lat="51.928975" lon="0.415214"><ele>95.2</ele></trkpt>
<trkpt lat="51.927935" lon="0.414451"><ele>95.0</ele></trkpt>
<trkpt lat="51.926697" lon="0.412772"><ele>92.8</ele></trkpt>
<trkpt lat="51.924943" lon="0.412003"><ele>90.4</ele></trkpt>
<trkpt lat="51.924463" lon="0.411281"><ele>88.6</ele></trkpt>
<trkpt lat="51.923176" lon="0.411482"><ele>86.6</ele></trkpt>
<trkpt lat="51.922847" lon="0.410887"><ele>86.0</ele></trkpt>
<trkpt lat="51.922617" lon="0.409872"><ele>85.2</ele></trkpt>
<trkpt lat="51.922518" lon="0.406378"><ele>84.4</ele></trkpt>
<trkpt lat="51.922309" lon="0.404451"><ele>83.8</ele></trkpt>
<trkpt lat="51.920909" lon="0.400155"><ele>83.4</ele></trkpt>
<trkpt lat="51.920428" lon="0.399805"><ele>83.2</ele></trkpt>
<trkpt lat="51.918232" lon="0.399624"><ele>83.6</ele></trkpt>
<trkpt lat="51.915694" lon="0.398266"><ele>82.2</ele></trkpt>
<trkpt lat="51.915088" lon="0.398605"><ele>79.2</ele></trkpt>
<trkpt lat="51.914754" lon="0.399136"><ele>77.6</ele></trkpt>
<trkpt lat="51.913858" lon="0.402741"><ele>78.2</ele></trkpt>
<trkpt lat="51.913019" lon="0.402733"><ele>78.8</ele></trkpt>
<trkpt lat="51.911816" lon="0.403403"><ele>77.0</ele></trkpt>
<trkpt lat="51.911600" lon="0.403774"><ele>77.2</ele></trkpt>
<trkpt lat="51.911544" lon="0.404609"><ele>77.0</ele></trkpt>
<trkpt lat="51.911356" lon="0.405014"><ele>77.0</ele></trkpt>
<trkpt lat="51.910151" lon="0.406274"><ele>82.8</ele></trkpt>
<trkpt lat="51.909391" lon="0.406772"><ele>83.2</ele></trkpt>
<trkpt lat="51.906766" lon="0.405688"><ele>79.2</ele></trkpt>
<trkpt lat="51.905050" lon="0.405835"><ele>80.0</ele></trkpt>
<trkpt lat="51.904509" lon="0.405669"><ele>81.6</ele></trkpt>
<trkpt lat="51.901810" lon="0.403138"><ele>79.2</ele></trkpt>
<trkpt lat="51.900829" lon="0.404352"><ele>79.6</ele></trkpt>
<trkpt lat="51.900341" lon="0.405814"><ele>78.2</ele></trkpt>
<trkpt lat="51.899413" lon="0.406211"><ele>74.2</ele></trkpt>
<trkpt lat="51.898052" lon="0.408746"><ele>70.8</ele></trkpt>
<trkpt lat="51.894819" lon="0.409379"><ele>77.8</ele></trkpt>
<trkpt lat="51.893857" lon="0.410978"><ele>77.8</ele></trkpt>
<trkpt lat="51.891819" lon="0.413549"><ele>77.0</ele></trkpt>
<trkpt lat="51.889427" lon="0.415834"><ele>73.2</ele></trkpt>
<trkpt lat="51.889569" lon="0.417082"><ele>77.8</ele></trkpt>
<trkpt lat="51.889977" lon="0.417611"><ele>78.6</ele></trkpt>
<trkpt lat="51.890223" lon="0.418460"><ele>77.4</ele></trkpt>
<trkpt lat="51.890458" lon="0.420370"><ele>80.6</ele></trkpt>
<trkpt lat="51.890853" lon="0.422124"><ele>83.2</ele></trkpt>
<trkpt lat="51.890377" lon="0.422976"><ele>84.6</ele></trkpt>
<trkpt lat="51.887304" lon="0.425890"><ele>87.4</ele></trkpt>
<trkpt lat="51.887355" lon="0.428147"><ele>87.4</ele></trkpt>
<trkpt lat="51.887048" lon="0.430915"><ele>86.2</ele></trkpt>
<trkpt lat="51.887542" lon="0.434579"><ele>84.4</ele></trkpt>
<trkpt lat="51.887473" lon="0.435780"><ele>83.4</ele></trkpt>
<trkpt lat="51.885396" lon="0.440752"><ele>80.8</ele></trkpt>
<trkpt lat="51.881217" lon="0.447842"><ele>79.0</ele></trkpt>
<trkpt lat="51.880683" lon="0.449375"><ele>77.6</ele></trkpt>
<trkpt lat="51.880223" lon="0.452734"><ele>77.4</ele></trkpt>
<trkpt lat="51.879715" lon="0.453727"><ele>78.2</ele></trkpt>
<trkpt lat="51.879930" lon="0.455591"><ele>78.2</ele></trkpt>
<trkpt lat="51.879901" lon="0.457054"><ele>77.4</ele></trkpt>
<trkpt lat="51.878611" lon="0.468377"><ele>73.6</ele></trkpt>
<trkpt lat="51.878013" lon="0.471709"><ele>73.6</ele></trkpt>
<trkpt lat="51.875687" lon="0.478128"><ele>73.2</ele></trkpt>
<trkpt lat="51.875000" lon="0.481717"><ele>72.6</ele></trkpt>
<trkpt lat="51.873575" lon="0.486998"><ele>72.6</ele></trkpt>
<trkpt lat="51.873792" lon="0.488002"><ele>72.4</ele></trkpt>
<trkpt lat="51.873819" lon="0.491849"><ele>74.6</ele></trkpt>
<trkpt lat="51.874121" lon="0.496877"><ele>78.4</ele></trkpt>
<trkpt lat="51.875688" lon="0.511941"><ele>75.4</ele></trkpt>
<trkpt lat="51.876386" lon="0.515754"><ele>68.4</ele></trkpt>
<trkpt lat="51.876432" lon="0.517645"><ele>65.2</ele></trkpt>
</trkseg></trk>
</gpx>