<?xml version="1.0" encoding="UTF-8"?>
<gpx version="1.1" creator="charalambous.uk" xmlns="http://www.topografix.com/GPX/1/1">
<trk><name>Braintree Road Cycling</name><trkseg>
<trkpt lat="51.876380" lon="0.517542"><ele>61.6</ele></trkpt>
<trkpt lat="51.876375" lon="0.515890"><ele>65.2</ele></trkpt>
<trkpt lat="51.875946" lon="0.513694"><ele>69.0</ele></trkpt>
<trkpt lat="51.877484" lon="0.513439"><ele>66.4</ele></trkpt>
<trkpt lat="51.878354" lon="0.511584"><ele>66.6</ele></trkpt>
<trkpt lat="51.879375" lon="0.506835"><ele>72.8</ele></trkpt>
<trkpt lat="51.880044" lon="0.504943"><ele>73.6</ele></trkpt>
<trkpt lat="51.879893" lon="0.500764"><ele>76.4</ele></trkpt>
<trkpt lat="51.880095" lon="0.499868"><ele>76.4</ele></trkpt>
<trkpt lat="51.880838" lon="0.497982"><ele>76.2</ele></trkpt>
<trkpt lat="51.881509" lon="0.496940"><ele>75.8</ele></trkpt>
<trkpt lat="51.883848" lon="0.495278"><ele>74.2</ele></trkpt>
<trkpt lat="51.884225" lon="0.495246"><ele>73.6</ele></trkpt>
<trkpt lat="51.884934" lon="0.495761"><ele>72.2</ele></trkpt>
<trkpt lat="51.886002" lon="0.495289"><ele>68.4</ele></trkpt>
<trkpt lat="51.886225" lon="0.495434"><ele>67.4</ele></trkpt>
<trkpt lat="51.887840" lon="0.498235"><ele>65.0</ele></trkpt>
<trkpt lat="51.888652" lon="0.499189"><ele>65.4</ele></trkpt>
<trkpt lat="51.889104" lon="0.499285"><ele>65.4</ele></trkpt>
<trkpt lat="51.890372" lon="0.497938"><ele>63.2</ele></trkpt>
<trkpt lat="51.892420" lon="0.496248"><ele>68.6</ele></trkpt>
<trkpt lat="51.893967" lon="0.493712"><ele>72.6</ele></trkpt>
<trkpt lat="51.895746" lon="0.492206"><ele>73.4</ele></trkpt>
<trkpt lat="51.898743" lon="0.490168"><ele>73.0</ele></trkpt>
<trkpt lat="51.900507" lon="0.489904"><ele>70.8</ele></trkpt>
<trkpt lat="51.902131" lon="0.489007"><ele>65.8</ele></trkpt>
<trkpt lat="51.903238" lon="0.488874"><ele>71.2</ele></trkpt>
<trkpt lat="51.905046" lon="0.487429"><ele>77.0</ele></trkpt>
<trkpt lat="51.905755" lon="0.487133"><ele>78.4</ele></trkpt>
<trkpt lat="51.906626" lon="0.485797"><ele>79.8</ele></trkpt>
<trkpt lat="51.906792" lon="0.484105"><ele>81.4</ele></trkpt>
<trkpt lat="51.907907" lon="0.481799"><ele>82.6</ele></trkpt>
<trkpt lat="51.909082" lon="0.480616"><ele>80.8</ele></trkpt>
<trkpt lat="51.910836" lon="0.482143"><ele>75.0</ele></trkpt>
<trkpt lat="51.913469" lon="0.483325"><ele>64.8</ele></trkpt>
<trkpt lat="51.915356" lon="0.485935"><ele>76.4</ele></trkpt>
<trkpt lat="51.916320" lon="0.486537"><ele>75.6</ele></trkpt>
<trkpt lat="51.917747" lon="0.487936"><ele>77.2</ele></trkpt>
<trkpt lat="51.920481" lon="0.492685"><ele>81.4</ele></trkpt>
<trkpt lat="51.920910" lon="0.494025"><ele>83.4</ele></trkpt>
<trkpt lat="51.920640" lon="0.496265"><ele>85.2</ele></trkpt>
<trkpt lat="51.921022" lon="0.497960"><ele>84.8</ele></trkpt>
<trkpt lat="51.922123" lon="0.500469"><ele>83.2</ele></trkpt>
<trkpt lat="51.923210" lon="0.501595"><ele>79.6</ele></trkpt>
<trkpt lat="51.923767" lon="0.503272"><ele>76.6</ele></trkpt>
<trkpt lat="51.924969" lon="0.505372"><ele>74.8</ele></trkpt>
<trkpt lat="51.925478" lon="0.505912"><ele>75.2</ele></trkpt>
<trkpt lat="51.925661" lon="0.506552"><ele>75.4</ele></trkpt>
<trkpt lat="51.925380" lon="0.508837"><ele>74.2</ele></trkpt>
<trkpt lat="51.924514" lon="0.509575"><ele>74.6</ele></trkpt>
<trkpt lat="51.924498" lon="0.510972"><ele>71.8</ele></trkpt>
<trkpt lat="51.924008" lon="0.514040"><ele>62.0</ele></trkpt>
<trkpt lat="51.924034" lon="0.518822"><ele>49.0</ele></trkpt>
<trkpt lat="51.923695" lon="0.519078"><ele>49.0</ele></trkpt>
<trkpt lat="51.920354" lon="0.519043"><ele>60.8</ele></trkpt>
<trkpt lat="51.919602" lon="0.519337"><ele>57.8</ele></trkpt>
<trkpt lat="51.919073" lon="0.518925"><ele>55.4</ele></trkpt>
<trkpt lat="51.917978" lon="0.519387"><ele>60.6</ele></trkpt>
<trkpt lat="51.917123" lon="0.519419"><ele>64.2</ele></trkpt>
<trkpt lat="51.916200" lon="0.520068"><ele>65.0</ele></trkpt>
<trkpt lat="51.915132" lon="0.519759"><ele>67.4</ele></trkpt>
<trkpt lat="51.914563" lon="0.519894"><ele>68.2</ele></trkpt>
<trkpt lat="51.913947" lon="0.520667"><ele>66.8</ele></trkpt>
<trkpt lat="51.913404" lon="0.522344"><ele>63.4</ele></trkpt>
<trkpt lat="51.912131" lon="0.523353"><ele>58.4</ele></trkpt>
<trkpt lat="51.910962" lon="0.525911"><ele>47.4</ele></trkpt>
<trkpt lat="51.909389" lon="0.526646"><ele>49.4</ele></trkpt>
<trkpt lat="51.907892" lon="0.527771"><ele>48.2</ele></trkpt>
<trkpt lat="51.905746" lon="0.528183"><ele>58.0</ele></trkpt>
<trkpt lat="51.903113" lon="0.531304"><ele>60.2</ele></trkpt>
<trkpt lat="51.901943" lon="0.533681"><ele>54.4</ele></trkpt>
<trkpt lat="51.902180" lon="0.536372"><ele>56.4</ele></trkpt>
<trkpt lat="51.901970" lon="0.537544"><ele>54.2</ele></trkpt>
<trkpt lat="51.900451" lon="0.539957"><ele>54.0</ele></trkpt>
</trkseg></trk>
</gpx>